<?xml version='1.0' encoding='utf-8'?>
<q:quakeml xmlns:q="http://quakeml.org/xmlns/quakeml/1.2" xmlns="http://quakeml.org/xmlns/bed/1.2">
  <eventParameters publicID="smi:local/5c198e05-ac2e-4276-9d6a-330b806b2055">
    <event publicID="smi:local/20170529_143528.a">
      <origin publicID="smi:local/ndk/C201705291435A/origin#cmtorigin">
        <time>
          <value>2017-05-29T14:35:28.300000Z</value>
        </time>
        <latitude>
          <value>-1.24</value>
        </latitude>
        <longitude>
          <value>120.4</value>
        </longitude>
        <depth>
          <value>12.0</value>
        </depth>
      </origin>
      <magnitude publicID="smi:local/9bf3fe73-ffec-42ce-a411-719a88613dba">
        <mag>
          <value>6.58</value>
        </mag>
        <type>Mwc</type>
        <originID>smi:local/ndk/C201705291435A/origin#cmtorigin</originID>
      </magnitude>
      <pick publicID="smi:local/d2fa6a57-f6cc-4582-9977-555674b4892d">
        <time>
          <value>2017-05-29T14:49:11.066451Z</value>
          <uncertainty>0.163696575658</uncertainty>
          <lowerUncertainty>0.081848287829</lowerUncertainty>
          <upperUncertainty>0.081848287829</upperUncertainty>
        </time>
        <waveformID channelCode="HHZ" networkCode="OE" stationCode="CSNA"></waveformID>
        <filterID>smi:local/44d1d17a-44bc-4a79-b217-c903325ab566</filterID>
        <methodID>smi:local/auto</methodID>
        <phaseHint>P</phaseHint>
      </pick>
      <pick publicID="smi:local/09c6a13c-0460-40b9-bc38-925ec126fa3b">
        <time>
          <value>2017-05-29T14:49:37.022473Z</value>
          <uncertainty>0.410679527538</uncertainty>
          <lowerUncertainty>0.205339763769</lowerUncertainty>
          <upperUncertainty>0.205339763769</upperUncertainty>
        </time>
        <waveformID channelCode="HHZ" networkCode="CH" stationCode="LAUCH"></waveformID>
        <filterID>smi:local/c442b54d-ee83-48d8-b215-06a2246246d6</filterID>
        <methodID>smi:local/auto</methodID>
        <phaseHint>P</phaseHint>
      </pick>
      <pick publicID="smi:local/1720771e-632d-4d2d-bb44-a7dd7b955cca">
        <time>
          <value>2017-05-29T14:49:06.775684Z</value>
          <uncertainty>0.317331565421</uncertainty>
          <lowerUncertainty>0.15866578271</lowerUncertainty>
          <upperUncertainty>0.15866578271</upperUncertainty>
        </time>
        <waveformID channelCode="HHZ" networkCode="HU" stationCode="EGYH"></waveformID>
        <filterID>smi:local/05552925-51c2-41a0-a57e-a0b5d86a6d15</filterID>
        <methodID>smi:local/auto</methodID>
        <phaseHint>P</phaseHint>
      </pick>
      <pick publicID="smi:local/f31ad16d-6170-40df-b99c-e45bb074e690">
        <time>
          <value>2017-05-29T14:49:28.284539Z</value>
          <uncertainty>0.780735803646</uncertainty>
          <lowerUncertainty>0.390367901823</lowerUncertainty>
          <upperUncertainty>0.390367901823</upperUncertainty>
        </time>
        <waveformID channelCode="HHZ" networkCode="IV" stationCode="CSNT"></waveformID>
        <filterID>smi:local/ccaaefc3-b83d-4c60-967c-b87465c58c29</filterID>
        <methodID>smi:local/auto</methodID>
        <phaseHint>P</phaseHint>
      </pick>
      <pick publicID="smi:local/a1520833-a6f2-401f-9241-93488bfcb835">
        <time>
          <value>2017-05-29T14:49:11.982042Z</value>
          <uncertainty>0.16004143845</uncertainty>
          <lowerUncertainty>0.0800207192248</lowerUncertainty>
          <upperUncertainty>0.0800207192248</upperUncertainty>
        </time>
        <waveformID channelCode="HHZ" networkCode="Z3" stationCode="A255A"></waveformID>
        <filterID>smi:local/ec2d8212-b165-487f-a223-164349f210e2</filterID>
        <methodID>smi:local/auto</methodID>
        <phaseHint>P</phaseHint>
      </pick>
      <pick publicID="smi:local/d192fca3-2920-4e40-a1da-622e62802f28">
        <time>
          <value>2017-05-29T14:49:28.348680Z</value>
          <uncertainty>0.225797478479</uncertainty>
          <lowerUncertainty>0.11289873924</lowerUncertainty>
          <upperUncertainty>0.11289873924</upperUncertainty>
        </time>
        <waveformID channelCode="HHZ" networkCode="Z3" stationCode="A037A"></waveformID>
        <filterID>smi:local/6062bbb9-06b4-4d90-9d65-0dbed9b48343</filterID>
        <methodID>smi:local/auto</methodID>
        <phaseHint>P</phaseHint>
      </pick>
      <pick publicID="smi:local/0d1e1b44-bfb6-4547-acb8-e18e8ed756c1">
        <time>
          <value>2017-05-29T14:49:11.689394Z</value>
          <uncertainty>0.117807997152</uncertainty>
          <lowerUncertainty>0.0589039985762</lowerUncertainty>
          <upperUncertainty>0.0589039985762</upperUncertainty>
        </time>
        <waveformID channelCode="HHZ" networkCode="Z3" stationCode="A007A"></waveformID>
        <filterID>smi:local/96178886-1bd4-44c7-b8da-be702c323773</filterID>
        <methodID>smi:local/auto</methodID>
        <phaseHint>P</phaseHint>
      </pick>
      <pick publicID="smi:local/0903d6db-ff64-4d5c-9a0d-ad39a390979b">
        <time>
          <value>2017-05-29T14:49:26.339611Z</value>
          <uncertainty>0.180049384294</uncertainty>
          <lowerUncertainty>0.0900246921472</lowerUncertainty>
          <upperUncertainty>0.0900246921472</upperUncertainty>
        </time>
        <waveformID channelCode="HHZ" networkCode="OE" stationCode="RETA"></waveformID>
        <filterID>smi:local/8ac6b6a9-be63-4fcb-8da7-e28d2d7fbfe7</filterID>
        <methodID>smi:local/auto</methodID>
        <phaseHint>P</phaseHint>
      </pick>
      <pick publicID="smi:local/a85ac898-fe92-41b5-8ca3-93d461072edc">
        <time>
          <value>2017-05-29T14:49:37.023127Z</value>
          <uncertainty>0.967782074685</uncertainty>
          <lowerUncertainty>0.483891037342</lowerUncertainty>
          <upperUncertainty>0.483891037342</upperUncertainty>
        </time>
        <waveformID channelCode="HHZ" networkCode="IV" stationCode="MONC"></waveformID>
        <filterID>smi:local/74c25485-3433-4926-93ab-0c057fddf586</filterID>
        <methodID>smi:local/auto</methodID>
        <phaseHint>P</phaseHint>
      </pick>
      <pick publicID="smi:local/f19dff07-8c5b-4029-bb49-19d726803b7f">
        <time>
          <value>2017-05-29T14:49:33.255034Z</value>
          <uncertainty>0.22227827057</uncertainty>
          <lowerUncertainty>0.111139135285</lowerUncertainty>
          <upperUncertainty>0.111139135285</upperUncertainty>
        </time>
        <waveformID channelCode="HHZ" networkCode="IV" stationCode="MSSA"></waveformID>
        <filterID>smi:local/273b3430-0dd8-4623-ad0c-f11abaede408</filterID>
        <methodID>smi:local/auto</methodID>
        <phaseHint>P</phaseHint>
      </pick>
      <pick publicID="smi:local/b9dcbc4f-3801-4d51-92e1-d98209209e17">
        <time>
          <value>2017-05-29T14:49:14.302816Z</value>
          <uncertainty>0.124017817945</uncertainty>
          <lowerUncertainty>0.0620089089725</lowerUncertainty>
          <upperUncertainty>0.0620089089725</upperUncertainty>
        </time>
        <waveformID channelCode="HHZ" networkCode="Z3" stationCode="A017A"></waveformID>
        <filterID>smi:local/88bcd9c4-9672-4379-88e3-142287c7c056</filterID>
        <methodID>smi:local/auto</methodID>
        <phaseHint>P</phaseHint>
      </pick>
      <pick publicID="smi:local/3b655322-e300-4e89-9c3a-211adf992943">
        <time>
          <value>2017-05-29T14:49:20.428329Z</value>
          <uncertainty>0.12470154709</uncertainty>
          <lowerUncertainty>0.0623507735451</lowerUncertainty>
          <upperUncertainty>0.0623507735451</upperUncertainty>
        </time>
        <waveformID channelCode="HHZ" networkCode="BW" stationCode="MANZ"></waveformID>
        <filterID>smi:local/fe7bba49-d8d2-4d14-a850-f144f45b75cb</filterID>
        <methodID>smi:local/auto</methodID>
        <phaseHint>P</phaseHint>
      </pick>
      <pick publicID="smi:local/b1062f35-2f5e-4483-a01a-c170be8b8b6c">
        <time>
          <value>2017-05-29T14:49:35.121088Z</value>
          <uncertainty>0.590577288448</uncertainty>
          <lowerUncertainty>0.295288644224</lowerUncertainty>
          <upperUncertainty>0.295288644224</upperUncertainty>
        </time>
        <waveformID channelCode="HHZ" networkCode="Z3" stationCode="A060B"></waveformID>
        <filterID>smi:local/c4c17deb-55b6-46e3-9f9c-f1c16a1cc09a</filterID>
        <methodID>smi:local/auto</methodID>
        <phaseHint>P</phaseHint>
      </pick>
      <pick publicID="smi:local/6baf0d4d-1f86-45b6-accb-fc21fe057107">
        <time>
          <value>2017-05-29T14:49:42.815243Z</value>
          <uncertainty>0.801286753524</uncertainty>
          <lowerUncertainty>0.400643376762</lowerUncertainty>
          <upperUncertainty>0.400643376762</upperUncertainty>
        </time>
        <waveformID channelCode="HHZ" networkCode="Z3" stationCode="A160A"></waveformID>
        <filterID>smi:local/3623de4a-bd39-474c-8e18-1650af37f430</filterID>
        <methodID>smi:local/auto</methodID>
        <phaseHint>P</phaseHint>
      </pick>
      <pick publicID="smi:local/a03319fc-e7d9-4912-a87d-a979ccd6cb8f">
        <time>
          <value>2017-05-29T14:49:30.963090Z</value>
          <uncertainty>0.374303005368</uncertainty>
          <lowerUncertainty>0.187151502684</lowerUncertainty>
          <upperUncertainty>0.187151502684</upperUncertainty>
        </time>
        <waveformID channelCode="HHZ" networkCode="GU" stationCode="GSCL"></waveformID>
        <filterID>smi:local/9911008d-4f3f-488d-a54c-016100a11939</filterID>
        <methodID>smi:local/auto</methodID>
        <phaseHint>P</phaseHint>
      </pick>
      <pick publicID="smi:local/bfd6c575-7523-41b2-89a9-abc869f4da26">
        <time>
          <value>2017-05-29T14:49:20.432640Z</value>
          <uncertainty>0.117694270061</uncertainty>
          <lowerUncertainty>0.0588471350305</lowerUncertainty>
          <upperUncertainty>0.0588471350305</upperUncertainty>
        </time>
        <waveformID channelCode="HHZ" networkCode="Z3" stationCode="A355A"></waveformID>
        <filterID>smi:local/28b1bc72-f2eb-49cf-b9db-fcdc9e6fa7b3</filterID>
        <methodID>smi:local/auto</methodID>
        <phaseHint>P</phaseHint>
      </pick>
      <pick publicID="smi:local/2b185a58-b246-4eb9-aae8-81ee0b587d3a">
        <time>
          <value>2017-05-29T14:49:28.351950Z</value>
          <uncertainty>0.87339316133</uncertainty>
          <lowerUncertainty>0.436696580665</lowerUncertainty>
          <upperUncertainty>0.436696580665</upperUncertainty>
        </time>
        <waveformID channelCode="HHZ" networkCode="IV" stationCode="FIR"></waveformID>
        <filterID>smi:local/814564bf-fb5e-4192-ae94-b2ec3e036df7</filterID>
        <methodID>smi:local/auto</methodID>
        <phaseHint>P</phaseHint>
      </pick>
      <pick publicID="smi:local/ae4afa7d-38cb-47c2-ba36-b9d4f19647ea">
        <time>
          <value>2017-05-29T14:49:03.416682Z</value>
          <uncertainty>0.282081247712</uncertainty>
          <lowerUncertainty>0.141040623856</lowerUncertainty>
          <upperUncertainty>0.141040623856</upperUncertainty>
        </time>
        <waveformID channelCode="HHZ" networkCode="Z3" stationCode="A267A"></waveformID>
        <filterID>smi:local/5802f6de-9115-4ebe-82f7-827554d2e7a4</filterID>
        <methodID>smi:local/auto</methodID>
        <phaseHint>P</phaseHint>
      </pick>
      <pick publicID="smi:local/d39bf8c4-4146-4e66-80de-dace94b00e60">
        <time>
          <value>2017-05-29T14:49:11.558879Z</value>
          <uncertainty>0.13870289454</uncertainty>
          <lowerUncertainty>0.0693514472698</lowerUncertainty>
          <upperUncertainty>0.0693514472698</upperUncertainty>
        </time>
        <waveformID channelCode="HHZ" networkCode="Z3" stationCode="A021A"></waveformID>
        <filterID>smi:local/b7e3cc22-0c3e-48c6-bd94-8a1b48472eac</filterID>
        <methodID>smi:local/auto</methodID>
        <phaseHint>P</phaseHint>
      </pick>
      <pick publicID="smi:local/05c9a48b-198d-4e6e-8f82-3a2af3fbff62">
        <time>
          <value>2017-05-29T14:49:39.487124Z</value>
          <uncertainty>0.311192830992</uncertainty>
          <lowerUncertainty>0.155596415496</lowerUncertainty>
          <upperUncertainty>0.155596415496</upperUncertainty>
        </time>
        <waveformID channelCode="HHZ" networkCode="GU" stationCode="REMY"></waveformID>
        <filterID>smi:local/ef9dd8dd-3865-4c53-9d92-2e12bdf83af2</filterID>
        <methodID>smi:local/auto</methodID>
        <phaseHint>P</phaseHint>
      </pick>
      <pick publicID="smi:local/119b83b2-522a-47c3-ae60-4324ca044409">
        <time>
          <value>2017-05-29T14:49:32.683262Z</value>
          <uncertainty>0.74985268213</uncertainty>
          <lowerUncertainty>0.374926341065</lowerUncertainty>
          <upperUncertainty>0.374926341065</upperUncertainty>
        </time>
        <waveformID channelCode="HHZ" networkCode="CH" stationCode="MUGIO"></waveformID>
        <filterID>smi:local/bb543014-00e7-4ed0-b3df-81be6e6dae6f</filterID>
        <methodID>smi:local/auto</methodID>
        <phaseHint>P</phaseHint>
      </pick>
      <pick publicID="smi:local/9dce2cdf-fa07-48e0-bf87-16a0941a5c33">
        <time>
          <value>2017-05-29T14:49:18.961328Z</value>
          <uncertainty>0.208060899391</uncertainty>
          <lowerUncertainty>0.104030449696</lowerUncertainty>
          <upperUncertainty>0.104030449696</upperUncertainty>
        </time>
        <waveformID channelCode="HHZ" networkCode="Z3" stationCode="A147B"></waveformID>
        <filterID>smi:local/0f47cf02-01b0-4b04-99a8-3526fafcebd9</filterID>
        <methodID>smi:local/auto</methodID>
        <phaseHint>P</phaseHint>
      </pick>
      <pick publicID="smi:local/72afcb4d-7f0e-4520-907f-4800eaead167">
        <time>
          <value>2017-05-29T14:49:47.365410Z</value>
          <uncertainty>0.652275970666</uncertainty>
          <lowerUncertainty>0.326137985333</lowerUncertainty>
          <upperUncertainty>0.326137985333</upperUncertainty>
        </time>
        <waveformID channelCode="HHZ" networkCode="Z3" stationCode="A177A"></waveformID>
        <filterID>smi:local/4c012184-f618-4f81-a9b2-afb6271e104e</filterID>
        <methodID>smi:local/auto</methodID>
        <phaseHint>P</phaseHint>
      </pick>
      <pick publicID="smi:local/2d107ba4-57dd-4410-b189-a332c13d5dba">
        <time>
          <value>2017-05-29T14:49:28.502013Z</value>
          <uncertainty>0.321872341026</uncertainty>
          <lowerUncertainty>0.160936170513</lowerUncertainty>
          <upperUncertainty>0.160936170513</upperUncertainty>
        </time>
        <waveformID channelCode="HHZ" networkCode="IV" stationCode="OSSC"></waveformID>
        <filterID>smi:local/6f446cea-f0c2-4210-9af9-477f68cae9eb</filterID>
        <methodID>smi:local/auto</methodID>
        <phaseHint>P</phaseHint>
      </pick>
      <pick publicID="smi:local/130e6f75-a5ff-4180-95ea-4bae26608f8f">
        <time>
          <value>2017-05-29T14:49:31.894990Z</value>
          <uncertainty>0.25520962659</uncertainty>
          <lowerUncertainty>0.127604813295</lowerUncertainty>
          <upperUncertainty>0.127604813295</upperUncertainty>
        </time>
        <waveformID channelCode="HHZ" networkCode="CH" stationCode="WILA"></waveformID>
        <filterID>smi:local/769cfada-8702-4cf8-b6c1-ddfb77039b17</filterID>
        <methodID>smi:local/auto</methodID>
        <phaseHint>P</phaseHint>
      </pick>
      <pick publicID="smi:local/63c7fdbf-15e3-4d84-acf7-544d08a307d9">
        <time>
          <value>2017-05-29T14:49:26.301586Z</value>
          <uncertainty>0.25919269035</uncertainty>
          <lowerUncertainty>0.129596345175</lowerUncertainty>
          <upperUncertainty>0.129596345175</upperUncertainty>
        </time>
        <waveformID channelCode="HHZ" networkCode="Z3" stationCode="A360A"></waveformID>
        <filterID>smi:local/fff7d890-f2e2-4adf-9183-b4651cb748f4</filterID>
        <methodID>smi:local/auto</methodID>
        <phaseHint>P</phaseHint>
      </pick>
      <pick publicID="smi:local/64d75973-a1d7-405a-b8be-e772c9d747ff">
        <time>
          <value>2017-05-29T14:49:13.814603Z</value>
          <uncertainty>0.143911460086</uncertainty>
          <lowerUncertainty>0.0719557300428</lowerUncertainty>
          <upperUncertainty>0.0719557300428</upperUncertainty>
        </time>
        <waveformID channelCode="HHZ" networkCode="Z3" stationCode="A019A"></waveformID>
        <filterID>smi:local/86f0c664-944d-4b1f-b119-a57e1b76af11</filterID>
        <methodID>smi:local/auto</methodID>
        <phaseHint>P</phaseHint>
      </pick>
      <pick publicID="smi:local/d16d81e7-e825-451c-9dd8-31b1e0c4762b">
        <time>
          <value>2017-05-29T14:49:35.946294Z</value>
          <uncertainty>0.19386175295</uncertainty>
          <lowerUncertainty>0.096930876475</lowerUncertainty>
          <upperUncertainty>0.096930876475</upperUncertainty>
        </time>
        <waveformID channelCode="HHZ" networkCode="GU" stationCode="PCP"></waveformID>
        <filterID>smi:local/eacc274e-71e6-4deb-8b39-293b7301fe3e</filterID>
        <methodID>smi:local/auto</methodID>
        <phaseHint>P</phaseHint>
      </pick>
      <pick publicID="smi:local/18249d69-4d97-4e52-91ea-be3ba52bc6ef">
        <time>
          <value>2017-05-29T14:49:41.806667Z</value>
          <uncertainty>0.354897498675</uncertainty>
          <lowerUncertainty>0.177448749338</lowerUncertainty>
          <upperUncertainty>0.177448749338</upperUncertainty>
        </time>
        <waveformID channelCode="HHZ" networkCode="C4" stationCode="CERNS"></waveformID>
        <filterID>smi:local/26838f50-deeb-480f-b427-e62f17921472</filterID>
        <methodID>smi:local/auto</methodID>
        <phaseHint>P</phaseHint>
      </pick>
      <pick publicID="smi:local/215fa207-348f-4259-ab5b-cfe19fde1bec">
        <time>
          <value>2017-05-29T14:49:32.808473Z</value>
          <uncertainty>1.23214758914</uncertainty>
          <lowerUncertainty>0.616073794568</lowerUncertainty>
          <upperUncertainty>0.616073794568</upperUncertainty>
        </time>
        <waveformID channelCode="HHZ" networkCode="Z3" stationCode="A121A"></waveformID>
        <filterID>smi:local/98862377-4184-445f-a396-f37264b9606a</filterID>
        <methodID>smi:local/auto</methodID>
        <phaseHint>P</phaseHint>
      </pick>
      <pick publicID="smi:local/f06ed1de-093b-4814-9a99-93d6df7e198d">
        <time>
          <value>2017-05-29T14:49:18.497586Z</value>
          <uncertainty>0.172467390556</uncertainty>
          <lowerUncertainty>0.0862336952778</lowerUncertainty>
          <upperUncertainty>0.0862336952778</upperUncertainty>
        </time>
        <waveformID channelCode="HHZ" networkCode="OE" stationCode="MYKA"></waveformID>
        <filterID>smi:local/501d231b-d8d8-43ec-b397-0148d2a0f798</filterID>
        <methodID>smi:local/auto</methodID>
        <phaseHint>P</phaseHint>
      </pick>
      <pick publicID="smi:local/aafbf180-7435-45cd-998e-883aba52edc0">
        <time>
          <value>2017-05-29T14:49:26.931440Z</value>
          <uncertainty>0.152401841006</uncertainty>
          <lowerUncertainty>0.0762009205029</lowerUncertainty>
          <upperUncertainty>0.0762009205029</upperUncertainty>
        </time>
        <waveformID channelCode="HHZ" networkCode="Z3" stationCode="A118B"></waveformID>
        <filterID>smi:local/10b1948b-3ac9-489d-a491-549ad84a7489</filterID>
        <methodID>smi:local/auto</methodID>
        <phaseHint>P</phaseHint>
      </pick>
      <pick publicID="smi:local/19e2e36c-f441-467c-8607-34342fe8360e">
        <time>
          <value>2017-05-29T14:49:30.878728Z</value>
          <uncertainty>0.198571636455</uncertainty>
          <lowerUncertainty>0.0992858182275</lowerUncertainty>
          <upperUncertainty>0.0992858182275</upperUncertainty>
