# EQEVENT:  Label: EQ20170529_143528.a  Loc:  X 0.00  Y 0.00  Z 10.00  OT 0.00 
A001A  ?    Z    ? P      ? 20170529 1449  8.5834 GAU  1.94e-01 -1.00e+00 -1.00e+00 -1.00e+00
A002B  ?    Z    ? P      ? 20170529 1449  9.1701 GAU  2.51e-01 -1.00e+00 -1.00e+00 -1.00e+00
A003A  ?    Z    ? P      ? 20170529 1449  7.4779 GAU  2.42e-01 -1.00e+00 -1.00e+00 -1.00e+00
A004A  ?    Z    ? P      ? 20170529 1449  9.3138 GAU  3.07e-01 -1.00e+00 -1.00e+00 -1.00e+00
A005B  ?    Z    ? P      ? 20170529 1449  9.7614 GAU  2.01e-01 -1.00e+00 -1.00e+00 -1.00e+00
A006A  ?    Z    ? P      ? 20170529 1449 10.0724 GAU  1.33e-01 -1.00e+00 -1.00e+00 -1.00e+00
A007A  ?    Z    ? P      ? 20170529 1449 11.6894 GAU  1.18e-01 -1.00e+00 -1.00e+00 -1.00e+00
A008A  ?    Z    ? P      ? 20170529 1449 11.4818 GAU  1.54e-01 -1.00e+00 -1.00e+00 -1.00e+00
A009A  ?    Z    ? P      ? 20170529 1449 10.5112 GAU  2.39e-01 -1.00e+00 -1.00e+00 -1.00e+00
A010A  ?    Z    ? P      ? 20170529 1449 10.8899 GAU  2.54e-01 -1.00e+00 -1.00e+00 -1.00e+00
A011B  ?    Z    ? P      ? 20170529 1449 11.2178 GAU  2.75e-01 -1.00e+00 -1.00e+00 -1.00e+00
A012A  ?    Z    ? P      ? 20170529 1449 12.2440 GAU  1.42e-01 -1.00e+00 -1.00e+00 -1.00e+00
A013A  ?    Z    ? P      ? 20170529 1449 12.3410 GAU  1.42e-01 -1.00e+00 -1.00e+00 -1.00e+00
A014A  ?    Z    ? P      ? 20170529 1449 12.9136 GAU  1.25e-01 -1.00e+00 -1.00e+00 -1.00e+00
A015A  ?    Z    ? P      ? 20170529 1449 13.1235 GAU  1.47e-01 -1.00e+00 -1.00e+00 -1.00e+00
A016A  ?    Z    ? P      ? 20170529 1449 14.3763 GAU  1.28e-01 -1.00e+00 -1.00e+00 -1.00e+00
A017A  ?    Z    ? P      ? 20170529 1449 14.3028 GAU  1.24e-01 -1.00e+00 -1.00e+00 -1.00e+00
A018A  ?    Z    ? P      ? 20170529 1449 13.8097 GAU  2.29e-01 -1.00e+00 -1.00e+00 -1.00e+00
A019A  ?    Z    ? P      ? 20170529 1449 13.8146 GAU  1.44e-01 -1.00e+00 -1.00e+00 -1.00e+00
A020A  ?    Z    ? P      ? 20170529 1449 13.2574 GAU  1.33e-01 -1.00e+00 -1.00e+00 -1.00e+00
A021A  ?    Z    ? P      ? 20170529 1449 11.5589 GAU  1.39e-01 -1.00e+00 -1.00e+00 -1.00e+00
A022A  ?    Z    ? P      ? 20170529 1449 14.1447 GAU  2.05e-01 -1.00e+00 -1.00e+00 -1.00e+00
A023A  ?    Z    ? P      ? 20170529 1449 16.0661 GAU  2.36e-01 -1.00e+00 -1.00e+00 -1.00e+00
A024B  ?    Z    ? P      ? 20170529 1449 15.8217 GAU  2.19e-01 -1.00e+00 -1.00e+00 -1.00e+00
A025A  ?    Z    ? P      ? 20170529 1449 15.5571 GAU  1.49e-01 -1.00e+00 -1.00e+00 -1.00e+00
A026A  ?    Z    ? P      ? 20170529 1449 15.5975 GAU  1.35e-01 -1.00e+00 -1.00e+00 -1.00e+00
A027A  ?    Z    ? P      ? 20170529 1449 17.4570 GAU  1.59e-01 -1.00e+00 -1.00e+00 -1.00e+00
A028A  ?    Z    ? P      ? 20170529 1449 16.9690 GAU  1.60e-01 -1.00e+00 -1.00e+00 -1.00e+00
A029A  ?    Z    ? P      ? 20170529 1449 17.5269 GAU  1.70e-01 -1.00e+00 -1.00e+00 -1.00e+00
A030A  ?    Z    ? P      ? 20170529 1449 18.0599 GAU  3.47e-01 -1.00e+00 -1.00e+00 -1.00e+00
A031A  ?    Z    ? P      ? 20170529 1449 17.5379 GAU  1.39e-01 -1.00e+00 -1.00e+00 -1.00e+00
A032A  ?    Z    ? P      ? 20170529 1449 18.3122 GAU  3.91e-01 -1.00e+00 -1.00e+00 -1.00e+00
A033A  ?    Z    ? P      ? 20170529 1449 19.1226 GAU  2.97e-01 -1.00e+00 -1.00e+00 -1.00e+00
A034A  ?    Z    ? P      ? 20170529 1449 19.8266 GAU  3.56e-01 -1.00e+00 -1.00e+00 -1.00e+00
A035A  ?    Z    ? P      ? 20170529 1449 20.7055 GAU  4.77e-01 -1.00e+00 -1.00e+00 -1.00e+00
A036A  ?    Z    ? P      ? 20170529 1449 21.5567 GAU  3.64e-01 -1.00e+00 -1.00e+00 -1.00e+00
A037A  ?    Z    ? P      ? 20170529 1449 28.3487 GAU  2.26e-01 -1.00e+00 -1.00e+00 -1.00e+00
A038A  ?    Z    ? P      ? 20170529 1449 22.4512 GAU  4.34e-01 -1.00e+00 -1.00e+00 -1.00e+00
A050A  ?    Z    ? P      ? 20170529 1449 11.2463 GAU  1.33e-01 -1.00e+00 -1.00e+00 -1.00e+00
A051A  ?    Z    ? P      ? 20170529 1449  9.7581 GAU  1.30e-01 -1.00e+00 -1.00e+00 -1.00e+00
A052A  ?    Z    ? P      ? 20170529 1449  7.4106 GAU  1.15e-01 -1.00e+00 -1.00e+00 -1.00e+00
A060B  ?    Z    ? P      ? 20170529 1449 35.1211 GAU  5.91e-01 -1.00e+00 -1.00e+00 -1.00e+00
A061A  ?    Z    ? P      ? 20170529 1449 32.5506 GAU  4.90e-01 -1.00e+00 -1.00e+00 -1.00e+00
A062A  ?    Z    ? P      ? 20170529 1449 32.3708 GAU  1.69e-01 -1.00e+00 -1.00e+00 -1.00e+00
A071A  ?    Z    ? P      ? 20170529 1449 18.9250 GAU  1.62e-01 -1.00e+00 -1.00e+00 -1.00e+00
A072A  ?    Z    ? P      ? 20170529 1449 17.8775 GAU  1.12e-01 -1.00e+00 -1.00e+00 -1.00e+00
A073A  ?    Z    ? P      ? 20170529 1449 17.1400 GAU  1.78e-01 -1.00e+00 -1.00e+00 -1.00e+00
A074A  ?    Z    ? P      ? 20170529 1449 16.5852 GAU  1.45e-01 -1.00e+00 -1.00e+00 -1.00e+00
A075A  ?    Z    ? P      ? 20170529 1449 15.2238 GAU  2.00e-01 -1.00e+00 -1.00e+00 -1.00e+00
A076A  ?    Z    ? P      ? 20170529 1449 14.9304 GAU  1.38e-01 -1.00e+00 -1.00e+00 -1.00e+00
A077A  ?    Z    ? P      ? 20170529 1449 15.2812 GAU  3.40e-01 -1.00e+00 -1.00e+00 -1.00e+00
A079A  ?    Z    ? P      ? 20170529 1449 13.5572 GAU  1.39e-01 -1.00e+00 -1.00e+00 -1.00e+00
A080A  ?    Z    ? P      ? 20170529 1449 12.7399 GAU  1.07e-01 -1.00e+00 -1.00e+00 -1.00e+00
A081A  ?    Z    ? P      ? 20170529 1449 12.1153 GAU  1.22e-01 -1.00e+00 -1.00e+00 -1.00e+00
A082A  ?    Z    ? P      ? 20170529 1449 10.4605 GAU  6.63e-01 -1.00e+00 -1.00e+00 -1.00e+00
A083A  ?    Z    ? P      ? 20170529 1449 10.7661 GAU  1.44e-01 -1.00e+00 -1.00e+00 -1.00e+00
A084A  ?    Z    ? P      ? 20170529 1449 11.0431 GAU  1.22e-01 -1.00e+00 -1.00e+00 -1.00e+00
A085A  ?    Z    ? P      ? 20170529 1449  9.2556 GAU  1.29e-01 -1.00e+00 -1.00e+00 -1.00e+00
A086A  ?    Z    ? P      ? 20170529 1449  9.1130 GAU  1.20e-01 -1.00e+00 -1.00e+00 -1.00e+00
A087A  ?    Z    ? P      ? 20170529 1449  6.9976 GAU  1.51e-01 -1.00e+00 -1.00e+00 -1.00e+00
A089A  ?    Z    ? P      ? 20170529 1449  6.7037 GAU  1.65e-01 -1.00e+00 -1.00e+00 -1.00e+00
A090A  ?    Z    ? P      ? 20170529 1449  4.3362 GAU  4.00e-01 -1.00e+00 -1.00e+00 -1.00e+00
A100A  ?    Z    ? P      ? 20170529 1449 30.7017 GAU  2.03e-01 -1.00e+00 -1.00e+00 -1.00e+00
A101B  ?    Z    ? P      ? 20170529 1449 32.2764 GAU  3.80e-01 -1.00e+00 -1.00e+00 -1.00e+00
A102A  ?    Z    ? P      ? 20170529 1449 30.1389 GAU  2.68e-01 -1.00e+00 -1.00e+00 -1.00e+00
A103A  ?    Z    ? P      ? 20170529 1449 29.5328 GAU  3.14e-01 -1.00e+00 -1.00e+00 -1.00e+00
A104A  ?    Z    ? P      ? 20170529 1449 28.7620 GAU  6.02e-01 -1.00e+00 -1.00e+00 -1.00e+00
A104B  ?    Z    ? P      ? 20170529 1449 28.7858 GAU  5.82e-01 -1.00e+00 -1.00e+00 -1.00e+00
A105A  ?    Z    ? P      ? 20170529 1449 27.8403 GAU  3.68e-01 -1.00e+00 -1.00e+00 -1.00e+00
A106B  ?    Z    ? P      ? 20170529 1449 28.0073 GAU  1.86e-01 -1.00e+00 -1.00e+00 -1.00e+00
A108A  ?    Z    ? P      ? 20170529 1449 28.0182 GAU  3.42e-01 -1.00e+00 -1.00e+00 -1.00e+00
A109A  ?    Z    ? P      ? 20170529 1449 29.3437 GAU  3.28e-01 -1.00e+00 -1.00e+00 -1.00e+00
A111A  ?    Z    ? P      ? 20170529 1449 25.7953 GAU  2.64e-01 -1.00e+00 -1.00e+00 -1.00e+00
A112A  ?    Z    ? P      ? 20170529 1449 32.3324 GAU  6.18e-01 -1.00e+00 -1.00e+00 -1.00e+00
A113A  ?    Z    ? P      ? 20170529 1449 30.4362 GAU  2.13e-01 -1.00e+00 -1.00e+00 -1.00e+00
A114A  ?    Z    ? P      ? 20170529 1449 28.7799 GAU  3.60e-01 -1.00e+00 -1.00e+00 -1.00e+00
A115A  ?    Z    ? P      ? 20170529 1449 29.6823 GAU  1.75e-01 -1.00e+00 -1.00e+00 -1.00e+00
A116A  ?    Z    ? P      ? 20170529 1449 27.9560 GAU  3.15e-01 -1.00e+00 -1.00e+00 -1.00e+00
A118B  ?    Z    ? P      ? 20170529 1449 26.9314 GAU  1.52e-01 -1.00e+00 -1.00e+00 -1.00e+00
A119A  ?    Z    ? P      ? 20170529 1449 26.9722 GAU  1.29e-01 -1.00e+00 -1.00e+00 -1.00e+00
A121A  ?    Z    ? P      ? 20170529 1449 32.8085 GAU  1.23e+00 -1.00e+00 -1.00e+00 -1.00e+00
A125A  ?    Z    ? P      ? 20170529 1449 29.1000 GAU  1.20e+00 -1.00e+00 -1.00e+00 -1.00e+00
A126A  ?    Z    ? P      ? 20170529 1449 31.3049 GAU  2.32e-01 -1.00e+00 -1.00e+00 -1.00e+00
A127A  ?    Z    ? P      ? 20170529 1449 30.8291 GAU  1.17e+00 -1.00e+00 -1.00e+00 -1.00e+00
A129A  ?    Z    ? P      ? 20170529 1449 31.1898 GAU  1.07e+00 -1.00e+00 -1.00e+00 -1.00e+00
A141A  ?    Z    ? P      ? 20170529 1449 23.1130 GAU  4.20e-01 -1.00e+00 -1.00e+00 -1.00e+00
A143A  ?    Z    ? P      ? 20170529 1449 25.6728 GAU  2.71e-01 -1.00e+00 -1.00e+00 -1.00e+00
A144A  ?    Z    ? P      ? 20170529 1449 22.0655 GAU  4.36e-01 -1.00e+00 -1.00e+00 -1.00e+00
A145A  ?    Z    ? P      ? 20170529 1449 21.4605 GAU  3.53e-01 -1.00e+00 -1.00e+00 -1.00e+00
A146A  ?    Z    ? P      ? 20170529 1449 19.0595 GAU  2.70e-01 -1.00e+00 -1.00e+00 -1.00e+00
A147B  ?    Z    ? P      ? 20170529 1449 18.9613 GAU  2.08e-01 -1.00e+00 -1.00e+00 -1.00e+00
A148B  ?    Z    ? P      ? 20170529 1449 20.3744 GAU  1.94e-01 -1.00e+00 -1.00e+00 -1.00e+00
A156A  ?    Z    ? P      ? 20170529 1449 43.8767 GAU  5.22e-01 -1.00e+00 -1.00e+00 -1.00e+00
A157A  ?    Z    ? P      ? 20170529 1449 40.6260 GAU  1.31e+00 -1.00e+00 -1.00e+00 -1.00e+00
A158A  ?    Z    ? P      ? 20170529 1449 38.6019 GAU  1.85e-01 -1.00e+00 -1.00e+00 -1.00e+00
A160A  ?    Z    ? P      ? 20170529 1449 42.8152 GAU  8.01e-01 -1.00e+00 -1.00e+00 -1.00e+00
A164A  ?    Z    ? P      ? 20170529 1449 41.4189 GAU  3.41e-01 -1.00e+00 -1.00e+00 -1.00e+00
A165A  ?    Z    ? P      ? 20170529 1449 48.3329 GAU  5.18e-01 -1.00e+00 -1.00e+00 -1.00e+00
A166A  ?    Z    ? P      ? 20170529 1449 46.1879 GAU  3.74e-01 -1.00e+00 -1.00e+00 -1.00e+00
A168A  ?    Z    ? P      ? 20170529 1449 47.6248 GAU  4.29e-01 -1.00e+00 -1.00e+00 -1.00e+00
A171A  ?    Z    ? P      ? 20170529 1449 47.0691 GAU  4.01e-01 -1.00e+00 -1.00e+00 -1.00e+00
A173A  ?    Z    ? P      ? 20170529 1449 40.4139 GAU  1.55e-01 -1.00e+00 -1.00e+00 -1.00e+00
A174A  ?    Z    ? P      ? 20170529 1449 47.3649 GAU  4.88e-01 -1.00e+00 -1.00e+00 -1.00e+00
A176A  ?    Z    ? P      ? 20170529 1449 48.5654 GAU  2.94e-01 -1.00e+00 -1.00e+00 -1.00e+00
A177A  ?    Z    ? P      ? 20170529 1449 47.3654 GAU  6.52e-01 -1.00e+00 -1.00e+00 -1.00e+00
A179A  ?    Z    ? P      ? 20170529 1449 52.8043 GAU  5.24e-01 -1.00e+00 -1.00e+00 -1.00e+00
A180A  ?    Z    ? P      ? 20170529 1449 49.4400 GAU  4.25e-01 -1.00e+00 -1.00e+00 -1.00e+00
A181A  ?    Z    ? P      ? 20170529 1449 42.4751 GAU  5.04e-01 -1.00e+00 -1.00e+00 -1.00e+00
A182A  ?    Z    ? P      ? 20170529 1449 54.4409 GAU  5.65e-01 -1.00e+00 -1.00e+00 -1.00e+00
A184A  ?    Z    ? P      ? 20170529 1449 48.7011 GAU  3.97e-01 -1.00e+00 -1.00e+00 -1.00e+00
A186B  ?    Z    ? P      ? 20170529 1449 45.1334 GAU  6.26e-01 -1.00e+00 -1.00e+00 -1.00e+00
A187A  ?    Z    ? P      ? 20170529 1449 52.9057 GAU  3.38e-01 -1.00e+00 -1.00e+00 -1.00e+00
A188A  ?    Z    ? P      ? 20170529 1449 51.0597 GAU  8.24e-01 -1.00e+00 -1.00e+00 -1.00e+00
A191A  ?    Z    ? P      ? 20170529 1449 52.9581 GAU  1.98e-01 -1.00e+00 -1.00e+00 -1.00e+00
A192A  ?    Z    ? P      ? 20170529 1449 49.2687 GAU  8.36e-01 -1.00e+00 -1.00e+00 -1.00e+00
A193A  ?    Z    ? P      ? 20170529 1449 47.5658 GAU  5.40e-01 -1.00e+00 -1.00e+00 -1.00e+00
A194A  ?    Z    ? P      ? 20170529 1449 43.2223 GAU  3.04e-01 -1.00e+00 -1.00e+00 -1.00e+00
A196A  ?    Z    ? P      ? 20170529 1449 49.7304 GAU  3.21e-01 -1.00e+00 -1.00e+00 -1.00e+00
A198A  ?    Z    ? P      ? 20170529 1449 55.7187 GAU  5.99e-01 -1.00e+00 -1.00e+00 -1.00e+00
A204A  ?    Z    ? P      ? 20170529 1449 47.6147 GAU  4.74e-01 -1.00e+00 -1.00e+00 -1.00e+00
A205A  ?    Z    ? P      ? 20170529 1449 45.6187 GAU  2.40e-01 -1.00e+00 -1.00e+00 -1.00e+00
A206A  ?    Z    ? P      ? 20170529 1449 44.1047 GAU  3.38e-01 -1.00e+00 -1.00e+00 -1.00e+00
A208A  ?    Z    ? P      ? 20170529 1449 38.4597 GAU  8.22e-01 -1.00e+00 -1.00e+00 -1.00e+00
A210A  ?    Z    ? P      ? 20170529 1449 39.2253 GAU  3.69e-01 -1.00e+00 -1.00e+00 -1.00e+00
A211A  ?    Z    ? P      ? 20170529 1449 37.3698 GAU  3.11e-01 -1.00e+00 -1.00e+00 -1.00e+00
A212A  ?    Z    ? P      ? 20170529 1449 42.1614 GAU  4.73e-01 -1.00e+00 -1.00e+00 -1.00e+00
A216A  ?    Z    ? P      ? 20170529 1449 46.6861 GAU  4.81e-01 -1.00e+00 -1.00e+00 -1.00e+00
A217A  ?    Z    ? P      ? 20170529 1449 44.0569 GAU  4.82e-01 -1.00e+00 -1.00e+00 -1.00e+00
A250A  ?    Z    ? P      ? 20170529 1449 15.7119 GAU  1.90e-01 -1.00e+00 -1.00e+00 -1.00e+00
A251A  ?    Z    ? P      ? 20170529 1449 11.6469 GAU  1.52e-01 -1.00e+00 -1.00e+00 -1.00e+00
A252A  ?    Z    ? P      ? 20170529 1449  6.1444 GAU  2.29e-01 -1.00e+00 -1.00e+00 -1.00e+00
A253A  ?    Z    ? P      ? 20170529 1449 18.7416 GAU  1.17e-01 -1.00e+00 -1.00e+00 -1.00e+00
A254A  ?    Z    ? P      ? 20170529 1449 13.1657 GAU  1.53e-01 -1.00e+00 -1.00e+00 -1.00e+00
A255A  ?    Z    ? P      ? 20170529 1449 11.9820 GAU  1.60e-01 -1.00e+00 -1.00e+00 -1.00e+00
A261A  ?    Z    ? P      ? 20170529 1449  7.8329 GAU  3.36e-01 -1.00e+00 -1.00e+00 -1.00e+00
A262A  ?    Z    ? P      ? 20170529 1449  9.6164 GAU  3.11e-01 -1.00e+00 -1.00e+00 -1.00e+00
A263A  ?    Z    ? P      ? 20170529 1449  7.3123 GAU  2.56e-01 -1.00e+00 -1.00e+00 -1.00e+00
A264A  ?    Z    ? P      ? 20170529 1449  7.7203 GAU  5.08e-01 -1.00e+00 -1.00e+00 -1.00e+00
A265A  ?    Z    ? P      ? 20170529 1449  5.7808 GAU  3.02e-01 -1.00e+00 -1.00e+00 -1.00e+00
A266A  ?    Z    ? P      ? 20170529 1449  4.2132 GAU  2.48e-01 -1.00e+00 -1.00e+00 -1.00e+00
A267A  ?    Z    ? P      ? 20170529 1449  3.4167 GAU  2.82e-01 -1.00e+00 -1.00e+00 -1.00e+00
A268A  ?    Z    ? P      ? 20170529 1449  4.9506 GAU  1.55e-01 -1.00e+00 -1.00e+00 -1.00e+00
A269A  ?    Z    ? P      ? 20170529 1449  3.7498 GAU  1.24e-01 -1.00e+00 -1.00e+00 -1.00e+00
A270A  ?    Z    ? P      ? 20170529 1449  1.6718 GAU  2.19e-01 -1.00e+00 -1.00e+00 -1.00e+00
A271A  ?    Z    ? P      ? 20170529 1449  2.3107 GAU  5.11e-01 -1.00e+00 -1.00e+00 -1.00e+00
A272A  ?    Z    ? P      ? 20170529 1449  2.1025 GAU  2.88e-01 -1.00e+00 -1.00e+00 -1.00e+00
A273A  ?    Z    ? P      ? 20170529 1449  6.1296 GAU  5.04e-01 -1.00e+00 -1.00e+00 -1.00e+00
A280A  ?    Z    ? P      ? 20170529 1449 37.6619 GAU  3.82e-01 -1.00e+00 -1.00e+00 -1.00e+00
A283B  ?    Z    ? P      ? 20170529 1449 36.4208 GAU  5.52e-01 -1.00e+00 -1.00e+00 -1.00e+00
A285A  ?    Z    ? P      ? 20170529 1449 32.4451 GAU  4.58e-01 -1.00e+00 -1.00e+00 -1.00e+00
A287A  ?    Z    ? P      ? 20170529 1449 34.8446 GAU  5.62e-01 -1.00e+00 -1.00e+00 -1.00e+00
A288A  ?    Z    ? P      ? 20170529 1449 34.3582 GAU  6.14e-01 -1.00e+00 -1.00e+00 -1.00e+00
A289A  ?    Z    ? P      ? 20170529 1449 30.6575 GAU  2.43e-01 -1.00e+00 -1.00e+00 -1.00e+00
A290A  ?    Z    ? P      ? 20170529 1449 26.9448 GAU  4.39e-01 -1.00e+00 -1.00e+00 -1.00e+00
A291A  ?    Z    ? P      ? 20170529 1449 23.7605 GAU  4.82e-01 -1.00e+00 -1.00e+00 -1.00e+00
A302A  ?    Z    ? P      ? 20170529 1449 24.7000 GAU  5.62e-01 -1.00e+00 -1.00e+00 -1.00e+00
A306A  ?    Z    ? P      ? 20170529 1449 31.2248 GAU  3.19e-01 -1.00e+00 -1.00e+00 -1.00e+00
A308A  ?    Z    ? P      ? 20170529 1449 26.1160 GAU  5.25e-01 -1.00e+00 -1.00e+00 -1.00e+00
A313A  ?    Z    ? P      ? 20170529 1449 29.2209 GAU  7.02e-01 -1.00e+00 -1.00e+00 -1.00e+00
A317A  ?    Z    ? P      ? 20170529 1449 33.8437 GAU  5.69e-01 -1.00e+00 -1.00e+00 -1.00e+00
A318A  ?    Z    ? P      ? 20170529 1449 30.8137 GAU  6.85e-01 -1.00e+00 -1.00e+00 -1.00e+00
A319A  ?    Z    ? P      ? 20170529 1449 30.3967 GAU  2.87e-01 -1.00e+00 -1.00e+00 -1.00e+00
A331A  ?    Z    ? P      ? 20170529 1449  4.0778 GAU  1.70e-01 -1.00e+00 -1.00e+00 -1.00e+00
A332A  ?    Z    ? P      ? 20170529 1449  3.1433 GAU  1.22e-01 -1.00e+00 -1.00e+00 -1.00e+00
A333A  ?    Z    ? P      ? 20170529 1449  8.1178 GAU  4.09e-01 -1.00e+00 -1.00e+00 -1.00e+00
A334A  ?    Z    ? P      ? 20170529 1449  5.5884 GAU  2.73e-01 -1.00e+00 -1.00e+00 -1.00e+00
A335A  ?    Z    ? P      ? 20170529 1449  3.5323 GAU  1.90e-01 -1.00e+00 -1.00e+00 -1.00e+00
A336A  ?    Z    ? P      ? 20170529 1449  1.5196 GAU  1.45e-01 -1.00e+00 -1.00e+00 -1.00e+00
A337A  ?    Z    ? P      ? 20170529 1449  5.1990 GAU  2.67e-01 -1.00e+00 -1.00e+00 -1.00e+00
A338A  ?    Z    ? P      ? 20170529 1449  3.5189 GAU  3.55e-01 -1.00e+00 -1.00e+00 -1.00e+00
A339A  ?    Z    ? P      ? 20170529 1449  5.7158 GAU  4.65e-01 -1.00e+00 -1.00e+00 -1.00e+00
A353A  ?    Z    ? P      ? 20170529 1449 25.0509 GAU  6.03e-01 -1.00e+00 -1.00e+00 -1.00e+00
A354A  ?    Z    ? P      ? 20170529 1449 23.9786 GAU  1.35e-01 -1.00e+00 -1.00e+00 -1.00e+00
A355A  ?    Z    ? P      ? 20170529 1449 20.4326 GAU  1.18e-01 -1.00e+00 -1.00e+00 -1.00e+00
A356A  ?    Z    ? P      ? 20170529 1449 20.8818 GAU  1.49e-01 -1.00e+00 -1.00e+00 -1.00e+00
A357B  ?    Z    ? P      ? 20170529 1449 21.8944 GAU  1.44e-01 -1.00e+00 -1.00e+00 -1.00e+00
A358A  ?    Z    ? P      ? 20170529 1449 18.3152 GAU  1.49e-01 -1.00e+00 -1.00e+00 -1.00e+00
A360A  ?    Z    ? P      ? 20170529 1449 26.3016 GAU  2.59e-01 -1.00e+00 -1.00e+00 -1.00e+00
A361A  ?    Z    ? P      ? 20170529 1449 24.7794 GAU  2.09e-01 -1.00e+00 -1.00e+00 -1.00e+00
A362A  ?    Z    ? P      ? 20170529 1449 26.3035 GAU  4.11e-01 -1.00e+00 -1.00e+00 -1.00e+00
A363A  ?    Z    ? P      ? 20170529 1449 24.8258 GAU  3.75e-01 -1.00e+00 -1.00e+00 -1.00e+00
A364A  ?    Z    ? P      ? 20170529 1449 23.2667 GAU  1.66e-01 -1.00e+00 -1.00e+00 -1.00e+00
A365A  ?    Z    ? P      ? 20170529 1449 25.6610 GAU  2.06e-01 -1.00e+00 -1.00e+00 -1.00e+00
A366A  ?    Z    ? P      ? 20170529 1449 26.3263 GAU  7.12e-01 -1.00e+00 -1.00e+00 -1.00e+00
A368A  ?    Z    ? P      ? 20170529 1449 25.3968 GAU  1.20e-01 -1.00e+00 -1.00e+00 -1.00e+00
A369A  ?    Z    ? P      ? 20170529 1449 23.9834 GAU  1.55e-01 -1.00e+00 -1.00e+00 -1.00e+00
ABTA   ?    Z    ? P      ? 20170529 1449 21.4903 GAU  4.40e-01 -1.00e+00 -1.00e+00 -1.00e+00
ACB    ?    Z    ? P      ? 20170529 1449 33.5016 GAU  3.99e-01 -1.00e+00 -1.00e+00 -1.00e+00
ACOM   ?    Z    ? P      ? 20170529 1449 19.1107 GAU  2.25e-01 -1.00e+00 -1.00e+00 -1.00e+00
AGOR   ?    Z    ? P      ? 20170529 1449 23.5764 GAU  1.32e-01 -1.00e+00 -1.00e+00 -1.00e+00
AIGLE  ?    Z    ? P      ? 20170529 1449 39.0264 GAU  5.50e-01 -1.00e+00 -1.00e+00 -1.00e+00
APEC   ?    Z    ? P      ? 20170529 1449 25.6045 GAU  2.70e-01 -1.00e+00 -1.00e+00 -1.00e+00
ARSA   ?    Z    ? P      ? 20170529 1449 12.5313 GAU  2.01e-01 -1.00e+00 -1.00e+00 -1.00e+00
ASQU   ?    Z    ? P      ? 20170529 1449 27.4278 GAU  2.72e-01 -1.00e+00 -1.00e+00 -1.00e+00
BAD    ?    Z    ? P      ? 20170529 1449 19.5109 GAU  1.35e-01 -1.00e+00 -1.00e+00 -1.00e+00
BALD   ?    Z    ? P      ? 20170529 1449 28.2442 GAU  3.12e-01 -1.00e+00 -1.00e+00 -1.00e+00
BALST  ?    Z    ? P      ? 20170529 1449 35.3662 GAU  4.35e-01 -1.00e+00 -1.00e+00 -1.00e+00
BDI    ?    Z    ? P      ? 20170529 1449 30.2204 GAU  1.95e-01 -1.00e+00 -1.00e+00 -1.00e+00
BE1    ?    Z    ? P      ? 20170529 1449 24.6028 GAU  2.56e-01 -1.00e+00 -1.00e+00 -1.00e+00
BEHE   ?    Z    ? P      ? 20170529 1449  9.1746 GAU  3.44e-01 -1.00e+00 -1.00e+00 -1.00e+00
BERGE  ?    Z    ? P      ? 20170529 1449 33.3729 GAU  5.94e-01 -1.00e+00 -1.00e+00 -1.00e+00
BERNI  ?    Z    ? P      ? 20170529 1449 30.1171 GAU  2.95e-01 -1.00e+00 -1.00e+00 -1.00e+00
BFO    ?    Z    ? P      ? 20170529 1449 32.6062 GAU  1.54e-01 -1.00e+00 -1.00e+00 -1.00e+00
BHB    ?    Z    ? P      ? 20170529 1449 38.7883 GAU  2.30e+00 -1.00e+00 -1.00e+00 -1.00e+00
BLY    ?    Z    ? P      ? 20170529 1449  8.3680 GAU  1.88e-01 -1.00e+00 -1.00e+00 -1.00e+00
BNALP  ?    Z    ? P      ? 20170529 1449 34.2477 GAU  2.45e-01 -1.00e+00 -1.00e+00 -1.00e+00
BNI    ?    Z    ? P      ? 20170529 1449 41.8270 GAU  1.21e+00 -1.00e+00 -1.00e+00 -1.00e+00
BOO    ?    Z    ? P      ? 20170529 1449 19.8304 GAU  1.97e-01 -1.00e+00 -1.00e+00 -1.00e+00
BOURR  ?    Z    ? P      ? 20170529 1449 36.8548 GAU  3.91e-01 -1.00e+00 -1.00e+00 -1.00e+00
BRIS   ?    Z    ? P      ? 20170529 1449 27.3907 GAU  3.33e-01 -1.00e+00 -1.00e+00 -1.00e+00
BRJN   ?    Z    ? P      ? 20170529 1449 19.4989 GAU  2.98e-01 -1.00e+00 -1.00e+00 -1.00e+00
