<?xml version='1.0' encoding='utf-8'?>
<q:quakeml xmlns="http://quakeml.org/xmlns/bed/1.2" xmlns:q="http://quakeml.org/xmlns/quakeml/1.2">
  <eventParameters publicID="smi:local/5182023e-9e78-4fbc-9132-c7e2d6223266">
    <event publicID="smi:local/e0019.048.13">
      <preferredOriginID>smi:local/ef3aef4e-d2d8-4ad1-9de2-ae479d7ca69c</preferredOriginID>
      <comment>
        <text>2017 Non-Global, Insheim, autoPyLoT, min1d032016, Oct-Tree, incl. Stat.corr.</text>
      </comment>
      <creationInfo>
        <author>Marcel Paffrath RUB</author>
        <creationTime>2019-06-18T16:42:26.000000Z</creationTime>
        <version>NLLoc:v6.00.0</version>
      </creationInfo>
      <origin publicID="smi:local/6b0e21af-f315-464f-a2d8-ad98be5fd4b5">
        <time>
          <value>2013-02-17T20:07:14.975100Z</value>
        </time>
        <latitude>
          <value>49.163</value>
          <uncertainty>0.00046421200739</uncertainty>
        </latitude>
        <longitude>
          <value>8.16073</value>
          <uncertainty>0.000753747936377</uncertainty>
        </longitude>
        <depth>
          <value>3722.53</value>
          <uncertainty>68.5167132895</uncertainty>
          <confidenceLevel>68.0</confidenceLevel>
        </depth>
        <depthType>from location</depthType>
        <quality>
          <associatedPhaseCount>68</associatedPhaseCount>
          <usedPhaseCount>53</usedPhaseCount>
          <associatedStationCount>-1</associatedStationCount>
          <usedStationCount>27</usedStationCount>
          <depthPhaseCount>-1</depthPhaseCount>
          <standardError>0.037278</standardError>
          <azimuthalGap>79.7007</azimuthalGap>
          <secondaryAzimuthalGap>80.5059</secondaryAzimuthalGap>
          <groundTruthLevel>-</groundTruthLevel>
          <minimumDistance>0.00827339904581</minimumDistance>
          <maximumDistance>0.0724656262939</maximumDistance>
          <medianDistance>0.0426887281933</medianDistance>
        </quality>
        <comment>
          <text>Note: Depth/Latitude/Longitude errors are calculated from covariance matrix as 1D marginal (Lon/Lat errors as great circle degrees) while OriginUncertainty min/max horizontal errors are calculated from 2D error ellipsoid and are therefore seemingly higher compared to 1D errors. Error estimates can be reconstructed from the following original NonLinLoc error statistics line:
STATISTICS ExpectX 0.477716 Y 1.0484 Z 3.75905  CovXX 0.00702461 XY 0.00207683 XZ 1.28953e-05 YY 0.00266442 YZ 0.00160997 ZZ 0.00469454 EllAz1  160.459 Dip1  23.349 Len1  0.064808 Az2  310.589 Dip2  63.5354 Len2  0.135629 Len3  1.678650e-01</text>
        </comment>
        <creationInfo>
          <author>Marcel Paffrath RUB</author>
          <creationTime>2019-10-23T15:13:14.000000Z</creationTime>
          <version>NLLoc:v6.00.0</version>
        </creationInfo>
        <originUncertainty>
          <preferredDescription>uncertainty ellipse</preferredDescription>
          <minHorizontalUncertainty>64.9393</minHorizontalUncertainty>
          <maxHorizontalUncertainty>134.416</maxHorizontalUncertainty>
          <azimuthMaxHorizontalUncertainty>68.1948</azimuthMaxHorizontalUncertainty>
          <confidenceLevel>68.0</confidenceLevel>
        </originUncertainty>
        <arrival publicID="smi:local/8bece83b-3ec4-4683-9846-808050cf6c57">
          <pickID>smi:local/9eb9346c-a77f-46e2-8b0a-67bfcd505324</pickID>
          <phase>P</phase>
          <azimuth>46.8</azimuth>
          <distance>0.00827375877445</distance>
          <takeoffAngle>
            <value>156.7</value>
          </takeoffAngle>
          <timeResidual>0.0325</timeResidual>
          <timeWeight>1.8785</timeWeight>
        </arrival>
        <arrival publicID="smi:local/eb3d3f7e-3174-4099-9833-79c7f6a1cb0f">
          <pickID>smi:local/3509b878-4543-45eb-8a23-8457e5bec074</pickID>
          <phase>S</phase>
          <azimuth>46.8</azimuth>
          <distance>0.00827375877445</distance>
          <takeoffAngle>
            <value>152.0</value>
          </takeoffAngle>
          <timeResidual>0.0476</timeResidual>
          <timeWeight>0.2859</timeWeight>
        </arrival>
        <arrival publicID="smi:local/90624efa-ac92-4ca4-985f-23cb7fcac007">
          <pickID>smi:local/a41b22b3-45f2-4253-9a09-6301c3d8afa3</pickID>
          <phase>P</phase>
          <azimuth>64.6</azimuth>
          <distance>0.0140483028061</distance>
          <takeoffAngle>
            <value>144.1</value>
          </takeoffAngle>
          <timeResidual>0.0158</timeResidual>
          <timeWeight>0.1918</timeWeight>
        </arrival>
        <arrival publicID="smi:local/40eaeef9-c226-4320-8c96-28064522b198">
          <pickID>smi:local/7b8fbe6b-a511-44bc-87d8-c82f75c9dac9</pickID>
          <phase>S</phase>
          <azimuth>64.6</azimuth>
          <distance>0.0140483028061</distance>
          <takeoffAngle>
            <value>136.8</value>
          </takeoffAngle>
          <timeResidual>-0.121</timeResidual>
          <timeWeight>0.5441</timeWeight>
        </arrival>
        <arrival publicID="smi:local/d228ffe1-fb5a-4f1a-8c6b-694a87c599cb">
          <pickID>smi:local/4b01b7e6-ab09-48eb-b30a-6eff5421ade7</pickID>
          <phase>P</phase>
          <azimuth>45.5</azimuth>
          <distance>0.0140797790623</distance>
          <takeoffAngle>
            <value>144.2</value>
          </takeoffAngle>
          <timeResidual>0.0222</timeResidual>
          <timeWeight>2.123</timeWeight>
        </arrival>
        <arrival publicID="smi:local/4fce282b-c3bd-4181-b27c-a64178423966">
          <pickID>smi:local/42ab9322-b57b-4397-8c77-d0a67bd63d31</pickID>
          <phase>S</phase>
          <azimuth>45.5</azimuth>
          <distance>0.0140797790623</distance>
          <takeoffAngle>
            <value>136.9</value>
          </takeoffAngle>
          <timeResidual>0.0001</timeResidual>
          <timeWeight>2.5296</timeWeight>
        </arrival>
        <arrival publicID="smi:local/8a698986-99d4-40a2-842b-f1667c82ff47">
          <pickID>smi:local/f70730f6-be92-4c8e-a8a4-135c11d3afd9</pickID>
          <phase>P</phase>
          <azimuth>347.7</azimuth>
          <distance>0.0161751984041</distance>
          <takeoffAngle>
            <value>139.6</value>
          </takeoffAngle>
          <timeResidual>0.0314</timeResidual>
          <timeWeight>1.7408</timeWeight>
        </arrival>
        <arrival publicID="smi:local/78643fb5-1798-4ca5-8b22-332344384c35">
          <pickID>smi:local/e7106a97-2b96-4f9e-925f-b05f9ff1e1f2</pickID>
          <phase>S</phase>
          <azimuth>347.7</azimuth>
          <distance>0.0161751984041</distance>
          <takeoffAngle>
            <value>130.8</value>
          </takeoffAngle>
          <timeResidual>0.0069</timeResidual>
          <timeWeight>0.8411</timeWeight>
        </arrival>
        <arrival publicID="smi:local/f84e5a9e-3646-491d-bc75-9fa1c8272ce6">
          <pickID>smi:local/0ee1fad9-dc17-4143-b5f2-7c13e227c752</pickID>
          <phase>P</phase>
          <azimuth>96.9</azimuth>
          <distance>0.0270965599863</distance>
          <takeoffAngle>
            <value>118.6</value>
          </takeoffAngle>
          <timeResidual>0.004</timeResidual>
          <timeWeight>1.5884</timeWeight>
        </arrival>
        <arrival publicID="smi:local/fc7c62ce-8ebc-4030-bfa0-161b9983572e">
          <pickID>smi:local/beef17c4-ac24-48c3-8ed3-4dfd41164054</pickID>
          <phase>S</phase>
          <azimuth>96.9</azimuth>
          <distance>0.0270965599863</distance>
          <takeoffAngle>
            <value>108.7</value>
          </takeoffAngle>
          <timeResidual>-0.0798</timeResidual>
          <timeWeight>0.4144</timeWeight>
        </arrival>
        <arrival publicID="smi:local/41aa16a7-859f-4975-a8e8-36084d445cd1">
          <pickID>smi:local/ec5af9ac-a554-4188-87f9-a11ca486f7b8</pickID>
          <phase>P</phase>
          <azimuth>194.8</azimuth>
          <distance>0.0280327537781</distance>
          <takeoffAngle>
            <value>117.0</value>
          </takeoffAngle>
          <timeResidual>0.0022</timeResidual>
          <timeWeight>2.3198</timeWeight>
        </arrival>
        <arrival publicID="smi:local/d4b8d705-ace0-4bee-9f67-1c3fb36f9a45">
          <pickID>smi:local/cd84d5a0-33fb-449b-b2f9-d5b0dc3d6f77</pickID>
          <phase>S</phase>
          <azimuth>194.8</azimuth>
          <distance>0.0280327537781</distance>
          <takeoffAngle>
            <value>107.4</value>
          </takeoffAngle>
          <timeResidual>-0.0249</timeResidual>
          <timeWeight>0.531</timeWeight>
        </arrival>
        <arrival publicID="smi:local/8097b33b-4c9c-49bc-8bbe-ca805e07906c">
          <pickID>smi:local/768c794b-33ee-4b33-8b09-7f22e0b8f863</pickID>
          <phase>P</phase>
          <azimuth>33.3</azimuth>
          <distance>0.0296128618397</distance>
          <takeoffAngle>
            <value>114.8</value>
          </takeoffAngle>
          <timeResidual>-0.0077</timeResidual>
          <timeWeight>1.838</timeWeight>
        </arrival>
        <arrival publicID="smi:local/ea15c4a7-e072-4168-a2aa-495c5c70c95e">
          <pickID>smi:local/2a9f5a43-a6ed-4c5d-be28-e121b5f1cd88</pickID>
          <phase>S</phase>
          <azimuth>33.3</azimuth>
          <distance>0.0296128618397</distance>
          <takeoffAngle>
            <value>105.5</value>
          </takeoffAngle>
          <timeResidual>-0.1241</timeResidual>
          <timeWeight>0.5469</timeWeight>
        </arrival>
        <arrival publicID="smi:local/20ad032e-77e6-463e-9766-5a566beb2ae4">
          <pickID>smi:local/5cd96d25-efeb-448e-b833-c437e0e340e0</pickID>
          <phase>P</phase>
          <azimuth>339.2</azimuth>
          <distance>0.0303952716368</distance>
          <takeoffAngle>
            <value>113.9</value>
          </takeoffAngle>
          <timeResidual>-0.007</timeResidual>
          <timeWeight>2.0092</timeWeight>
        </arrival>
        <arrival publicID="smi:local/26cc9fe6-8b5a-4539-b3d4-7dee57b36c67">
          <pickID>smi:local/2cabf2f4-3469-47dc-b5c9-9ac541a1d328</pickID>
          <phase>S</phase>
          <azimuth>339.2</azimuth>
          <distance>0.0303952716368</distance>
          <takeoffAngle>
            <value>104.6</value>
          </takeoffAngle>
          <timeResidual>-0.1354</timeResidual>
          <timeWeight>0.0555</timeWeight>
        </arrival>
        <arrival publicID="smi:local/accf356d-5c36-4fb6-a6a0-88c27d92e180">
          <pickID>smi:local/7201e0b3-ffe1-427a-9fb2-494633819fc3</pickID>
          <phase>P</phase>
          <azimuth>296.3</azimuth>
          <distance>0.0308224493997</distance>
          <takeoffAngle>
            <value>113.4</value>
          </takeoffAngle>
          <timeResidual>0.021</timeResidual>
          <timeWeight>1.9757</timeWeight>
        </arrival>
        <arrival publicID="smi:local/bc3e9a26-9cf5-4391-9617-4575ab8ad305">
          <pickID>smi:local/daf1eb4e-65ad-443b-8fc7-1f3f3920029e</pickID>
          <phase>S</phase>
          <azimuth>296.3</azimuth>
          <distance>0.0308224493997</distance>
          <takeoffAngle>
            <value>104.3</value>
          </takeoffAngle>
          <timeResidual>-0.0031</timeResidual>
          <timeWeight>2.4451</timeWeight>
        </arrival>
        <arrival publicID="smi:local/8d840ef7-6cd1-4641-9a56-a3091f688736">
          <pickID>smi:local/e2ed4ec9-9afc-45b2-8a15-81c2805fc5bc</pickID>
          <phase>P</phase>
          <azimuth>42.0</azimuth>
          <distance>0.0314762562072</distance>
          <takeoffAngle>
            <value>112.5</value>
          </takeoffAngle>
          <timeResidual>-0.9908</timeResidual>
          <timeWeight>0.0</timeWeight>
        </arrival>
        <arrival publicID="smi:local/ddc44f7b-5cef-42a9-a35b-4262c2c44ad4">
          <pickID>smi:local/1d05e3c5-7ffe-4d21-902d-427d1ff53c58</pickID>
          <phase>S</phase>
          <azimuth>42.0</azimuth>
          <distance>0.0314762562072</distance>
          <takeoffAngle>
            <value>103.7</value>
          </takeoffAngle>
          <timeResidual>-0.2474</timeResidual>
          <timeWeight>0.0</timeWeight>
        </arrival>
        <arrival publicID="smi:local/5cf3da51-5f47-4d0e-ab3c-0381f53a2a13">
          <pickID>smi:local/aad56e84-3a47-4e2f-b5a1-912f5218e915</pickID>
          <phase>P</phase>
          <azimuth>275.3</azimuth>
          <distance>0.0338846394678</distance>
          <takeoffAngle>
            <value>110.1</value>
          </takeoffAngle>
          <timeResidual>0.0506</timeResidual>
          <timeWeight>0.2825</timeWeight>
        </arrival>
        <arrival publicID="smi:local/7dc5bd24-2e7e-458f-9725-6b6f1e723fb0">
          <pickID>smi:local/1176d79f-5802-4232-957a-53593a48ab59</pickID>
          <phase>S</phase>
          <azimuth>275.3</azimuth>
          <distance>0.0338846394678</distance>
          <takeoffAngle>
            <value>101.9</value>
          </takeoffAngle>
          <timeResidual>-0.0262</timeResidual>
          <timeWeight>0.5256</timeWeight>
        </arrival>
        <arrival publicID="smi:local/d52c6ff2-e325-4c14-b989-4cced68c012b">
          <pickID>smi:local/6a86a988-d836-4c0e-83b7-38b476585f50</pickID>
          <phase>P</phase>
          <azimuth>141.4</azimuth>
          <distance>0.0345438422049</distance>
          <takeoffAngle>
            <value>109.2</value>
          </takeoffAngle>
          <timeResidual>-0.1982</timeResidual>
          <timeWeight>0.1577</timeWeight>
        </arrival>
        <arrival publicID="smi:local/0ed1ba47-7246-488b-a039-be9d1a038d8b">
          <pickID>smi:local/75c2ace4-0662-43eb-b915-b34fbb270aed</pickID>
          <phase>S</phase>
          <azimuth>141.4</azimuth>
          <distance>0.0345438422049</distance>
          <takeoffAngle>
            <value>101.4</value>
          </takeoffAngle>
          <timeResidual>-0.1225</timeResidual>
          <timeWeight>0.5822</timeWeight>
        </arrival>
        <arrival publicID="smi:local/e03d06a5-cc71-4c19-b38e-bbb694b1d564">
          <pickID>smi:local/335d27d3-3a12-4567-a673-e2e2f7e39d81</pickID>
          <phase>P</phase>
          <azimuth>12.5</azimuth>
          <distance>0.0346238818279</distance>
          <takeoffAngle>
            <value>109.3</value>
          </takeoffAngle>
          <timeResidual>-28.5493</timeResidual>
          <timeWeight>0.0</timeWeight>
        </arrival>
        <arrival publicID="smi:local/314c0bc0-4a0f-42ef-8140-6b8faf8de89b">
          <pickID>smi:local/4bfbb944-a14c-4f4c-a98d-180132732efd</pickID>
          <phase>S</phase>
          <azimuth>12.5</azimuth>
          <distance>0.0346238818279</distance>
          <takeoffAngle>
            <value>101.4</value>
          </takeoffAngle>
          <timeResidual>-30.3321</timeResidual>
          <timeWeight>0.0</timeWeight>
        </arrival>
        <arrival publicID="smi:local/38841a7b-31b2-4756-ac6b-427a679a4c7c">
          <pickID>smi:local/d92ac253-8623-4e60-9f40-de70aa56f9ae</pickID>
          <phase>P</phase>
          <azimuth>55.0</azimuth>
          <distance>0.0348945776313</distance>
          <takeoffAngle>
            <value>109.1</value>
          </takeoffAngle>
          <timeResidual>-0.0002</timeResidual>
          <timeWeight>2.6446</timeWeight>
        </arrival>
        <arrival publicID="smi:local/16778806-9cec-4b7e-822b-41d55f04a2c3">
          <pickID>smi:local/d8a61dea-b580-4232-9888-b3e22d430d7c</pickID>
          <phase>S</phase>
          <azimuth>55.0</azimuth>
          <distance>0.0348945776313</distance>
          <takeoffAngle>
            <value>101.2</value>
          </takeoffAngle>
          <timeResidual>-0.3054</timeResidual>
          <timeWeight>0.1585</timeWeight>
        </arrival>
        <arrival publicID="smi:local/bacdaeca-10fc-42d7-bbe2-eab6695bb98a">
          <pickID>smi:local/b0e035d7-26c8-4721-907f-5326f573fa6b</pickID>
          <phase>P</phase>
          <azimuth>151.9</azimuth>
          <distance>0.0426889979898</distance>
          <takeoffAngle>
            <value>103.3</value>
          </takeoffAngle>
          <timeResidual>-0.007</timeResidual>
          <timeWeight>1.9892</timeWeight>
        </arrival>
        <arrival publicID="smi:local/2154484b-87f3-4d22-83d8-ea55eaad2cee">
          <pickID>smi:local/1b51523f-7d82-4054-9175-6b3080d98d54</pickID>
          <phase>S</phase>
          <azimuth>151.9</azimuth>
          <distance>0.0426889979898</distance>
          <takeoffAngle>
            <value>97.9</value>
          </takeoffAngle>
          <timeResidual>-0.193</timeResidual>
          <timeWeight>0.1577</timeWeight>
        </arrival>
        <arrival publicID="smi:local/b72394aa-5c08-4c94-9735-5f77659a6e9c">
          <pickID>smi:local/e451ee86-0d52-431a-9afe-ab4cfd41ba82</pickID>
          <phase>P</phase>
          <azimuth>320.6</azimuth>
          <distance>0.044087443087</distance>
          <takeoffAngle>
            <value>102.5</value>
          </takeoffAngle>
          <timeResidual>-0.0003</timeResidual>
          <timeWeight>2.6367</timeWeight>
        </arrival>
        <arrival publicID="smi:local/07d848e8-178c-41f4-b28d-93aeedd58fd7">
          <pickID>smi:local/db4f0cc7-d4b5-44f3-9962-dc349ef333d6</pickID>
          <phase>S</phase>
          <azimuth>320.6</azimuth>
          <distance>0.044087443087</distance>
          <takeoffAngle>
            <value>97.4</value>
          </takeoffAngle>
          <timeResidual>-0.0711</timeResidual>
          <timeWeight>0.3056</timeWeight>
        </arrival>
        <arrival publicID="smi:local/5a1479f8-8a51-437d-a767-7e03f29aa381">
          <pickID>smi:local/0fdf5ba1-7b3a-46b9-ab99-8695ee78a028</pickID>
          <phase>P</phase>
          <azimuth>134.0</azimuth>
          <distance>0.0454364254958</distance>
          <takeoffAngle>
            <value>101.8</value>
          </takeoffAngle>
          <timeResidual>0.0332</timeResidual>
          <timeWeight>1.6518</timeWeight>
        </arrival>
        <arrival publicID="smi:local/3111e81c-734d-451d-b367-ffde2bd5e35b">
          <pickID>smi:local/b5038aff-af5d-4826-baa8-7df243c844c6</pickID>
          <phase>S</phase>
          <azimuth>134.0</azimuth>
          <distance>0.0454364254958</distance>
          <takeoffAngle>
            <value>97.1</value>
          </takeoffAngle>
          <timeResidual>-0.1515</timeResidual>
          <timeWeight>0.2111</timeWeight>
        </arrival>
        <arrival publicID="smi:local/316ef7d1-43d1-452a-923d-996571ffd066">
          <pickID>smi:local/ebbe37a8-5c48-4474-845a-40c87f0b422e</pickID>
          <phase>P</phase>
          <azimuth>22.4</azimuth>
          <distance>0.0464679473778</distance>
          <takeoffAngle>
            <value>101.3</value>
          </takeoffAngle>
          <timeResidual>0.0224</timeResidual>
          <timeWeight>1.9944</timeWeight>
        </arrival>
        <arrival publicID="smi:local/d16a785b-07c9-4b30-8c74-b07742737090">
          <pickID>smi:local/2771d1ac-f447-4937-84ec-41fe8377e0c3</pickID>
          <phase>S</phase>
          <azimuth>22.4</azimuth>
          <distance>0.0464679473778</distance>
          <takeoffAngle>
            <value>96.9</value>
          </takeoffAngle>
          <timeResidual>-0.0027</timeResidual>
          <timeWeight>2.4389</timeWeight>
        </arrival>
        <arrival publicID="smi:local/a135198c-c54b-471a-9544-de0827a14b7f">
          <pickID>smi:local/46e17b3d-c7e0-4957-827a-4839452a4499</pickID>
          <phase>P</phase>
          <azimuth>100.2</azimuth>
          <distance>0.0485210986041</distance>
          <takeoffAngle>
            <value>100.3</value>
          </takeoffAngle>
          <timeResidual>-0.038</timeResidual>
          <timeWeight>0.3376</timeWeight>
        </arrival>
        <arrival publicID="smi:local/049500f4-8e7b-4aef-a8e9-bf0a267350ae">
