<?xml version='1.0' encoding='utf-8'?>
<q:quakeml xmlns="http://quakeml.org/xmlns/bed/1.2" xmlns:q="http://quakeml.org/xmlns/quakeml/1.2">
  <eventParameters publicID="smi:local/ca7f40e7-5aa0-43df-a850-e747ec82da62">
    <event publicID="smi:local/20171010_063224.a">
      <origin publicID="smi:local/ndk/C201710100632A/origin#cmtorigin">
        <time>
          <value>2017-10-10T06:32:24.800000Z</value>
        </time>
        <latitude>
          <value>-18.58</value>
        </latitude>
        <longitude>
          <value>-69.86</value>
        </longitude>
        <depth>
          <value>106.4</value>
        </depth>
      </origin>
      <magnitude publicID="smi:local/3c05a658-79d9-4f04-b3ee-de41177be8e5">
        <mag>
          <value>6.27</value>
        </mag>
        <type>Mwc</type>
        <originID>smi:local/ndk/C201710100632A/origin#cmtorigin</originID>
      </magnitude>
      <pick publicID="smi:local/b5ab74a4-9708-4bd8-88ee-332a72ee6f31">
        <time>
          <value>2017-10-10T06:56:34.393418Z</value>
          <uncertainty>0.39307082124103004</uncertainty>
          <lowerUncertainty>0.39307082124103004</lowerUncertainty>
          <upperUncertainty>0.39307082124103004</upperUncertainty>
        </time>
        <waveformID networkCode="CZ" stationCode="JAVC"></waveformID>
        <methodID>smi:local/auto</methodID>
        <phaseHint>SKS</phaseHint>
      </pick>
      <pick publicID="smi:local/4414b992-eef8-4177-b583-776402e148af">
        <time>
          <value>2017-10-10T06:56:34.732455Z</value>
          <uncertainty>0.34184701274089285</uncertainty>
          <lowerUncertainty>0.34184701274089285</lowerUncertainty>
          <upperUncertainty>0.34184701274089285</upperUncertainty>
        </time>
        <waveformID networkCode="CZ" stationCode="MORC"></waveformID>
        <methodID>smi:local/auto</methodID>
        <phaseHint>SKS</phaseHint>
      </pick>
      <pick publicID="smi:local/02458c8e-9d44-4a1f-b632-d6f9aed57890">
        <time>
          <value>2017-10-10T06:56:30.493115Z</value>
          <uncertainty>0.2465889203458459</uncertainty>
          <lowerUncertainty>0.2465889203458459</lowerUncertainty>
          <upperUncertainty>0.2465889203458459</upperUncertainty>
        </time>
        <waveformID networkCode="CZ" stationCode="VRAC"></waveformID>
        <methodID>smi:local/auto</methodID>
        <phaseHint>SKS</phaseHint>
      </pick>
      <pick publicID="smi:local/6aefab28-9ac0-4ad3-9750-cc686645173b">
        <time>
          <value>2017-10-10T06:55:39.587345Z</value>
          <uncertainty>0.4451278853915135</uncertainty>
          <lowerUncertainty>0.4451278853915135</lowerUncertainty>
          <upperUncertainty>0.4451278853915135</upperUncertainty>
        </time>
        <waveformID networkCode="FR" stationCode="AGO"></waveformID>
        <methodID>smi:local/auto</methodID>
        <phaseHint>SKS</phaseHint>
      </pick>
      <pick publicID="smi:local/e9984511-cf6d-4657-94d3-53366624e344">
        <time>
          <value>2017-10-10T06:55:39.611746Z</value>
          <uncertainty>0.5773208994205375</uncertainty>
          <lowerUncertainty>0.5773208994205375</lowerUncertainty>
          <upperUncertainty>0.5773208994205375</upperUncertainty>
        </time>
        <waveformID networkCode="FR" stationCode="CFF"></waveformID>
        <methodID>smi:local/auto</methodID>
        <phaseHint>SKS</phaseHint>
      </pick>
      <pick publicID="smi:local/c236718c-3a2f-4f33-aaec-ced6abdbd51b">
        <time>
          <value>2017-10-10T06:55:31.485087Z</value>
          <uncertainty>1.0388058686563313</uncertainty>
          <lowerUncertainty>1.0388058686563313</lowerUncertainty>
          <upperUncertainty>1.0388058686563313</upperUncertainty>
        </time>
        <waveformID networkCode="FR" stationCode="CLAF"></waveformID>
        <methodID>smi:local/auto</methodID>
        <phaseHint>SKS</phaseHint>
      </pick>
      <pick publicID="smi:local/e9675149-54d2-4b0c-bfa5-90f644786ce6">
        <time>
          <value>2017-10-10T06:55:41.202756Z</value>
          <uncertainty>0.40219031236357056</uncertainty>
          <lowerUncertainty>0.40219031236357056</lowerUncertainty>
          <upperUncertainty>0.40219031236357056</upperUncertainty>
        </time>
        <waveformID networkCode="FR" stationCode="COLF"></waveformID>
        <methodID>smi:local/auto</methodID>
        <phaseHint>SKS</phaseHint>
      </pick>
      <pick publicID="smi:local/bd93168b-a140-41fb-b05d-3591a9a566cd">
        <time>
          <value>2017-10-10T06:55:35.217697Z</value>
          <uncertainty>0.6948823468538456</uncertainty>
          <lowerUncertainty>0.6948823468538456</lowerUncertainty>
          <upperUncertainty>0.6948823468538456</upperUncertainty>
        </time>
        <waveformID networkCode="FR" stationCode="LAJAS"></waveformID>
        <methodID>smi:local/auto</methodID>
        <phaseHint>SKS</phaseHint>
      </pick>
      <pick publicID="smi:local/53cc8137-5e2c-4298-8af7-9d10c5a53e97">
        <time>
          <value>2017-10-10T06:55:38.972153Z</value>
          <uncertainty>0.49514370957291276</uncertainty>
          <lowerUncertainty>0.49514370957291276</lowerUncertainty>
          <upperUncertainty>0.49514370957291276</upperUncertainty>
        </time>
        <waveformID networkCode="FR" stationCode="LBL"></waveformID>
        <methodID>smi:local/auto</methodID>
        <phaseHint>SKS</phaseHint>
      </pick>
      <pick publicID="smi:local/76be71da-56e1-443d-8805-b7b002122a58">
        <time>
          <value>2017-10-10T06:55:41.781822Z</value>
          <uncertainty>0.4536644153620325</uncertainty>
          <lowerUncertainty>0.4536644153620325</lowerUncertainty>
          <upperUncertainty>0.4536644153620325</upperUncertainty>
        </time>
        <waveformID networkCode="FR" stationCode="PLDF"></waveformID>
        <methodID>smi:local/auto</methodID>
        <phaseHint>SKS</phaseHint>
      </pick>
      <pick publicID="smi:local/cfe222b9-dd06-42b3-a0ee-a51a796c5067">
        <time>
          <value>2017-10-10T06:56:34.732455Z</value>
          <uncertainty>0.34184701274089285</uncertainty>
          <lowerUncertainty>0.34184701274089285</lowerUncertainty>
          <upperUncertainty>0.34184701274089285</upperUncertainty>
        </time>
        <waveformID networkCode="GE" stationCode="MORC"></waveformID>
        <methodID>smi:local/auto</methodID>
        <phaseHint>SKS</phaseHint>
      </pick>
      <pick publicID="smi:local/8fdb751b-3a46-4773-a9d3-dab8483b307c">
        <time>
          <value>2017-10-10T06:56:34.232515Z</value>
          <uncertainty>2.300894583609858</uncertainty>
          <lowerUncertainty>2.300894583609858</lowerUncertainty>
          <upperUncertainty>2.300894583609858</upperUncertainty>
        </time>
        <waveformID networkCode="HU" stationCode="BUD"></waveformID>
        <methodID>smi:local/auto</methodID>
        <phaseHint>SKS</phaseHint>
      </pick>
      <pick publicID="smi:local/e46e6daf-0100-4930-b015-b8d7c7fe5141">
        <time>
          <value>2017-10-10T06:56:30.939737Z</value>
          <uncertainty>0.8594706558452607</uncertainty>
          <lowerUncertainty>0.8594706558452607</lowerUncertainty>
          <upperUncertainty>0.8594706558452607</upperUncertainty>
        </time>
        <waveformID networkCode="HU" stationCode="CSKK"></waveformID>
        <methodID>smi:local/auto</methodID>
        <phaseHint>SKS</phaseHint>
      </pick>
      <pick publicID="smi:local/b66fe4df-9db8-46f7-89fe-d2505e9edea4">
        <time>
          <value>2017-10-10T06:56:31.812424Z</value>
          <uncertainty>1.4622508147967839</uncertainty>
          <lowerUncertainty>1.4622508147967839</lowerUncertainty>
          <upperUncertainty>1.4622508147967839</upperUncertainty>
        </time>
        <waveformID networkCode="Z3" stationCode="A089A"></waveformID>
        <methodID>smi:local/auto</methodID>
        <phaseHint>SKS</phaseHint>
      </pick>
      <pick publicID="smi:local/0bcc0f9a-f053-415b-ab8a-f69d1fae8ded">
        <time>
          <value>2017-10-10T06:55:47.644880Z</value>
          <uncertainty>0.605959249646827</uncertainty>
          <lowerUncertainty>0.605959249646827</lowerUncertainty>
          <upperUncertainty>0.605959249646827</upperUncertainty>
        </time>
        <waveformID networkCode="Z3" stationCode="A163A"></waveformID>
        <methodID>smi:local/auto</methodID>
        <phaseHint>SKS</phaseHint>
      </pick>
      <pick publicID="smi:local/8e987a2c-b40f-4e03-964e-ec6658ae54e0">
        <time>
          <value>2017-10-10T06:55:40.187384Z</value>
          <uncertainty>0.700797594704432</uncertainty>
          <lowerUncertainty>0.700797594704432</lowerUncertainty>
          <upperUncertainty>0.700797594704432</upperUncertainty>
        </time>
        <waveformID networkCode="Z3" stationCode="A165A"></waveformID>
        <methodID>smi:local/auto</methodID>
        <phaseHint>SKS</phaseHint>
      </pick>
      <pick publicID="smi:local/1de0ccb2-65c0-4e30-9623-c12790c84774">
        <time>
          <value>2017-10-10T06:55:40.644257Z</value>
          <uncertainty>0.9460951883888613</uncertainty>
          <lowerUncertainty>0.9460951883888613</lowerUncertainty>
          <upperUncertainty>0.9460951883888613</upperUncertainty>
        </time>
        <waveformID networkCode="Z3" stationCode="A170A"></waveformID>
        <methodID>smi:local/auto</methodID>
        <phaseHint>SKS</phaseHint>
      </pick>
      <pick publicID="smi:local/057e5e1d-3096-48b5-800b-61dfc9aecf04">
        <time>
          <value>2017-10-10T06:55:38.788689Z</value>
          <uncertainty>0.6353855314361627</uncertainty>
          <lowerUncertainty>0.6353855314361627</lowerUncertainty>
          <upperUncertainty>0.6353855314361627</upperUncertainty>
        </time>
        <waveformID networkCode="Z3" stationCode="A179A"></waveformID>
        <methodID>smi:local/auto</methodID>
        <phaseHint>SKS</phaseHint>
      </pick>
      <pick publicID="smi:local/b3f3f049-312c-47e7-a432-73e8fc7ca39e">
        <time>
          <value>2017-10-10T06:55:36.488707Z</value>
          <uncertainty>0.44882925767962095</uncertainty>
          <lowerUncertainty>0.44882925767962095</lowerUncertainty>
          <upperUncertainty>0.44882925767962095</upperUncertainty>
        </time>
        <waveformID networkCode="Z3" stationCode="A182A"></waveformID>
        <methodID>smi:local/auto</methodID>
        <phaseHint>SKS</phaseHint>
      </pick>
      <pick publicID="smi:local/a8889e86-6aeb-4d9a-b6f7-b6466600cf9f">
        <time>
          <value>2017-10-10T06:55:39.821965Z</value>
          <uncertainty>0.5585229689834028</uncertainty>
          <lowerUncertainty>0.5585229689834028</lowerUncertainty>
          <upperUncertainty>0.5585229689834028</upperUncertainty>
        </time>
        <waveformID networkCode="Z3" stationCode="A183A"></waveformID>
        <methodID>smi:local/auto</methodID>
        <phaseHint>SKS</phaseHint>
      </pick>
      <pick publicID="smi:local/58146990-f18d-49e2-a4a1-9674392ec68f">
        <time>
          <value>2017-10-10T06:55:38.011626Z</value>
          <uncertainty>1.2718788293810255</uncertainty>
          <lowerUncertainty>1.2718788293810255</lowerUncertainty>
          <upperUncertainty>1.2718788293810255</upperUncertainty>
        </time>
        <waveformID networkCode="Z3" stationCode="A187A"></waveformID>
        <methodID>smi:local/auto</methodID>
        <phaseHint>SKS</phaseHint>
      </pick>
      <pick publicID="smi:local/09dd02c3-bfc7-4070-a8e3-4fea43b60578">
        <time>
          <value>2017-10-10T06:55:34.875412Z</value>
          <uncertainty>0.6511054412116971</uncertainty>
          <lowerUncertainty>0.6511054412116971</lowerUncertainty>
          <upperUncertainty>0.6511054412116971</upperUncertainty>
        </time>
        <waveformID networkCode="Z3" stationCode="A190A"></waveformID>
        <methodID>smi:local/auto</methodID>
        <phaseHint>SKS</phaseHint>
      </pick>
      <pick publicID="smi:local/45d28352-e1f0-49be-9cb4-9c182ba52629">
        <time>
          <value>2017-10-10T06:55:37.551933Z</value>
          <uncertainty>0.5607204992832004</uncertainty>
          <lowerUncertainty>0.5607204992832004</lowerUncertainty>
          <upperUncertainty>0.5607204992832004</upperUncertainty>
        </time>
        <waveformID networkCode="Z3" stationCode="A191A"></waveformID>
        <methodID>smi:local/auto</methodID>
        <phaseHint>SKS</phaseHint>
      </pick>
      <pick publicID="smi:local/6313d9ac-8b71-40e4-b1e7-d5404db05a04">
        <time>
          <value>2017-10-10T06:55:32.898334Z</value>
          <uncertainty>0.6338355324181898</uncertainty>
          <lowerUncertainty>0.6338355324181898</lowerUncertainty>
          <upperUncertainty>0.6338355324181898</upperUncertainty>
        </time>
        <waveformID networkCode="Z3" stationCode="A195A"></waveformID>
        <methodID>smi:local/auto</methodID>
        <phaseHint>SKS</phaseHint>
      </pick>
      <pick publicID="smi:local/0dff4873-2671-4ad0-ae80-1b2dd6e15711">
        <time>
          <value>2017-10-10T06:55:31.963081Z</value>
          <uncertainty>0.6737067192565298</uncertainty>
          <lowerUncertainty>0.6737067192565298</lowerUncertainty>
          <upperUncertainty>0.6737067192565298</upperUncertainty>
        </time>
        <waveformID networkCode="Z3" stationCode="A198A"></waveformID>
        <methodID>smi:local/auto</methodID>
        <phaseHint>SKS</phaseHint>
      </pick>
      <pick publicID="smi:local/a476fecc-9d55-4b5c-b397-43991373e934">
        <time>
          <value>2017-10-10T06:55:36.101916Z</value>
          <uncertainty>0.6891199968577806</uncertainty>
          <lowerUncertainty>0.6891199968577806</lowerUncertainty>
          <upperUncertainty>0.6891199968577806</upperUncertainty>
        </time>
        <waveformID networkCode="Z3" stationCode="A199A"></waveformID>
        <methodID>smi:local/auto</methodID>
        <phaseHint>SKS</phaseHint>
      </pick>
      <pick publicID="smi:local/90932365-bf97-404a-aaa7-0a36be4a625d">
        <time>
          <value>2017-10-10T06:55:37.377802Z</value>
          <uncertainty>1.5714471554520633</uncertainty>
          <lowerUncertainty>1.5714471554520633</lowerUncertainty>
          <upperUncertainty>1.5714471554520633</upperUncertainty>
        </time>
        <waveformID networkCode="Z3" stationCode="A200A"></waveformID>
        <methodID>smi:local/auto</methodID>
        <phaseHint>SKS</phaseHint>
      </pick>
      <pick publicID="smi:local/a27ba438-1f3d-4437-8095-fa8f489923ce">
        <time>
          <value>2017-10-10T06:55:39.232906Z</value>
          <uncertainty>0.800117535019565</uncertainty>
          <lowerUncertainty>0.800117535019565</lowerUncertainty>
          <upperUncertainty>0.800117535019565</upperUncertainty>
        </time>
        <waveformID networkCode="Z3" stationCode="A201A"></waveformID>
        <methodID>smi:local/auto</methodID>
        <phaseHint>SKS</phaseHint>
      </pick>
      <pick publicID="smi:local/44cfec7f-1b76-4e40-83b5-cd5bbe45ba72">
        <time>
          <value>2017-10-10T06:56:30.170868Z</value>
          <uncertainty>1.0962388652977793</uncertainty>
          <lowerUncertainty>1.0962388652977793</lowerUncertainty>
          <upperUncertainty>1.0962388652977793</upperUncertainty>
        </time>
        <waveformID networkCode="Z3" stationCode="A266A"></waveformID>
        <methodID>smi:local/auto</methodID>
        <phaseHint>SKS</phaseHint>
      </pick>
      <pick publicID="smi:local/ec0ff115-35d1-4ad5-89ba-03cad1d5ff7d">
        <time>
          <value>2017-10-10T06:56:30.783807Z</value>
          <uncertainty>0.667934947456269</uncertainty>
          <lowerUncertainty>0.667934947456269</lowerUncertainty>
          <upperUncertainty>0.667934947456269</upperUncertainty>
        </time>
        <waveformID networkCode="Z3" stationCode="A267A"></waveformID>
        <methodID>smi:local/auto</methodID>
        <phaseHint>SKS</phaseHint>
      </pick>
      <pick publicID="smi:local/1d2d0355-95f6-4437-a2b3-afe4a2a5c85a">
        <time>
          <value>2017-10-10T06:56:32.277479Z</value>
          <uncertainty>0.7132842518615762</uncertainty>
          <lowerUncertainty>0.7132842518615762</lowerUncertainty>
          <upperUncertainty>0.7132842518615762</upperUncertainty>
        </time>
        <waveformID networkCode="Z3" stationCode="A269A"></waveformID>
        <methodID>smi:local/auto</methodID>
        <phaseHint>SKS</phaseHint>
      </pick>
      <pick publicID="smi:local/31754961-932a-4068-9f60-1da9c003518e">
        <time>
          <value>2017-10-10T06:56:35.121385Z</value>
          <uncertainty>1.1400067073274447</uncertainty>
          <lowerUncertainty>1.1400067073274447</lowerUncertainty>
          <upperUncertainty>1.1400067073274447</upperUncertainty>
        </time>
        <waveformID networkCode="Z3" stationCode="A270A"></waveformID>
        <methodID>smi:local/auto</methodID>
        <phaseHint>SKS</phaseHint>
      </pick>
      <pick publicID="smi:local/14286f55-5fad-47fa-b95d-e2199198361e">
        <time>
          <value>2017-10-10T06:56:32.447356Z</value>
          <uncertainty>1.1146187758678805</uncertainty>
          <lowerUncertainty>1.1146187758678805</lowerUncertainty>
          <upperUncertainty>1.1146187758678805</upperUncertainty>
        </time>
        <waveformID networkCode="Z3" stationCode="A271A"></waveformID>
        <methodID>smi:local/auto</methodID>
        <phaseHint>SKS</phaseHint>
      </pick>
      <pick publicID="smi:local/d82258a2-1272-460f-9f43-ca27c1582da7">
        <time>
          <value>2017-10-10T06:56:32.225181Z</value>
          <uncertainty>0.7727373691706615</uncertainty>
          <lowerUncertainty>0.7727373691706615</lowerUncertainty>
          <upperUncertainty>0.7727373691706615</upperUncertainty>
        </time>
        <waveformID networkCode="Z3" stationCode="A272A"></waveformID>
        <methodID>smi:local/auto</methodID>
        <phaseHint>SKS</phaseHint>
      </pick>
      <pick publicID="smi:local/12bddda0-38ab-4774-9c5f-a165e34a20c4">
        <time>
          <value>2017-10-10T06:56:36.816352Z</value>
          <uncertainty>0.3984597439043493</uncertainty>
          <lowerUncertainty>0.3984597439043493</lowerUncertainty>
          <upperUncertainty>0.3984597439043493</upperUncertainty>
        </time>
        <waveformID networkCode="Z3" stationCode="A331A"></waveformID>
        <methodID>smi:local/auto</methodID>
        <phaseHint>SKS</phaseHint>
      </pick>
      <pick publicID="smi:local/1b38be65-3fc3-440e-a61f-a85c103afa63">
        <time>
          <value>2017-10-10T06:56:32.862226Z</value>
          <uncertainty>0.8498703905354505</uncertainty>
          <lowerUncertainty>0.8498703905354505</lowerUncertainty>
          <upperUncertainty>0.8498703905354505</upperUncertainty>
        </time>
        <waveformID networkCode="Z3" stationCode="A334A"></waveformID>
        <methodID>smi:local/auto</methodID>
        <phaseHint>SKS</phaseHint>
      </pick>
      <pick publicID="smi:local/48a17955-4e61-4e66-90cb-ba064b3d7f53">
        <time>
          <value>2017-10-10T06:56:35.716746Z</value>
          <uncertainty>0.7537531033072427</uncertainty>
          <lowerUncertainty>0.7537531033072427</lowerUncertainty>
          <upperUncertainty>0.7537531033072427</upperUncertainty>
        </time>
        <waveformID networkCode="Z3" stationCode="A336A"></waveformID>
        <methodID>smi:local/auto</methodID>
        <phaseHint>SKS</phaseHint>
      </pick>
      <pick publicID="smi:local/8882288c-7e3e-4272-99e6-c54069b04db0">
        <time>
          <value>2017-10-10T06:56:31.593687Z</value>
          <uncertainty>1.0758044435664507</uncertainty>
          <lowerUncertainty>1.0758044435664507</lowerUncertainty>
          <upperUncertainty>1.0758044435664507</upperUncertainty>
        </time>
