<?xml version='1.0' encoding='utf-8'?>
<q:quakeml xmlns="http://quakeml.org/xmlns/bed/1.2" xmlns:q="http://quakeml.org/xmlns/quakeml/1.2">
  <eventParameters publicID="smi:local/9d778aef-7e71-4d29-a7a8-5e0e49ecec9c">
    <event publicID="smi:local/20171010_063224.a">
      <origin publicID="smi:local/ndk/C201710100632A/origin#cmtorigin">
        <time>
          <value>2017-10-10T06:32:24.800000Z</value>
        </time>
        <latitude>
          <value>-18.58</value>
        </latitude>
        <longitude>
          <value>-69.86</value>
        </longitude>
        <depth>
          <value>106.4</value>
        </depth>
      </origin>
      <magnitude publicID="smi:local/3c05a658-79d9-4f04-b3ee-de41177be8e5">
        <mag>
          <value>6.27</value>
        </mag>
        <type>Mwc</type>
        <originID>smi:local/ndk/C201710100632A/origin#cmtorigin</originID>
      </magnitude>
      <pick publicID="smi:local/b5ab74a4-9708-4bd8-88ee-332a72ee6f31">
        <time>
          <value>2017-10-10T06:56:30.759712Z</value>
          <uncertainty>0.0001</uncertainty>
        </time>
        <waveformID networkCode="CZ" stationCode="JAVC"></waveformID>
        <methodID>smi:local/auto</methodID>
        <phaseHint>SKS</phaseHint>
      </pick>
      <pick publicID="smi:local/4414b992-eef8-4177-b583-776402e148af">
        <time>
          <value>2017-10-10T06:56:31.438255Z</value>
          <uncertainty>0.0001</uncertainty>
        </time>
        <waveformID networkCode="CZ" stationCode="MORC"></waveformID>
        <methodID>smi:local/auto</methodID>
        <phaseHint>SKS</phaseHint>
      </pick>
      <pick publicID="smi:local/02458c8e-9d44-4a1f-b632-d6f9aed57890">
        <time>
          <value>2017-10-10T06:56:28.059887Z</value>
          <uncertainty>0.0001</uncertainty>
        </time>
        <waveformID networkCode="CZ" stationCode="VRAC"></waveformID>
        <methodID>smi:local/auto</methodID>
        <phaseHint>SKS</phaseHint>
      </pick>
      <pick publicID="smi:local/6aefab28-9ac0-4ad3-9750-cc686645173b">
        <time>
          <value>2017-10-10T06:55:38.395723Z</value>
          <uncertainty>0.0001</uncertainty>
        </time>
        <waveformID networkCode="FR" stationCode="AGO"></waveformID>
        <methodID>smi:local/auto</methodID>
        <phaseHint>SKS</phaseHint>
      </pick>
      <pick publicID="smi:local/3a189ad7-03bf-4854-9620-92588eda1247">
        <time>
          <value>2017-10-10T06:55:38.155649Z</value>
          <uncertainty>0.0001</uncertainty>
        </time>
        <waveformID networkCode="FR" stationCode="BANN"></waveformID>
        <methodID>smi:local/auto</methodID>
        <phaseHint>SKS</phaseHint>
      </pick>
      <pick publicID="smi:local/e9984511-cf6d-4657-94d3-53366624e344">
        <time>
          <value>2017-10-10T06:55:37.643233Z</value>
          <uncertainty>0.0001</uncertainty>
        </time>
        <waveformID networkCode="FR" stationCode="CFF"></waveformID>
        <methodID>smi:local/auto</methodID>
        <phaseHint>SKS</phaseHint>
      </pick>
      <pick publicID="smi:local/c236718c-3a2f-4f33-aaec-ced6abdbd51b">
        <time>
          <value>2017-10-10T06:55:31.288079Z</value>
          <uncertainty>0.0001</uncertainty>
        </time>
        <waveformID networkCode="FR" stationCode="CLAF"></waveformID>
        <methodID>smi:local/auto</methodID>
        <phaseHint>SKS</phaseHint>
      </pick>
      <pick publicID="smi:local/e9675149-54d2-4b0c-bfa5-90f644786ce6">
        <time>
          <value>2017-10-10T06:55:39.099599Z</value>
          <uncertainty>0.0001</uncertainty>
        </time>
        <waveformID networkCode="FR" stationCode="COLF"></waveformID>
        <methodID>smi:local/auto</methodID>
        <phaseHint>SKS</phaseHint>
      </pick>
      <pick publicID="smi:local/bd93168b-a140-41fb-b05d-3591a9a566cd">
        <time>
          <value>2017-10-10T06:55:33.784891Z</value>
          <uncertainty>0.0001</uncertainty>
        </time>
        <waveformID networkCode="FR" stationCode="LAJAS"></waveformID>
        <methodID>smi:local/auto</methodID>
        <phaseHint>SKS</phaseHint>
      </pick>
      <pick publicID="smi:local/53cc8137-5e2c-4298-8af7-9d10c5a53e97">
        <time>
          <value>2017-10-10T06:55:36.874707Z</value>
          <uncertainty>0.0001</uncertainty>
        </time>
        <waveformID networkCode="FR" stationCode="LBL"></waveformID>
        <methodID>smi:local/auto</methodID>
        <phaseHint>SKS</phaseHint>
      </pick>
      <pick publicID="smi:local/76be71da-56e1-443d-8805-b7b002122a58">
        <time>
          <value>2017-10-10T06:55:39.929910Z</value>
          <uncertainty>0.0001</uncertainty>
        </time>
        <waveformID networkCode="FR" stationCode="PLDF"></waveformID>
        <methodID>smi:local/auto</methodID>
        <phaseHint>SKS</phaseHint>
      </pick>
      <pick publicID="smi:local/cfe222b9-dd06-42b3-a0ee-a51a796c5067">
        <time>
          <value>2017-10-10T06:56:31.438255Z</value>
          <uncertainty>0.0001</uncertainty>
        </time>
        <waveformID networkCode="GE" stationCode="MORC"></waveformID>
        <methodID>smi:local/auto</methodID>
        <phaseHint>SKS</phaseHint>
      </pick>
      <pick publicID="smi:local/8fdb751b-3a46-4773-a9d3-dab8483b307c">
        <time>
          <value>2017-10-10T06:56:33.307470Z</value>
          <uncertainty>0.0001</uncertainty>
        </time>
        <waveformID networkCode="HU" stationCode="BUD"></waveformID>
        <methodID>smi:local/auto</methodID>
        <phaseHint>SKS</phaseHint>
      </pick>
      <pick publicID="smi:local/e46e6daf-0100-4930-b015-b8d7c7fe5141">
        <time>
          <value>2017-10-10T06:56:30.830789Z</value>
          <uncertainty>0.0001</uncertainty>
        </time>
        <waveformID networkCode="HU" stationCode="CSKK"></waveformID>
        <methodID>smi:local/auto</methodID>
        <phaseHint>SKS</phaseHint>
      </pick>
      <pick publicID="smi:local/ebaf648f-5932-459e-ba19-7aa16928c351">
        <time>
          <value>2017-10-10T06:56:33.853349Z</value>
          <uncertainty>0.0001</uncertainty>
        </time>
        <waveformID networkCode="SK" stationCode="VYHS"></waveformID>
        <methodID>smi:local/auto</methodID>
        <phaseHint>SKS</phaseHint>
      </pick>
      <pick publicID="smi:local/b66fe4df-9db8-46f7-89fe-d2505e9edea4">
        <time>
          <value>2017-10-10T06:56:29.366819Z</value>
          <uncertainty>0.0001</uncertainty>
        </time>
        <waveformID networkCode="Z3" stationCode="A089A"></waveformID>
        <methodID>smi:local/auto</methodID>
        <phaseHint>SKS</phaseHint>
      </pick>
      <pick publicID="smi:local/8764c43a-1382-43bc-b32a-f8cd58d7901b">
        <time>
          <value>2017-10-10T06:56:31.810764Z</value>
          <uncertainty>0.0001</uncertainty>
        </time>
        <waveformID networkCode="Z3" stationCode="A090A"></waveformID>
        <methodID>smi:local/auto</methodID>
        <phaseHint>SKS</phaseHint>
      </pick>
      <pick publicID="smi:local/0bcc0f9a-f053-415b-ab8a-f69d1fae8ded">
        <time>
          <value>2017-10-10T06:55:48.126173Z</value>
          <uncertainty>0.0001</uncertainty>
        </time>
        <waveformID networkCode="Z3" stationCode="A163A"></waveformID>
        <methodID>smi:local/auto</methodID>
        <phaseHint>SKS</phaseHint>
      </pick>
      <pick publicID="smi:local/8e987a2c-b40f-4e03-964e-ec6658ae54e0">
        <time>
          <value>2017-10-10T06:55:41.675717Z</value>
          <uncertainty>0.0001</uncertainty>
        </time>
        <waveformID networkCode="Z3" stationCode="A165A"></waveformID>
        <methodID>smi:local/auto</methodID>
        <phaseHint>SKS</phaseHint>
      </pick>
      <pick publicID="smi:local/1de0ccb2-65c0-4e30-9623-c12790c84774">
        <time>
          <value>2017-10-10T06:55:40.267614Z</value>
          <uncertainty>0.0001</uncertainty>
        </time>
        <waveformID networkCode="Z3" stationCode="A170A"></waveformID>
        <methodID>smi:local/auto</methodID>
        <phaseHint>SKS</phaseHint>
      </pick>
      <pick publicID="smi:local/057e5e1d-3096-48b5-800b-61dfc9aecf04">
        <time>
          <value>2017-10-10T06:55:36.460045Z</value>
          <uncertainty>0.0001</uncertainty>
        </time>
        <waveformID networkCode="Z3" stationCode="A179A"></waveformID>
        <methodID>smi:local/auto</methodID>
        <phaseHint>SKS</phaseHint>
      </pick>
      <pick publicID="smi:local/b3f3f049-312c-47e7-a432-73e8fc7ca39e">
        <time>
          <value>2017-10-10T06:55:34.662436Z</value>
          <uncertainty>0.0001</uncertainty>
        </time>
        <waveformID networkCode="Z3" stationCode="A182A"></waveformID>
        <methodID>smi:local/auto</methodID>
        <phaseHint>SKS</phaseHint>
      </pick>
      <pick publicID="smi:local/a8889e86-6aeb-4d9a-b6f7-b6466600cf9f">
        <time>
          <value>2017-10-10T06:55:37.851866Z</value>
          <uncertainty>0.0001</uncertainty>
        </time>
        <waveformID networkCode="Z3" stationCode="A183A"></waveformID>
        <methodID>smi:local/auto</methodID>
        <phaseHint>SKS</phaseHint>
      </pick>
      <pick publicID="smi:local/58146990-f18d-49e2-a4a1-9674392ec68f">
        <time>
          <value>2017-10-10T06:55:36.034902Z</value>
          <uncertainty>0.0001</uncertainty>
        </time>
        <waveformID networkCode="Z3" stationCode="A187A"></waveformID>
        <methodID>smi:local/auto</methodID>
        <phaseHint>SKS</phaseHint>
      </pick>
      <pick publicID="smi:local/264a740f-2f26-4971-b206-cd945e40d6fe">
        <time>
          <value>2017-10-10T06:55:37.889138Z</value>
          <uncertainty>0.0001</uncertainty>
        </time>
        <waveformID networkCode="Z3" stationCode="A188A"></waveformID>
        <methodID>smi:local/auto</methodID>
        <phaseHint>SKS</phaseHint>
      </pick>
      <pick publicID="smi:local/09dd02c3-bfc7-4070-a8e3-4fea43b60578">
        <time>
          <value>2017-10-10T06:55:33.337487Z</value>
          <uncertainty>0.0001</uncertainty>
        </time>
        <waveformID networkCode="Z3" stationCode="A190A"></waveformID>
        <methodID>smi:local/auto</methodID>
        <phaseHint>SKS</phaseHint>
      </pick>
      <pick publicID="smi:local/45d28352-e1f0-49be-9cb4-9c182ba52629">
        <time>
          <value>2017-10-10T06:55:35.779079Z</value>
          <uncertainty>0.0001</uncertainty>
        </time>
        <waveformID networkCode="Z3" stationCode="A191A"></waveformID>
        <methodID>smi:local/auto</methodID>
        <phaseHint>SKS</phaseHint>
      </pick>
      <pick publicID="smi:local/6313d9ac-8b71-40e4-b1e7-d5404db05a04">
        <time>
          <value>2017-10-10T06:55:31.935813Z</value>
          <uncertainty>0.0001</uncertainty>
        </time>
        <waveformID networkCode="Z3" stationCode="A195A"></waveformID>
        <methodID>smi:local/auto</methodID>
        <phaseHint>SKS</phaseHint>
      </pick>
      <pick publicID="smi:local/0dff4873-2671-4ad0-ae80-1b2dd6e15711">
        <time>
          <value>2017-10-10T06:55:31.326963Z</value>
          <uncertainty>0.0001</uncertainty>
        </time>
        <waveformID networkCode="Z3" stationCode="A198A"></waveformID>
        <methodID>smi:local/auto</methodID>
        <phaseHint>SKS</phaseHint>
      </pick>
      <pick publicID="smi:local/a476fecc-9d55-4b5c-b397-43991373e934">
        <time>
          <value>2017-10-10T06:55:34.980894Z</value>
          <uncertainty>0.0001</uncertainty>
        </time>
        <waveformID networkCode="Z3" stationCode="A199A"></waveformID>
        <methodID>smi:local/auto</methodID>
        <phaseHint>SKS</phaseHint>
      </pick>
      <pick publicID="smi:local/90932365-bf97-404a-aaa7-0a36be4a625d">
        <time>
          <value>2017-10-10T06:55:36.716937Z</value>
          <uncertainty>0.0001</uncertainty>
        </time>
        <waveformID networkCode="Z3" stationCode="A200A"></waveformID>
        <methodID>smi:local/auto</methodID>
        <phaseHint>SKS</phaseHint>
      </pick>
      <pick publicID="smi:local/a27ba438-1f3d-4437-8095-fa8f489923ce">
        <time>
          <value>2017-10-10T06:55:38.514972Z</value>
          <uncertainty>0.0001</uncertainty>
        </time>
        <waveformID networkCode="Z3" stationCode="A201A"></waveformID>
        <methodID>smi:local/auto</methodID>
        <phaseHint>SKS</phaseHint>
      </pick>
      <pick publicID="smi:local/d056d9df-a04a-4884-ae62-e0f376a4356d">
        <time>
          <value>2017-10-10T06:55:32.812118Z</value>
          <uncertainty>0.0001</uncertainty>
        </time>
        <waveformID networkCode="Z3" stationCode="A202A"></waveformID>
        <methodID>smi:local/auto</methodID>
        <phaseHint>SKS</phaseHint>
      </pick>
      <pick publicID="smi:local/44cfec7f-1b76-4e40-83b5-cd5bbe45ba72">
        <time>
          <value>2017-10-10T06:56:29.871704Z</value>
          <uncertainty>0.0001</uncertainty>
        </time>
        <waveformID networkCode="Z3" stationCode="A266A"></waveformID>
        <methodID>smi:local/auto</methodID>
        <phaseHint>SKS</phaseHint>
      </pick>
      <pick publicID="smi:local/ec0ff115-35d1-4ad5-89ba-03cad1d5ff7d">
        <time>
          <value>2017-10-10T06:56:31.040153Z</value>
          <uncertainty>0.0001</uncertainty>
        </time>
        <waveformID networkCode="Z3" stationCode="A267A"></waveformID>
        <methodID>smi:local/auto</methodID>
        <phaseHint>SKS</phaseHint>
      </pick>
      <pick publicID="smi:local/1d2d0355-95f6-4437-a2b3-afe4a2a5c85a">
        <time>
          <value>2017-10-10T06:56:31.521565Z</value>
          <uncertainty>0.0001</uncertainty>
        </time>
        <waveformID networkCode="Z3" stationCode="A269A"></waveformID>
        <methodID>smi:local/auto</methodID>
        <phaseHint>SKS</phaseHint>
      </pick>
      <pick publicID="smi:local/31754961-932a-4068-9f60-1da9c003518e">
        <time>
          <value>2017-10-10T06:56:33.699031Z</value>
          <uncertainty>0.0001</uncertainty>
        </time>
        <waveformID networkCode="Z3" stationCode="A270A"></waveformID>
        <methodID>smi:local/auto</methodID>
        <phaseHint>SKS</phaseHint>
      </pick>
      <pick publicID="smi:local/14286f55-5fad-47fa-b95d-e2199198361e">
        <time>
          <value>2017-10-10T06:56:32.370056Z</value>
          <uncertainty>0.0001</uncertainty>
        </time>
        <waveformID networkCode="Z3" stationCode="A271A"></waveformID>
        <methodID>smi:local/auto</methodID>
        <phaseHint>SKS</phaseHint>
      </pick>
      <pick publicID="smi:local/d82258a2-1272-460f-9f43-ca27c1582da7">
        <time>
          <value>2017-10-10T06:56:32.319794Z</value>
          <uncertainty>0.0001</uncertainty>
        </time>
        <waveformID networkCode="Z3" stationCode="A272A"></waveformID>
        <methodID>smi:local/auto</methodID>
        <phaseHint>SKS</phaseHint>
      </pick>
      <pick publicID="smi:local/12bddda0-38ab-4774-9c5f-a165e34a20c4">
        <time>
          <value>2017-10-10T06:56:32.736392Z</value>
          <uncertainty>0.0001</uncertainty>
        </time>
        <waveformID networkCode="Z3" stationCode="A331A"></waveformID>
        <methodID>smi:local/auto</methodID>
        <phaseHint>SKS</phaseHint>
      </pick>
      <pick publicID="smi:local/57e58c9a-8e52-46aa-91f9-1f6aa32521e9">
        <time>
          <value>2017-10-10T06:56:33.079171Z</value>
          <uncertainty>0.0001</uncertainty>
        </time>
        <waveformID networkCode="Z3" stationCode="A332A"></waveformID>
        <methodID>smi:local/auto</methodID>
        <phaseHint>SKS</phaseHint>
      </pick>
      <pick publicID="smi:local/1b38be65-3fc3-440e-a61f-a85c103afa63">
        <time>
          <value>2017-10-10T06:56:30.475739Z</value>
          <uncertainty>0.0001</uncertainty>
        </time>
        <waveformID networkCode="Z3" stationCode="A334A"></waveformID>
        <methodID>smi:local/auto</methodID>
        <phaseHint>SKS</phaseHint>
      </pick>
      <pick publicID="smi:local/a813541a-6158-4cc8-9943-fae15fa5de7a">
        <time>
          <value>2017-10-10T06:56:32.293825Z</value>
          <uncertainty>0.0001</uncertainty>
        </time>
        <waveformID networkCode="Z3" stationCode="A335A"></waveformID>
        <methodID>smi:local/auto</methodID>
        <phaseHint>SKS</phaseHint>
      </pick>
      <pick publicID="smi:local/48a17955-4e61-4e66-90cb-ba064b3d7f53">
        <time>
          <value>2017-10-10T06:56:34.061406Z</value>
          <uncertainty>0.0001</uncertainty>
        </time>
        <waveformID networkCode="Z3" stationCode="A336A"></waveformID>
        <methodID>smi:local/auto</methodID>
        <phaseHint>SKS</phaseHint>
      </pick>
      <pick publicID="smi:local/8882288c-7e3e-4272-99e6-c54069b04db0">
        <time>
          <value>2017-10-10T06:56:30.405363Z</value>
          <uncertainty>0.0001</uncertainty>
        </time>
        <waveformID networkCode="Z3" stationCode="A337A"></waveformID>
        <methodID>smi:local/auto</methodID>
        <phaseHint>SKS</phaseHint>
      </pick>
      <pick publicID="smi:local/657df9de-113f-42a8-b141-b966944b136b">
        <time>
          <value>2017-10-10T06:56:31.857339Z</value>
          <uncertainty>0.0001</uncertainty>
        </time>
        <waveformID networkCode="Z3" stationCode="A338A"></waveformID>
        <methodID>smi:local/auto</methodID>
        <phaseHint>SKS</phaseHint>
      </pick>
      <pick publicID="smi:local/51353938-607c-4041-830f-d167fe25263b">
        <time>
          <value>2017-10-10T06:56:14.302337Z</value>
          <uncertainty>0.0001</uncertainty>
        </time>
        <waveformID networkCode="Z3" stationCode="A356A"></waveformID>
        <methodID>smi:local/auto</methodID>
        <phaseHint>SKS</phaseHint>
      </pick>
      <pick publicID="smi:local/01381a8d-b741-4b26-b87f-b257599b3033">
        <time>
          <value>2017-10-10T06:55:48.879847Z</value>
          <uncertainty>0.0001</uncertainty>
        </time>
        <waveformID networkCode="1N" stationCode="AIGE"></waveformID>
        <methodID>smi:local/auto</methodID>
        <phaseHint>SKS</phaseHint>
      </pick>
      <pick publicID="smi:local/3ebba60e-a4c0-4d1c-ac7a-aa068959ee14">
        <time>
          <value>2017-10-10T06:55:48.873365Z</value>
          <uncertainty>0.0001</uncertainty>
        </time>
        <waveformID networkCode="1N" stationCode="AIGH"></waveformID>
        <methodID>smi:local/auto</methodID>
        <phaseHint>SKS</phaseHint>
      </pick>
      <pick publicID="smi:local/2c96b9fe-c92b-4b2d-863d-00a6a89d02a9">
        <time>
          <value>2017-10-10T06:56:09.926167Z</value>
          <uncertainty>0.0001</uncertainty>
        </time>
        <waveformID networkCode="BW" stationCode="ALFT"></waveformID>
        <methodID>smi:local/auto</methodID>
        <phaseHint>SKS</phaseHint>
      </pick>
      <pick publicID="smi:local/bb44b190-f448-4179-a0cc-8b7c3ea15a17">
        <time>
          <value>2017-10-10T06:56:14.713539Z</value>
          <uncertainty>0.0001</uncertainty>
        </time>
        <waveformID networkCode="BW" stationCode="BDGS"></waveformID>
        <methodID>smi:local/auto</methodID>
        <phaseHint>SKS</phaseHint>
      </pick>
      <pick publicID="smi:local/761ae471-b0e5-4fca-96fa-162527a1a54a">
        <time>
          <value>2017-10-10T06:56:09.358191Z</value>
          <uncertainty>0.0001</uncertainty>
        </time>
        <waveformID networkCode="BW" stationCode="BE1"></waveformID>
        <methodID>smi:local/auto</methodID>
        <phaseHint>SKS</phaseHint>
      </pick>
      <pick publicID="smi:local/c08ab72b-e539-4f62-a476-a4db9b0453af">
        <time>
          <value>2017-10-10T06:56:09.839494Z</value>
          <uncertainty>0.0001</uncertainty>
        </time>
