<?xml version='1.0' encoding='utf-8'?>
<q:quakeml xmlns="http://quakeml.org/xmlns/bed/1.2" xmlns:q="http://quakeml.org/xmlns/quakeml/1.2">
  <eventParameters publicID="smi:local/8e937040-d35a-4586-bc19-5f9a57706839">
    <event publicID="smi:local/20171010_063224.a">
      <origin publicID="smi:local/ndk/C201710100632A/origin#cmtorigin">
        <time>
          <value>2017-10-10T06:32:24.800000Z</value>
        </time>
        <latitude>
          <value>-18.58</value>
        </latitude>
        <longitude>
          <value>-69.86</value>
        </longitude>
        <depth>
          <value>106.4</value>
        </depth>
      </origin>
      <magnitude publicID="smi:local/b82081d5-f44f-490e-9186-8084047623c3">
        <mag>
          <value>6.27</value>
        </mag>
        <type>Mwc</type>
        <originID>smi:local/ndk/C201710100632A/origin#cmtorigin</originID>
      </magnitude>
      <pick publicID="smi:local/420ad3f9-673f-46cf-a0ef-436cc4cf5b1f">
        <time>
          <value>2017-10-10T06:41:34.000000Z</value>
          <lowerUncertainty>0.8</lowerUncertainty>
          <upperUncertainty>0.8</upperUncertainty>
        </time>
        <waveformID networkCode="1N" stationCode="AIGE" channelCode="HHZ"></waveformID>
        <filterID>smi:local/53bfac2f-65f6-4d9d-a318-906ecf3a916f</filterID>
        <methodID>smi:local/auto</methodID>
        <phaseHint>P</phaseHint>
        <polarity>undecidable</polarity>
      </pick>
      <pick publicID="smi:local/a22e4b4e-237f-4407-8650-f3b3bdb13452">
        <time>
          <value>2017-10-10T06:54:53.000000Z</value>
          <uncertainty>15.0</uncertainty>
          <lowerUncertainty>38.0</lowerUncertainty>
          <upperUncertainty>3.5</upperUncertainty>
        </time>
        <waveformID networkCode="1N" stationCode="AIGE" channelCode="HHE"></waveformID>
        <filterID>smi:local/5b48c91b-1e42-48de-be66-3544fcf1e720</filterID>
        <methodID>smi:local/auto</methodID>
        <phaseHint>S</phaseHint>
        <polarity>undecidable</polarity>
      </pick>
      <pick publicID="smi:local/091701db-1a9d-43a6-a7ea-fb542d1ad484">
        <time>
          <value>2017-10-10T06:45:44.014999Z</value>
          <uncertainty>2.8076923076923115</uncertainty>
          <lowerUncertainty>1.423077</lowerUncertainty>
          <upperUncertainty>3.5</upperUncertainty>
        </time>
        <waveformID networkCode="BW" stationCode="ALFT" channelCode="HHZ"></waveformID>
        <filterID>smi:local/eef5ce48-8f7a-4f63-ba19-7f57befb9c68</filterID>
        <methodID>smi:local/auto</methodID>
        <phaseHint>P</phaseHint>
        <polarity>undecidable</polarity>
      </pick>
      <pick publicID="smi:local/2024008b-65ce-44f7-9b30-26457e488d9f">
        <time>
          <value>2017-10-10T06:56:16.004999Z</value>
          <uncertainty>3.6666666666666665</uncertainty>
          <lowerUncertainty>3.0</lowerUncertainty>
          <upperUncertainty>4.0</upperUncertainty>
        </time>
        <waveformID networkCode="BW" stationCode="ALFT" channelCode="HHE"></waveformID>
        <filterID>smi:local/c4a25e43-ab14-446a-8d54-86b133f956fa</filterID>
        <methodID>smi:local/auto</methodID>
        <phaseHint>S</phaseHint>
        <polarity>undecidable</polarity>
      </pick>
      <pick publicID="smi:local/b0594fd2-9408-4f4e-8b83-1823f5acf4cd">
        <time>
          <value>2017-10-10T06:41:34.005000Z</value>
          <lowerUncertainty>0.8</lowerUncertainty>
          <upperUncertainty>0.8</upperUncertainty>
        </time>
        <waveformID networkCode="1N" stationCode="AIGH" channelCode="HHZ"></waveformID>
        <filterID>smi:local/2b40d37f-d805-4ed1-a98e-b4b0753cd88e</filterID>
        <methodID>smi:local/auto</methodID>
        <phaseHint>P</phaseHint>
        <polarity>undecidable</polarity>
      </pick>
      <pick publicID="smi:local/b043c600-0438-410d-9a59-4bceb89a52fb">
        <time>
          <value>2017-10-10T06:41:34.005000Z</value>
          <lowerUncertainty>32.0</lowerUncertainty>
          <upperUncertainty>32.0</upperUncertainty>
        </time>
        <waveformID networkCode="1N" stationCode="AIGH" channelCode="HHE"></waveformID>
        <filterID>smi:local/73f61d78-86ba-4d72-90d7-f2cacedf3c1d</filterID>
        <methodID>smi:local/auto</methodID>
        <phaseHint>S</phaseHint>
        <polarity>undecidable</polarity>
      </pick>
      <pick publicID="smi:local/917b5989-5447-459d-828a-621e9c086759">
        <time>
          <value>2017-10-10T06:45:40.980000Z</value>
          <uncertainty>0.6111111111111143</uncertainty>
          <lowerUncertainty>1.833333</lowerUncertainty>
          <upperUncertainty>0.5</upperUncertainty>
        </time>
        <waveformID networkCode="BW" stationCode="BIB" channelCode="HHZ"></waveformID>
        <filterID>smi:local/8bf6862a-fe9d-4629-bb57-b35cae8ef37e</filterID>
        <methodID>smi:local/auto</methodID>
        <phaseHint>P</phaseHint>
        <polarity>undecidable</polarity>
      </pick>
      <pick publicID="smi:local/aa1bee13-4d84-435b-bc58-bd55983de111">
        <time>
          <value>2017-10-10T06:41:33.980000Z</value>
          <lowerUncertainty>32.0</lowerUncertainty>
          <upperUncertainty>32.0</upperUncertainty>
        </time>
        <waveformID networkCode="BW" stationCode="BIB" channelCode="HHE"></waveformID>
        <filterID>smi:local/5f713949-b7ee-472a-959e-1f8560c30186</filterID>
        <methodID>smi:local/auto</methodID>
        <phaseHint>S</phaseHint>
        <polarity>undecidable</polarity>
      </pick>
      <pick publicID="smi:local/9c51a6c2-5e95-4ea2-afef-7a721f9dee85">
        <time>
          <value>2017-10-10T06:45:47.519999Z</value>
          <uncertainty>2.75</uncertainty>
          <lowerUncertainty>1.25</lowerUncertainty>
          <upperUncertainty>3.5</upperUncertainty>
        </time>
        <waveformID networkCode="BW" stationCode="BDGS" channelCode="HHZ"></waveformID>
        <filterID>smi:local/37a486e4-7e5f-4b11-be41-e80d42082620</filterID>
        <methodID>smi:local/auto</methodID>
        <phaseHint>P</phaseHint>
        <polarity>undecidable</polarity>
      </pick>
      <pick publicID="smi:local/34128bc2-3e5f-4799-931e-0eae451fdec8">
        <time>
          <value>2017-10-10T06:56:21.989999Z</value>
          <uncertainty>0.9444444444444571</uncertainty>
          <lowerUncertainty>2.833333</lowerUncertainty>
          <upperUncertainty>0.5</upperUncertainty>
        </time>
        <waveformID networkCode="BW" stationCode="BDGS" channelCode="HHE"></waveformID>
        <filterID>smi:local/6c5ea293-f410-4af4-afcb-d9ce0fdd3003</filterID>
        <methodID>smi:local/auto</methodID>
        <phaseHint>S</phaseHint>
        <polarity>undecidable</polarity>
      </pick>
      <pick publicID="smi:local/909b5fd3-0b89-471c-b0a4-3b74d8e7fabb">
        <time>
          <value>2017-10-10T06:45:42.020000Z</value>
          <uncertainty>3.8076923076923115</uncertainty>
          <lowerUncertainty>1.423077</lowerUncertainty>
          <upperUncertainty>5.0</upperUncertainty>
        </time>
        <waveformID networkCode="BW" stationCode="BE1" channelCode="HHZ"></waveformID>
        <filterID>smi:local/4b7c209c-b90d-4751-a403-7d6db74a53b5</filterID>
        <methodID>smi:local/auto</methodID>
        <phaseHint>P</phaseHint>
        <polarity>undecidable</polarity>
      </pick>
      <pick publicID="smi:local/4b7167c2-e353-422c-86db-606696e2ffc0">
        <time>
          <value>2017-10-10T06:56:16.985000Z</value>
          <uncertainty>2.5</uncertainty>
          <lowerUncertainty>3.5</lowerUncertainty>
          <upperUncertainty>2.0</upperUncertainty>
        </time>
        <waveformID networkCode="BW" stationCode="BE1" channelCode="HHE"></waveformID>
        <filterID>smi:local/4d0444c2-e0a4-4588-8795-b6ca8de025a4</filterID>
        <methodID>smi:local/auto</methodID>
        <phaseHint>S</phaseHint>
        <polarity>undecidable</polarity>
      </pick>
      <pick publicID="smi:local/0ff9fdde-3759-46f9-9055-9a49aca8e466">
        <time>
          <value>2017-10-10T06:45:46.005000Z</value>
          <uncertainty>1.3000000000000018</uncertainty>
          <lowerUncertainty>1.9</lowerUncertainty>
          <upperUncertainty>1.0</upperUncertainty>
        </time>
        <waveformID networkCode="BW" stationCode="FFB1" channelCode="HHZ"></waveformID>
        <filterID>smi:local/811a849f-ceda-4bb9-ab9e-fd0375681097</filterID>
        <methodID>smi:local/auto</methodID>
        <phaseHint>P</phaseHint>
        <polarity>undecidable</polarity>
      </pick>
      <pick publicID="smi:local/974080f8-c3ca-4eb7-a932-282cf0e0570f">
        <time>
          <value>2017-10-10T06:56:19.485000Z</value>
          <uncertainty>1.7777777777777903</uncertainty>
          <lowerUncertainty>4.333333</lowerUncertainty>
          <upperUncertainty>0.5</upperUncertainty>
        </time>
        <waveformID networkCode="BW" stationCode="FFB1" channelCode="HH2"></waveformID>
        <filterID>smi:local/01123223-75ac-4fdd-a86a-3ff2d9a4451e</filterID>
        <methodID>smi:local/auto</methodID>
        <phaseHint>S</phaseHint>
        <polarity>undecidable</polarity>
      </pick>
      <pick publicID="smi:local/f8f201f6-f63f-4127-96b1-e4ef5e3d7bb6">
        <time>
          <value>2017-10-10T06:45:47.015000Z</value>
          <uncertainty>0.6000000000000038</uncertainty>
          <lowerUncertainty>1.8</lowerUncertainty>
          <upperUncertainty>0.5</upperUncertainty>
        </time>
        <waveformID networkCode="BW" stationCode="FFB2" channelCode="HHZ"></waveformID>
        <filterID>smi:local/1d493cf8-ba2e-4965-b4b7-6e66d9eeaa64</filterID>
        <methodID>smi:local/auto</methodID>
        <phaseHint>P</phaseHint>
        <polarity>undecidable</polarity>
      </pick>
      <pick publicID="smi:local/c736a8ce-d3e2-4081-829f-3f69b7ee9ac0">
        <time>
          <value>2017-10-10T06:56:19.485000Z</value>
          <uncertainty>0.8666666666666742</uncertainty>
          <lowerUncertainty>2.6</lowerUncertainty>
          <upperUncertainty>0.5</upperUncertainty>
        </time>
        <waveformID networkCode="BW" stationCode="FFB2" channelCode="HH2"></waveformID>
        <filterID>smi:local/9199a038-a914-4032-a53b-9804577ab0a5</filterID>
        <methodID>smi:local/auto</methodID>
        <phaseHint>S</phaseHint>
        <polarity>undecidable</polarity>
      </pick>
      <pick publicID="smi:local/46961dfa-4d6e-4b75-8477-ffedd16cd903">
        <time>
          <value>2017-10-10T06:45:42.000000Z</value>
          <uncertainty>3.848484848484844</uncertainty>
          <lowerUncertainty>1.545455</lowerUncertainty>
          <upperUncertainty>5.0</upperUncertainty>
        </time>
        <waveformID networkCode="BW" stationCode="GELB" channelCode="HHZ"></waveformID>
        <filterID>smi:local/75dbdc2e-7061-4542-989e-33fc779004d1</filterID>
        <methodID>smi:local/auto</methodID>
        <phaseHint>P</phaseHint>
        <polarity>undecidable</polarity>
      </pick>
      <pick publicID="smi:local/1540b4b2-0ff1-4884-8b45-e3a30a439e42">
        <time>
          <value>2017-10-10T06:56:12.480000Z</value>
          <uncertainty>6.111111111111124</uncertainty>
          <lowerUncertainty>4.333333</lowerUncertainty>
          <upperUncertainty>7.0</upperUncertainty>
        </time>
        <waveformID networkCode="BW" stationCode="GELB" channelCode="HHE"></waveformID>
        <filterID>smi:local/ef94a11f-ab20-4e2a-9fa9-9e7b4c43c100</filterID>
        <methodID>smi:local/auto</methodID>
        <phaseHint>S</phaseHint>
        <polarity>undecidable</polarity>
      </pick>
      <pick publicID="smi:local/4e914cdb-b8d9-4853-991f-5e6769dcd068">
        <time>
          <value>2017-10-10T06:45:46.980000Z</value>
          <uncertainty>0.9166666666666666</uncertainty>
          <lowerUncertainty>1.75</lowerUncertainty>
          <upperUncertainty>0.5</upperUncertainty>
        </time>
        <waveformID networkCode="BW" stationCode="FFB3" channelCode="HHZ"></waveformID>
        <filterID>smi:local/27bcd92d-fc82-4dc0-ba6e-8ed561cd3871</filterID>
        <methodID>smi:local/auto</methodID>
        <phaseHint>P</phaseHint>
        <polarity>undecidable</polarity>
      </pick>
      <pick publicID="smi:local/66ffc4ec-0ecb-405a-a6ea-07bc6c6fec5e">
        <time>
          <value>2017-10-10T06:56:19.510000Z</value>
          <uncertainty>1.2000000000000075</uncertainty>
          <lowerUncertainty>2.6</lowerUncertainty>
          <upperUncertainty>0.5</upperUncertainty>
        </time>
        <waveformID networkCode="BW" stationCode="FFB3" channelCode="HH2"></waveformID>
        <filterID>smi:local/2ebf4de4-5eb7-4f57-90b2-d1eb9f5bfccf</filterID>
        <methodID>smi:local/auto</methodID>
        <phaseHint>S</phaseHint>
        <polarity>undecidable</polarity>
      </pick>
      <pick publicID="smi:local/14340dbd-7426-4d14-900d-42bb7b524b3f">
        <time>
          <value>2017-10-10T06:45:47.025000Z</value>
          <uncertainty>0.7619047619047592</uncertainty>
          <lowerUncertainty>1.285714</lowerUncertainty>
          <upperUncertainty>0.5</upperUncertainty>
        </time>
        <waveformID networkCode="BW" stationCode="GRMB" channelCode="HHZ"></waveformID>
        <filterID>smi:local/841b8d81-0dd3-480b-a250-de726266a12c</filterID>
        <methodID>smi:local/auto</methodID>
        <phaseHint>P</phaseHint>
        <polarity>undecidable</polarity>
      </pick>
      <pick publicID="smi:local/7eabc5ad-39e3-4b44-9e2f-dc7a1a7cd1d0">
        <time>
          <value>2017-10-10T06:56:19.525000Z</value>
          <uncertainty>1.805555555555543</uncertainty>
          <lowerUncertainty>4.416667</lowerUncertainty>
          <upperUncertainty>0.5</upperUncertainty>
        </time>
        <waveformID networkCode="BW" stationCode="GRMB" channelCode="HHE"></waveformID>
        <filterID>smi:local/82fb2543-e951-41e3-a24b-ab220a6a40c6</filterID>
        <methodID>smi:local/auto</methodID>
        <phaseHint>S</phaseHint>
        <polarity>undecidable</polarity>
      </pick>
      <pick publicID="smi:local/1aff475f-9e42-4681-97d1-d0ef9df8ff78">
        <time>
          <value>2017-10-10T06:45:51.995000Z</value>
          <uncertainty>0.8484848484848536</uncertainty>
          <lowerUncertainty>1.545455</lowerUncertainty>
          <upperUncertainty>0.5</upperUncertainty>
        </time>
        <waveformID networkCode="BW" stationCode="MANZ" channelCode="HHZ"></waveformID>
        <filterID>smi:local/0721abb1-cdf8-4223-99ed-d2abf53784f3</filterID>
        <methodID>smi:local/auto</methodID>
        <phaseHint>P</phaseHint>
        <polarity>undecidable</polarity>
      </pick>
      <pick publicID="smi:local/a8eb8d31-1997-4da5-a8d0-3962a2a114c9">
        <time>
          <value>2017-10-10T06:56:18.515000Z</value>
          <uncertainty>2.2916666666666665</uncertainty>
          <lowerUncertainty>4.875</lowerUncertainty>
          <upperUncertainty>1.0</upperUncertainty>
        </time>
        <waveformID networkCode="BW" stationCode="MANZ" channelCode="HHE"></waveformID>
        <filterID>smi:local/ea4f6335-a811-44b2-90f4-313281a1369d</filterID>
        <methodID>smi:local/auto</methodID>
        <phaseHint>S</phaseHint>
        <polarity>undecidable</polarity>
      </pick>
      <pick publicID="smi:local/b14d4eb0-8743-4d7a-94f0-4265a67311a0">
        <time>
          <value>2017-10-10T06:45:51.494999Z</value>
          <uncertainty>0.8999999999999962</uncertainty>
          <lowerUncertainty>1.7</lowerUncertainty>
          <upperUncertainty>0.5</upperUncertainty>
        </time>
        <waveformID networkCode="BW" stationCode="KW1" channelCode="HHZ"></waveformID>
        <filterID>smi:local/febf98cc-3269-4e1e-8fcc-2718ede4b9bb</filterID>
        <methodID>smi:local/auto</methodID>
        <phaseHint>P</phaseHint>
        <polarity>undecidable</polarity>
      </pick>
      <pick publicID="smi:local/53309a36-6fbd-4bb0-a4af-a827a319889d">
        <time>
          <value>2017-10-10T06:56:22.985000Z</value>
          <uncertainty>1.966666666666659</uncertainty>
          <lowerUncertainty>2.9</lowerUncertainty>
          <upperUncertainty>1.5</upperUncertainty>
        </time>
        <waveformID networkCode="BW" stationCode="KW1" channelCode="HHE"></waveformID>
        <filterID>smi:local/cffb7e24-8fce-490d-a6ba-476493573080</filterID>
        <methodID>smi:local/auto</methodID>
        <phaseHint>S</phaseHint>
        <polarity>undecidable</polarity>
      </pick>
      <pick publicID="smi:local/ecc170bd-020d-4dac-b69a-043da5e0df52">
        <time>
          <value>2017-10-10T06:45:48.525000Z</value>
          <uncertainty>0.7948717948717956</uncertainty>
          <lowerUncertainty>1.384615</lowerUncertainty>
          <upperUncertainty>0.5</upperUncertainty>
        </time>
        <waveformID networkCode="BW" stationCode="MGS04" channelCode="HHZ"></waveformID>
        <filterID>smi:local/efe907ca-8a4a-495d-91c0-7004ff6e9e59</filterID>
        <methodID>smi:local/auto</methodID>
        <phaseHint>P</phaseHint>
        <polarity>undecidable</polarity>
      </pick>
      <pick publicID="smi:local/1b48b4b3-d92c-4e1e-a592-5b1fc94a24e0">
        <time>
          <value>2017-10-10T06:56:18.500000Z</value>
          <uncertainty>2.5625</uncertainty>
          <lowerUncertainty>2.6875</lowerUncertainty>
          <upperUncertainty>2.5</upperUncertainty>
        </time>
        <waveformID networkCode="BW" stationCode="MGS04" channelCode="HHE"></waveformID>
        <filterID>smi:local/13a13631-d4d0-4d26-88fb-fcf49e2af748</filterID>
        <methodID>smi:local/auto</methodID>
        <phaseHint>S</phaseHint>
        <polarity>undecidable</polarity>
      </pick>
      <pick publicID="smi:local/c0e39edb-ced1-40fc-865e-dd1d977d7465">
        <time>
          <value>2017-10-10T06:45:50.509999Z</value>
          <uncertainty>0.8333333333333334</uncertainty>
          <lowerUncertainty>1.5</lowerUncertainty>
          <upperUncertainty>0.5</upperUncertainty>
        </time>
        <waveformID networkCode="BW" stationCode="RJOB" channelCode="HHZ"></waveformID>
        <filterID>smi:local/b8c223bf-7c44-46fd-8e24-f56570e30774</filterID>
        <methodID>smi:local/auto</methodID>
        <phaseHint>P</phaseHint>
        <polarity>undecidable</polarity>
      </pick>
      <pick publicID="smi:local/aad28a02-0b73-41c2-a215-dd951bf971e5">
        <time>
          <value>2017-10-10T06:56:17.009999Z</value>
          <uncertainty>3.8125</uncertainty>
          <lowerUncertainty>3.4375</lowerUncertainty>
          <upperUncertainty>4.0</upperUncertainty>
        </time>
        <waveformID networkCode="BW" stationCode="RJOB" channelCode="HHE"></waveformID>
        <filterID>smi:local/817d37fb-723b-4dbf-bb0c-f44727c5f1f5</filterID>
        <methodID>smi:local/auto</methodID>
        <phaseHint>S</phaseHint>
        <polarity>undecidable</polarity>
      </pick>
      <pick publicID="smi:local/5d6b1dbb-ee6a-4546-99e3-2a9e0f7b2361">
        <time>
          <value>2017-10-10T06:45:46.490000Z</value>
          <uncertainty>1.847222222222219</uncertainty>
          <lowerUncertainty>1.541667</lowerUncertainty>
          <upperUncertainty>2.0</upperUncertainty>
        </time>
        <waveformID networkCode="BW" stationCode="MGSBH" channelCode="HHZ"></waveformID>
        <filterID>smi:local/905c66c2-5528-410e-8546-aa5a378b8313</filterID>
        <methodID>smi:local/auto</methodID>
        <phaseHint>P</phaseHint>
        <polarity>undecidable</polarity>
      </pick>
      <pick publicID="smi:local/099a9333-2d80-41e4-bc2f-b0b44e5d35e0">
        <time>
          <value>2017-10-10T06:56:08.990000Z</value>
          <uncertainty>6.083333333333333</uncertainty>
          <lowerUncertainty>4.25</lowerUncertainty>
          <upperUncertainty>7.0</upperUncertainty>
        </time>
        <waveformID networkCode="BW" stationCode="MGSBH" channelCode="HH2"></waveformID>
