<?xml version='1.0' encoding='utf-8'?>
<q:quakeml xmlns="http://quakeml.org/xmlns/bed/1.2" xmlns:q="http://quakeml.org/xmlns/quakeml/1.2">
  <eventParameters publicID="smi:local/5c656776-8c7e-4a8f-94a7-eefe0a19a7a3">
    <event publicID="smi:local/20171010_063224.a">
      <origin publicID="smi:local/ndk/C201710100632A/origin#cmtorigin">
        <time>
          <value>2017-10-10T06:32:24.800000Z</value>
        </time>
        <latitude>
          <value>-18.58</value>
        </latitude>
        <longitude>
          <value>-69.86</value>
        </longitude>
        <depth>
          <value>106.4</value>
        </depth>
      </origin>
      <magnitude publicID="smi:local/4ecbb876-1493-4a3e-a2b5-51b206b6706d">
        <mag>
          <value>6.27</value>
        </mag>
        <type>Mwc</type>
        <originID>smi:local/ndk/C201710100632A/origin#cmtorigin</originID>
      </magnitude>
      <pick publicID="smi:local/11f84869-65ae-43e3-a8c2-35b3631e4b45">
        <time>
          <value>2017-10-10T06:41:34.000000Z</value>
          <lowerUncertainty>0.8</lowerUncertainty>
          <upperUncertainty>0.8</upperUncertainty>
        </time>
        <waveformID networkCode="1N" stationCode="AIGE" channelCode="HHZ"></waveformID>
        <filterID>smi:local/7daebdc3-e41c-4585-80e7-3ed85faa86b4</filterID>
        <methodID>smi:local/auto</methodID>
        <phaseHint>P</phaseHint>
        <polarity>undecidable</polarity>
      </pick>
      <pick publicID="smi:local/d11a2c2d-3c71-4c40-8a0e-26708e82a1cf">
        <time>
          <value>2017-10-10T06:54:53.000000Z</value>
          <uncertainty>15.0</uncertainty>
          <lowerUncertainty>38.0</lowerUncertainty>
          <upperUncertainty>3.5</upperUncertainty>
        </time>
        <waveformID networkCode="1N" stationCode="AIGE" channelCode="HHE"></waveformID>
        <filterID>smi:local/9dd44c81-82c3-45c5-b511-e075f52b5122</filterID>
        <methodID>smi:local/auto</methodID>
        <phaseHint>S</phaseHint>
        <polarity>undecidable</polarity>
      </pick>
      <pick publicID="smi:local/331a5eb4-579d-466b-a3b9-56def21ea3c3">
        <time>
          <value>2017-10-10T06:45:44.014999Z</value>
          <uncertainty>2.8076923076923115</uncertainty>
          <lowerUncertainty>1.423077</lowerUncertainty>
          <upperUncertainty>3.5</upperUncertainty>
        </time>
        <waveformID networkCode="BW" stationCode="ALFT" channelCode="HHZ"></waveformID>
        <filterID>smi:local/c7fd9bd6-3b5b-4f32-a4e6-8a256ed82732</filterID>
        <methodID>smi:local/auto</methodID>
        <phaseHint>P</phaseHint>
        <polarity>undecidable</polarity>
      </pick>
      <pick publicID="smi:local/0b040209-99a3-448f-bac0-51564e353e9f">
        <time>
          <value>2017-10-10T06:56:16.004999Z</value>
          <uncertainty>3.6666666666666665</uncertainty>
          <lowerUncertainty>3.0</lowerUncertainty>
          <upperUncertainty>4.0</upperUncertainty>
        </time>
        <waveformID networkCode="BW" stationCode="ALFT" channelCode="HHE"></waveformID>
        <filterID>smi:local/61069099-ff80-481f-80ac-48c479b89d4c</filterID>
        <methodID>smi:local/auto</methodID>
        <phaseHint>S</phaseHint>
        <polarity>undecidable</polarity>
      </pick>
      <pick publicID="smi:local/893744bb-58a9-4a9c-83af-b32279328673">
        <time>
          <value>2017-10-10T06:41:34.005000Z</value>
          <lowerUncertainty>0.8</lowerUncertainty>
          <upperUncertainty>0.8</upperUncertainty>
        </time>
        <waveformID networkCode="1N" stationCode="AIGH" channelCode="HHZ"></waveformID>
        <filterID>smi:local/770ae19d-5777-4fa2-ab3a-5a34f91bac96</filterID>
        <methodID>smi:local/auto</methodID>
        <phaseHint>P</phaseHint>
        <polarity>undecidable</polarity>
      </pick>
      <pick publicID="smi:local/f7aede51-1884-42cc-b60b-d39c24f49c47">
        <time>
          <value>2017-10-10T06:41:34.005000Z</value>
          <lowerUncertainty>32.0</lowerUncertainty>
          <upperUncertainty>32.0</upperUncertainty>
        </time>
        <waveformID networkCode="1N" stationCode="AIGH" channelCode="HHE"></waveformID>
        <filterID>smi:local/80bc4597-07b8-4379-853b-2e1731afffd5</filterID>
        <methodID>smi:local/auto</methodID>
        <phaseHint>S</phaseHint>
        <polarity>undecidable</polarity>
      </pick>
      <pick publicID="smi:local/75c0c73d-e0e6-40d2-9943-442da97325d3">
        <time>
          <value>2017-10-10T06:45:40.980000Z</value>
          <uncertainty>0.6111111111111143</uncertainty>
          <lowerUncertainty>1.833333</lowerUncertainty>
          <upperUncertainty>0.5</upperUncertainty>
        </time>
        <waveformID networkCode="BW" stationCode="BIB" channelCode="HHZ"></waveformID>
        <filterID>smi:local/cbbeae6d-b885-4e46-aa46-1248091aea7e</filterID>
        <methodID>smi:local/auto</methodID>
        <phaseHint>P</phaseHint>
        <polarity>undecidable</polarity>
      </pick>
      <pick publicID="smi:local/5011d41e-ae92-4565-a8b3-b5170e7aaea4">
        <time>
          <value>2017-10-10T06:41:33.980000Z</value>
          <lowerUncertainty>32.0</lowerUncertainty>
          <upperUncertainty>32.0</upperUncertainty>
        </time>
        <waveformID networkCode="BW" stationCode="BIB" channelCode="HHE"></waveformID>
        <filterID>smi:local/cd9a5dc3-f574-439a-a28f-82200af91930</filterID>
        <methodID>smi:local/auto</methodID>
        <phaseHint>S</phaseHint>
        <polarity>undecidable</polarity>
      </pick>
      <pick publicID="smi:local/b3a55c4b-545c-46e7-9936-aff564bd8b62">
        <time>
          <value>2017-10-10T06:45:47.519999Z</value>
          <uncertainty>2.75</uncertainty>
          <lowerUncertainty>1.25</lowerUncertainty>
          <upperUncertainty>3.5</upperUncertainty>
        </time>
        <waveformID networkCode="BW" stationCode="BDGS" channelCode="HHZ"></waveformID>
        <filterID>smi:local/571920d0-fcc8-4d01-991e-509633ff3edf</filterID>
        <methodID>smi:local/auto</methodID>
        <phaseHint>P</phaseHint>
        <polarity>undecidable</polarity>
      </pick>
      <pick publicID="smi:local/200c95dd-26cd-4484-8b8d-67cfe413c8c2">
        <time>
          <value>2017-10-10T06:56:21.989999Z</value>
          <uncertainty>0.9444444444444571</uncertainty>
          <lowerUncertainty>2.833333</lowerUncertainty>
          <upperUncertainty>0.5</upperUncertainty>
        </time>
        <waveformID networkCode="BW" stationCode="BDGS" channelCode="HHE"></waveformID>
        <filterID>smi:local/4d096957-8a45-4550-bb7a-8379d4b99492</filterID>
        <methodID>smi:local/auto</methodID>
        <phaseHint>S</phaseHint>
        <polarity>undecidable</polarity>
      </pick>
      <pick publicID="smi:local/5c192638-90a4-449a-8d88-8fedc4b68c8c">
        <time>
          <value>2017-10-10T06:45:42.020000Z</value>
          <uncertainty>3.8076923076923115</uncertainty>
          <lowerUncertainty>1.423077</lowerUncertainty>
          <upperUncertainty>5.0</upperUncertainty>
        </time>
        <waveformID networkCode="BW" stationCode="BE1" channelCode="HHZ"></waveformID>
        <filterID>smi:local/c2d2ab7d-738b-4074-8c49-da2f7db14543</filterID>
        <methodID>smi:local/auto</methodID>
        <phaseHint>P</phaseHint>
        <polarity>undecidable</polarity>
      </pick>
      <pick publicID="smi:local/16b2f1f2-4399-482f-8b67-f4b18d15e414">
        <time>
          <value>2017-10-10T06:56:16.985000Z</value>
          <uncertainty>2.5</uncertainty>
          <lowerUncertainty>3.5</lowerUncertainty>
          <upperUncertainty>2.0</upperUncertainty>
        </time>
        <waveformID networkCode="BW" stationCode="BE1" channelCode="HHE"></waveformID>
        <filterID>smi:local/126c71b3-cc2a-403a-b07a-af20692c13ec</filterID>
        <methodID>smi:local/auto</methodID>
        <phaseHint>S</phaseHint>
        <polarity>undecidable</polarity>
      </pick>
      <pick publicID="smi:local/79f0c5ea-9a00-4c49-8e8d-783e12967042">
        <time>
          <value>2017-10-10T06:45:46.005000Z</value>
          <uncertainty>1.3000000000000018</uncertainty>
          <lowerUncertainty>1.9</lowerUncertainty>
          <upperUncertainty>1.0</upperUncertainty>
        </time>
        <waveformID networkCode="BW" stationCode="FFB1" channelCode="HHZ"></waveformID>
        <filterID>smi:local/053b1802-4d0d-4367-bef6-2b58fd0140da</filterID>
        <methodID>smi:local/auto</methodID>
        <phaseHint>P</phaseHint>
        <polarity>undecidable</polarity>
      </pick>
      <pick publicID="smi:local/0ef9be65-1821-4842-b701-f22e2e033660">
        <time>
          <value>2017-10-10T06:56:19.485000Z</value>
          <uncertainty>1.7777777777777903</uncertainty>
          <lowerUncertainty>4.333333</lowerUncertainty>
          <upperUncertainty>0.5</upperUncertainty>
        </time>
        <waveformID networkCode="BW" stationCode="FFB1" channelCode="HH2"></waveformID>
        <filterID>smi:local/6a445289-6dbd-4bf8-bc52-bd0a1282db54</filterID>
        <methodID>smi:local/auto</methodID>
        <phaseHint>S</phaseHint>
        <polarity>undecidable</polarity>
      </pick>
      <pick publicID="smi:local/d61a2377-211c-4529-b855-c53ffcd268fa">
        <time>
          <value>2017-10-10T06:45:47.015000Z</value>
          <uncertainty>0.6000000000000038</uncertainty>
          <lowerUncertainty>1.8</lowerUncertainty>
          <upperUncertainty>0.5</upperUncertainty>
        </time>
        <waveformID networkCode="BW" stationCode="FFB2" channelCode="HHZ"></waveformID>
        <filterID>smi:local/cda1d2e3-5291-4c0c-be92-9082978376f8</filterID>
        <methodID>smi:local/auto</methodID>
        <phaseHint>P</phaseHint>
        <polarity>undecidable</polarity>
      </pick>
      <pick publicID="smi:local/44106854-24a3-437b-8315-600806edd5b4">
        <time>
          <value>2017-10-10T06:56:19.485000Z</value>
          <uncertainty>0.8666666666666742</uncertainty>
          <lowerUncertainty>2.6</lowerUncertainty>
          <upperUncertainty>0.5</upperUncertainty>
        </time>
        <waveformID networkCode="BW" stationCode="FFB2" channelCode="HH2"></waveformID>
        <filterID>smi:local/d3f9c9cf-320b-472b-8294-722f3a79f152</filterID>
        <methodID>smi:local/auto</methodID>
        <phaseHint>S</phaseHint>
        <polarity>undecidable</polarity>
      </pick>
      <pick publicID="smi:local/c83c2ebd-201b-43cc-962b-ce85403179ad">
        <time>
          <value>2017-10-10T06:45:42.000000Z</value>
          <uncertainty>3.848484848484844</uncertainty>
          <lowerUncertainty>1.545455</lowerUncertainty>
          <upperUncertainty>5.0</upperUncertainty>
        </time>
        <waveformID networkCode="BW" stationCode="GELB" channelCode="HHZ"></waveformID>
        <filterID>smi:local/7bdea432-6f44-4ccf-b6f5-87076fb37e6a</filterID>
        <methodID>smi:local/auto</methodID>
        <phaseHint>P</phaseHint>
        <polarity>undecidable</polarity>
      </pick>
      <pick publicID="smi:local/e5ba9bb4-a05c-47f3-9d5a-6b41a4772804">
        <time>
          <value>2017-10-10T06:56:12.480000Z</value>
          <uncertainty>6.111111111111124</uncertainty>
          <lowerUncertainty>4.333333</lowerUncertainty>
          <upperUncertainty>7.0</upperUncertainty>
        </time>
        <waveformID networkCode="BW" stationCode="GELB" channelCode="HHE"></waveformID>
        <filterID>smi:local/559ff50e-de8b-4d4d-a15c-39a1fb1b852e</filterID>
        <methodID>smi:local/auto</methodID>
        <phaseHint>S</phaseHint>
        <polarity>undecidable</polarity>
      </pick>
      <pick publicID="smi:local/fbed3865-a9ce-4aa9-8e34-8b7e53baa68d">
        <time>
          <value>2017-10-10T06:45:46.980000Z</value>
          <uncertainty>0.9166666666666666</uncertainty>
          <lowerUncertainty>1.75</lowerUncertainty>
          <upperUncertainty>0.5</upperUncertainty>
        </time>
        <waveformID networkCode="BW" stationCode="FFB3" channelCode="HHZ"></waveformID>
        <filterID>smi:local/57a51b2c-6d1a-42c8-8767-1404723de529</filterID>
        <methodID>smi:local/auto</methodID>
        <phaseHint>P</phaseHint>
        <polarity>undecidable</polarity>
      </pick>
      <pick publicID="smi:local/a9842751-6adc-456d-a53e-fa79a821b4f8">
        <time>
          <value>2017-10-10T06:56:19.510000Z</value>
          <uncertainty>1.2000000000000075</uncertainty>
          <lowerUncertainty>2.6</lowerUncertainty>
          <upperUncertainty>0.5</upperUncertainty>
        </time>
        <waveformID networkCode="BW" stationCode="FFB3" channelCode="HH2"></waveformID>
        <filterID>smi:local/4628f7e7-fbd5-4c75-9776-2f84b17a08ba</filterID>
        <methodID>smi:local/auto</methodID>
        <phaseHint>S</phaseHint>
        <polarity>undecidable</polarity>
      </pick>
      <pick publicID="smi:local/2623bdd3-0f95-4d3d-a6c2-25ce32c081d2">
        <time>
          <value>2017-10-10T06:45:47.025000Z</value>
          <uncertainty>0.7619047619047592</uncertainty>
          <lowerUncertainty>1.285714</lowerUncertainty>
          <upperUncertainty>0.5</upperUncertainty>
        </time>
        <waveformID networkCode="BW" stationCode="GRMB" channelCode="HHZ"></waveformID>
        <filterID>smi:local/ae3067f0-6a4c-4c4f-af5c-8e8c6daf0171</filterID>
        <methodID>smi:local/auto</methodID>
        <phaseHint>P</phaseHint>
        <polarity>undecidable</polarity>
      </pick>
      <pick publicID="smi:local/98225e59-6b57-4f5e-b142-9f99f1c3b86f">
        <time>
          <value>2017-10-10T06:56:19.525000Z</value>
          <uncertainty>1.805555555555543</uncertainty>
          <lowerUncertainty>4.416667</lowerUncertainty>
          <upperUncertainty>0.5</upperUncertainty>
        </time>
        <waveformID networkCode="BW" stationCode="GRMB" channelCode="HHE"></waveformID>
        <filterID>smi:local/94b3172a-8270-4c7f-9774-48d3b5619f8a</filterID>
        <methodID>smi:local/auto</methodID>
        <phaseHint>S</phaseHint>
        <polarity>undecidable</polarity>
      </pick>
      <pick publicID="smi:local/216ddaab-07ae-4b62-bb46-c9f9095fc1e4">
        <time>
          <value>2017-10-10T06:45:51.995000Z</value>
          <uncertainty>0.8484848484848536</uncertainty>
          <lowerUncertainty>1.545455</lowerUncertainty>
          <upperUncertainty>0.5</upperUncertainty>
        </time>
        <waveformID networkCode="BW" stationCode="MANZ" channelCode="HHZ"></waveformID>
        <filterID>smi:local/7bd85dc1-51ea-436e-8aa4-6cf424660c28</filterID>
        <methodID>smi:local/auto</methodID>
        <phaseHint>P</phaseHint>
        <polarity>undecidable</polarity>
      </pick>
      <pick publicID="smi:local/380dae62-ccfb-4060-a486-daac99100c0a">
        <time>
          <value>2017-10-10T06:56:18.515000Z</value>
          <uncertainty>2.2916666666666665</uncertainty>
          <lowerUncertainty>4.875</lowerUncertainty>
          <upperUncertainty>1.0</upperUncertainty>
        </time>
        <waveformID networkCode="BW" stationCode="MANZ" channelCode="HHE"></waveformID>
        <filterID>smi:local/1f64eaf7-bb2c-407b-b258-926adfe55a53</filterID>
        <methodID>smi:local/auto</methodID>
        <phaseHint>S</phaseHint>
        <polarity>undecidable</polarity>
      </pick>
      <pick publicID="smi:local/b7c776d9-4e67-491d-8668-df72472895ce">
        <time>
          <value>2017-10-10T06:45:51.494999Z</value>
          <uncertainty>0.8999999999999962</uncertainty>
          <lowerUncertainty>1.7</lowerUncertainty>
          <upperUncertainty>0.5</upperUncertainty>
        </time>
        <waveformID networkCode="BW" stationCode="KW1" channelCode="HHZ"></waveformID>
        <filterID>smi:local/84a94944-afd1-4446-8e8d-85b590032a14</filterID>
        <methodID>smi:local/auto</methodID>
        <phaseHint>P</phaseHint>
        <polarity>undecidable</polarity>
      </pick>
      <pick publicID="smi:local/0de95daf-8a8b-4d61-9b7a-dbaede77b9f8">
        <time>
          <value>2017-10-10T06:56:22.985000Z</value>
          <uncertainty>1.966666666666659</uncertainty>
          <lowerUncertainty>2.9</lowerUncertainty>
          <upperUncertainty>1.5</upperUncertainty>
        </time>
        <waveformID networkCode="BW" stationCode="KW1" channelCode="HHE"></waveformID>
        <filterID>smi:local/63ce0c72-9327-4a3a-a01e-306e4c27b222</filterID>
        <methodID>smi:local/auto</methodID>
        <phaseHint>S</phaseHint>
        <polarity>undecidable</polarity>
      </pick>
      <pick publicID="smi:local/c9424c46-4d31-48dd-943a-415f940dd2d9">
        <time>
          <value>2017-10-10T06:45:48.525000Z</value>
          <uncertainty>0.7948717948717956</uncertainty>
          <lowerUncertainty>1.384615</lowerUncertainty>
          <upperUncertainty>0.5</upperUncertainty>
        </time>
        <waveformID networkCode="BW" stationCode="MGS04" channelCode="HHZ"></waveformID>
        <filterID>smi:local/03cd1ea8-c89c-427e-866e-10c4efddee82</filterID>
        <methodID>smi:local/auto</methodID>
        <phaseHint>P</phaseHint>
        <polarity>undecidable</polarity>
      </pick>
      <pick publicID="smi:local/7516786e-1054-4f1c-88e7-f788482ee671">
        <time>
          <value>2017-10-10T06:56:18.500000Z</value>
          <uncertainty>2.5625</uncertainty>
          <lowerUncertainty>2.6875</lowerUncertainty>
          <upperUncertainty>2.5</upperUncertainty>
        </time>
        <waveformID networkCode="BW" stationCode="MGS04" channelCode="HHE"></waveformID>
        <filterID>smi:local/50ce652e-2aa9-455d-8704-2138743169cf</filterID>
        <methodID>smi:local/auto</methodID>
        <phaseHint>S</phaseHint>
        <polarity>undecidable</polarity>
      </pick>
      <pick publicID="smi:local/b19fc4d1-0bb3-46a5-98c6-8366ed416c07">
        <time>
          <value>2017-10-10T06:45:50.509999Z</value>
          <uncertainty>0.8333333333333334</uncertainty>
          <lowerUncertainty>1.5</lowerUncertainty>
          <upperUncertainty>0.5</upperUncertainty>
        </time>
        <waveformID networkCode="BW" stationCode="RJOB" channelCode="HHZ"></waveformID>
        <filterID>smi:local/f44ec35a-7af2-418c-95c8-67937a2c34ef</filterID>
        <methodID>smi:local/auto</methodID>
        <phaseHint>P</phaseHint>
        <polarity>undecidable</polarity>
      </pick>
      <pick publicID="smi:local/9e7f887a-0fed-4739-baa2-9e0519cdd9e6">
        <time>
          <value>2017-10-10T06:56:17.009999Z</value>
          <uncertainty>3.8125</uncertainty>
          <lowerUncertainty>3.4375</lowerUncertainty>
          <upperUncertainty>4.0</upperUncertainty>
        </time>
        <waveformID networkCode="BW" stationCode="RJOB" channelCode="HHE"></waveformID>
        <filterID>smi:local/655c92d4-b800-418b-9f39-8eb6a4001c01</filterID>
        <methodID>smi:local/auto</methodID>
        <phaseHint>S</phaseHint>
        <polarity>undecidable</polarity>
      </pick>
      <pick publicID="smi:local/28668129-27df-493f-a1a8-e3f529ba3883">
        <time>
          <value>2017-10-10T06:45:46.490000Z</value>
          <uncertainty>1.847222222222219</uncertainty>
          <lowerUncertainty>1.541667</lowerUncertainty>
          <upperUncertainty>2.0</upperUncertainty>
        </time>
        <waveformID networkCode="BW" stationCode="MGSBH" channelCode="HHZ"></waveformID>
        <filterID>smi:local/14f5fb1b-dd7e-48c2-87e9-0c4ee48dbabb</filterID>
        <methodID>smi:local/auto</methodID>
        <phaseHint>P</phaseHint>
        <polarity>undecidable</polarity>
      </pick>
      <pick publicID="smi:local/e58a7a5a-7a0f-4213-a005-6ddf6dab510d">
        <time>
          <value>2017-10-10T06:56:08.990000Z</value>
          <uncertainty>6.083333333333333</uncertainty>
          <lowerUncertainty>4.25</lowerUncertainty>
          <upperUncertainty>7.0</upperUncertainty>
        </time>
        <waveformID networkCode="BW" stationCode="MGSBH" channelCode="HH2"></waveformID>
