<?xml version='1.0' encoding='utf-8'?>
<q:quakeml xmlns="http://quakeml.org/xmlns/bed/1.2" xmlns:q="http://quakeml.org/xmlns/quakeml/1.2">
  <eventParameters publicID="smi:local/9a87cc89-cf98-47d9-b5e3-bb2acce60145">
    <event publicID="smi:local/20171010_063224.a">
      <origin publicID="smi:local/ndk/C201710100632A/origin#cmtorigin">
        <time>
          <value>2017-10-10T06:32:24.800000Z</value>
        </time>
        <latitude>
          <value>-18.58</value>
        </latitude>
        <longitude>
          <value>-69.86</value>
        </longitude>
        <depth>
          <value>106.4</value>
        </depth>
      </origin>
      <magnitude publicID="smi:local/3c05a658-79d9-4f04-b3ee-de41177be8e5">
        <mag>
          <value>6.27</value>
        </mag>
        <type>Mwc</type>
        <originID>smi:local/ndk/C201710100632A/origin#cmtorigin</originID>
      </magnitude>
      <pick publicID="smi:local/8039566b-d9bd-42ff-9c7a-d69d16331209">
        <time>
          <value>2017-10-10T06:46:05.086434Z</value>
          <uncertainty>0.0001</uncertainty>
        </time>
        <waveformID networkCode="CZ" stationCode="JAVC"></waveformID>
        <methodID>smi:local/auto</methodID>
        <phaseHint>Pdiff</phaseHint>
      </pick>
      <pick publicID="smi:local/9155e92e-a691-42b0-a550-d54a5254ddce">
        <time>
          <value>2017-10-10T06:46:05.727120Z</value>
          <uncertainty>0.0001</uncertainty>
        </time>
        <waveformID networkCode="CZ" stationCode="MORC"></waveformID>
        <methodID>smi:local/auto</methodID>
        <phaseHint>Pdiff</phaseHint>
      </pick>
      <pick publicID="smi:local/2ddf178b-df7d-4586-94cc-795cbfa78a4c">
        <time>
          <value>2017-10-10T06:46:02.553403Z</value>
          <uncertainty>0.0001</uncertainty>
        </time>
        <waveformID networkCode="CZ" stationCode="VRAC"></waveformID>
        <methodID>smi:local/auto</methodID>
        <phaseHint>Pdiff</phaseHint>
      </pick>
      <pick publicID="smi:local/526e3aac-0090-411a-a5bb-40012c3ba74c">
        <time>
          <value>2017-10-10T06:45:19.092875Z</value>
          <uncertainty>0.0001</uncertainty>
        </time>
        <waveformID networkCode="FR" stationCode="AGO"></waveformID>
        <methodID>smi:local/auto</methodID>
        <phaseHint>P</phaseHint>
      </pick>
      <pick publicID="smi:local/c293e61a-0d97-4c5f-9526-2096e613223b">
        <time>
          <value>2017-10-10T06:45:18.894595Z</value>
          <uncertainty>0.0001</uncertainty>
        </time>
        <waveformID networkCode="FR" stationCode="BANN"></waveformID>
        <methodID>smi:local/auto</methodID>
        <phaseHint>P</phaseHint>
      </pick>
      <pick publicID="smi:local/ca6178ce-3987-4e4c-97f0-1ec038c6edf1">
        <time>
          <value>2017-10-10T06:45:18.471660Z</value>
          <uncertainty>0.0001</uncertainty>
        </time>
        <waveformID networkCode="FR" stationCode="CFF"></waveformID>
        <methodID>smi:local/auto</methodID>
        <phaseHint>P</phaseHint>
      </pick>
      <pick publicID="smi:local/a918637a-e9b9-4339-98fa-be19f72d2aa8">
        <time>
          <value>2017-10-10T06:45:13.271812Z</value>
          <uncertainty>0.0001</uncertainty>
        </time>
        <waveformID networkCode="FR" stationCode="CLAF"></waveformID>
        <methodID>smi:local/auto</methodID>
        <phaseHint>P</phaseHint>
      </pick>
      <pick publicID="smi:local/92351cc0-6e3d-4b9c-8ca9-b32a9e404510">
        <time>
          <value>2017-10-10T06:45:19.674876Z</value>
          <uncertainty>0.0001</uncertainty>
        </time>
        <waveformID networkCode="FR" stationCode="COLF"></waveformID>
        <methodID>smi:local/auto</methodID>
        <phaseHint>P</phaseHint>
      </pick>
      <pick publicID="smi:local/4a31c88c-c0cd-4a68-ae86-2e38e8d3c262">
        <time>
          <value>2017-10-10T06:45:15.303911Z</value>
          <uncertainty>0.0001</uncertainty>
        </time>
        <waveformID networkCode="FR" stationCode="LAJAS"></waveformID>
        <methodID>smi:local/auto</methodID>
        <phaseHint>P</phaseHint>
      </pick>
      <pick publicID="smi:local/1cfc16ca-b6ce-4396-bf27-4ec556aff972">
        <time>
          <value>2017-10-10T06:45:17.838151Z</value>
          <uncertainty>0.0001</uncertainty>
        </time>
        <waveformID networkCode="FR" stationCode="LBL"></waveformID>
        <methodID>smi:local/auto</methodID>
        <phaseHint>P</phaseHint>
      </pick>
      <pick publicID="smi:local/8824dde4-7169-4434-97ff-37991f3f8bfa">
        <time>
          <value>2017-10-10T06:45:20.362651Z</value>
          <uncertainty>0.0001</uncertainty>
        </time>
        <waveformID networkCode="FR" stationCode="PLDF"></waveformID>
        <methodID>smi:local/auto</methodID>
        <phaseHint>P</phaseHint>
      </pick>
      <pick publicID="smi:local/da92203d-44ab-4f76-91eb-086faf4286bb">
        <time>
          <value>2017-10-10T06:46:05.727120Z</value>
          <uncertainty>0.0001</uncertainty>
        </time>
        <waveformID networkCode="GE" stationCode="MORC"></waveformID>
        <methodID>smi:local/auto</methodID>
        <phaseHint>Pdiff</phaseHint>
      </pick>
      <pick publicID="smi:local/a8979cd4-c08d-49bb-ba6f-56203b4a7379">
        <time>
          <value>2017-10-10T06:46:07.499198Z</value>
          <uncertainty>0.0001</uncertainty>
        </time>
        <waveformID networkCode="HU" stationCode="BUD"></waveformID>
        <methodID>smi:local/auto</methodID>
        <phaseHint>Pdiff</phaseHint>
      </pick>
      <pick publicID="smi:local/af31f0f8-d289-4f52-873e-dd3645f81e5a">
        <time>
          <value>2017-10-10T06:46:05.153470Z</value>
          <uncertainty>0.0001</uncertainty>
        </time>
        <waveformID networkCode="HU" stationCode="CSKK"></waveformID>
        <methodID>smi:local/auto</methodID>
        <phaseHint>Pdiff</phaseHint>
      </pick>
      <pick publicID="smi:local/322d57fa-5666-460d-89d2-43e843767e84">
        <time>
          <value>2017-10-10T06:46:08.018830Z</value>
          <uncertainty>0.0001</uncertainty>
        </time>
        <waveformID networkCode="SK" stationCode="VYHS"></waveformID>
        <methodID>smi:local/auto</methodID>
        <phaseHint>Pdiff</phaseHint>
      </pick>
      <pick publicID="smi:local/b0e7d234-e58d-4edb-bfd9-bd7b9d667565">
        <time>
          <value>2017-10-10T06:46:03.776336Z</value>
          <uncertainty>0.0001</uncertainty>
        </time>
        <waveformID networkCode="Z3" stationCode="A089A"></waveformID>
        <methodID>smi:local/auto</methodID>
        <phaseHint>Pdiff</phaseHint>
      </pick>
      <pick publicID="smi:local/1467a862-e4dc-4329-9244-6ca73b489c63">
        <time>
          <value>2017-10-10T06:46:06.079453Z</value>
          <uncertainty>0.0001</uncertainty>
        </time>
        <waveformID networkCode="Z3" stationCode="A090A"></waveformID>
        <methodID>smi:local/auto</methodID>
        <phaseHint>Pdiff</phaseHint>
      </pick>
      <pick publicID="smi:local/a0215eaa-2f1f-431a-a1d2-e64daae58de7">
        <time>
          <value>2017-10-10T06:45:27.228718Z</value>
          <uncertainty>0.0001</uncertainty>
        </time>
        <waveformID networkCode="Z3" stationCode="A163A"></waveformID>
        <methodID>smi:local/auto</methodID>
        <phaseHint>P</phaseHint>
      </pick>
      <pick publicID="smi:local/cf8afa90-6a8f-46ac-bf50-9b7a81019f9a">
        <time>
          <value>2017-10-10T06:45:21.813461Z</value>
          <uncertainty>0.0001</uncertainty>
        </time>
        <waveformID networkCode="Z3" stationCode="A165A"></waveformID>
        <methodID>smi:local/auto</methodID>
        <phaseHint>P</phaseHint>
      </pick>
      <pick publicID="smi:local/624e90be-b55a-4737-8279-986b6b22d612">
        <time>
          <value>2017-10-10T06:45:20.642785Z</value>
          <uncertainty>0.0001</uncertainty>
        </time>
        <waveformID networkCode="Z3" stationCode="A170A"></waveformID>
        <methodID>smi:local/auto</methodID>
        <phaseHint>P</phaseHint>
      </pick>
      <pick publicID="smi:local/b6be4a03-112d-41aa-bf88-e6bdd95345ec">
        <time>
          <value>2017-10-10T06:45:17.496730Z</value>
          <uncertainty>0.0001</uncertainty>
        </time>
        <waveformID networkCode="Z3" stationCode="A179A"></waveformID>
        <methodID>smi:local/auto</methodID>
        <phaseHint>P</phaseHint>
      </pick>
      <pick publicID="smi:local/30086fc4-3af2-44cc-96a0-aaedc6750226">
        <time>
          <value>2017-10-10T06:45:16.021393Z</value>
          <uncertainty>0.0001</uncertainty>
        </time>
        <waveformID networkCode="Z3" stationCode="A182A"></waveformID>
        <methodID>smi:local/auto</methodID>
        <phaseHint>P</phaseHint>
      </pick>
      <pick publicID="smi:local/3126b3cb-07a7-4293-aeed-1e28c67a411c">
        <time>
          <value>2017-10-10T06:45:18.643796Z</value>
          <uncertainty>0.0001</uncertainty>
        </time>
        <waveformID networkCode="Z3" stationCode="A183A"></waveformID>
        <methodID>smi:local/auto</methodID>
        <phaseHint>P</phaseHint>
      </pick>
      <pick publicID="smi:local/537f293c-aca2-4a57-b595-cb7207bbde69">
        <time>
          <value>2017-10-10T06:45:17.147077Z</value>
          <uncertainty>0.0001</uncertainty>
        </time>
        <waveformID networkCode="Z3" stationCode="A187A"></waveformID>
        <methodID>smi:local/auto</methodID>
        <phaseHint>P</phaseHint>
      </pick>
      <pick publicID="smi:local/8d090425-8fb6-4231-b8e8-e53d4e0b5d4a">
        <time>
          <value>2017-10-10T06:45:18.674556Z</value>
          <uncertainty>0.0001</uncertainty>
        </time>
        <waveformID networkCode="Z3" stationCode="A188A"></waveformID>
        <methodID>smi:local/auto</methodID>
        <phaseHint>P</phaseHint>
      </pick>
      <pick publicID="smi:local/e9a3649b-7b60-4d96-a694-f2bf4ab4156a">
        <time>
          <value>2017-10-10T06:45:14.938772Z</value>
          <uncertainty>0.0001</uncertainty>
        </time>
        <waveformID networkCode="Z3" stationCode="A190A"></waveformID>
        <methodID>smi:local/auto</methodID>
        <phaseHint>P</phaseHint>
      </pick>
      <pick publicID="smi:local/196122a5-53f1-4198-9314-b97f2565cf8e">
        <time>
          <value>2017-10-10T06:45:16.936922Z</value>
          <uncertainty>0.0001</uncertainty>
        </time>
        <waveformID networkCode="Z3" stationCode="A191A"></waveformID>
        <methodID>smi:local/auto</methodID>
        <phaseHint>P</phaseHint>
      </pick>
      <pick publicID="smi:local/2ad865b3-cccb-44b3-91ae-573029990751">
        <time>
          <value>2017-10-10T06:45:13.797649Z</value>
          <uncertainty>0.0001</uncertainty>
        </time>
        <waveformID networkCode="Z3" stationCode="A195A"></waveformID>
        <methodID>smi:local/auto</methodID>
        <phaseHint>P</phaseHint>
      </pick>
      <pick publicID="smi:local/a49a49a4-0369-456d-bc13-5dc2cde1fd11">
        <time>
          <value>2017-10-10T06:45:13.303352Z</value>
          <uncertainty>0.0001</uncertainty>
        </time>
        <waveformID networkCode="Z3" stationCode="A198A"></waveformID>
        <methodID>smi:local/auto</methodID>
        <phaseHint>P</phaseHint>
      </pick>
      <pick publicID="smi:local/5bdba9ae-9ad7-4146-ac43-344e090546d8">
        <time>
          <value>2017-10-10T06:45:16.282202Z</value>
          <uncertainty>0.0001</uncertainty>
        </time>
        <waveformID networkCode="Z3" stationCode="A199A"></waveformID>
        <methodID>smi:local/auto</methodID>
        <phaseHint>P</phaseHint>
      </pick>
      <pick publicID="smi:local/1b67ab73-f6b0-493d-9f6f-eee139a66460">
        <time>
          <value>2017-10-10T06:45:17.708252Z</value>
          <uncertainty>0.0001</uncertainty>
        </time>
        <waveformID networkCode="Z3" stationCode="A200A"></waveformID>
        <methodID>smi:local/auto</methodID>
        <phaseHint>P</phaseHint>
      </pick>
      <pick publicID="smi:local/99bd0477-9ce9-40d9-85e8-8c3c8dba9127">
        <time>
          <value>2017-10-10T06:45:19.191413Z</value>
          <uncertainty>0.0001</uncertainty>
        </time>
        <waveformID networkCode="Z3" stationCode="A201A"></waveformID>
        <methodID>smi:local/auto</methodID>
        <phaseHint>P</phaseHint>
      </pick>
      <pick publicID="smi:local/58d26d78-cbd7-4184-bb36-7a4e2039250c">
        <time>
          <value>2017-10-10T06:45:14.510617Z</value>
          <uncertainty>0.0001</uncertainty>
        </time>
        <waveformID networkCode="Z3" stationCode="A202A"></waveformID>
        <methodID>smi:local/auto</methodID>
        <phaseHint>P</phaseHint>
      </pick>
      <pick publicID="smi:local/3637d974-12c5-433b-8d6f-980e512277c0">
        <time>
          <value>2017-10-10T06:46:04.250486Z</value>
          <uncertainty>0.0001</uncertainty>
        </time>
        <waveformID networkCode="Z3" stationCode="A266A"></waveformID>
        <methodID>smi:local/auto</methodID>
        <phaseHint>Pdiff</phaseHint>
      </pick>
      <pick publicID="smi:local/4aaca611-e3c0-470d-8250-c1bd4d1c4adc">
        <time>
          <value>2017-10-10T06:46:05.351032Z</value>
          <uncertainty>0.0001</uncertainty>
        </time>
        <waveformID networkCode="Z3" stationCode="A267A"></waveformID>
        <methodID>smi:local/auto</methodID>
        <phaseHint>Pdiff</phaseHint>
      </pick>
      <pick publicID="smi:local/14c68b9a-de2f-4aeb-9528-95813c68abad">
        <time>
          <value>2017-10-10T06:46:05.805893Z</value>
          <uncertainty>0.0001</uncertainty>
        </time>
        <waveformID networkCode="Z3" stationCode="A269A"></waveformID>
        <methodID>smi:local/auto</methodID>
        <phaseHint>Pdiff</phaseHint>
      </pick>
      <pick publicID="smi:local/6993b29f-a750-48b4-b549-a53c51303d65">
        <time>
          <value>2017-10-10T06:46:07.871828Z</value>
          <uncertainty>0.0001</uncertainty>
        </time>
        <waveformID networkCode="Z3" stationCode="A270A"></waveformID>
        <methodID>smi:local/auto</methodID>
        <phaseHint>Pdiff</phaseHint>
      </pick>
      <pick publicID="smi:local/13ebde65-5cd1-4691-a597-29d2f44b3810">
        <time>
          <value>2017-10-10T06:46:06.609147Z</value>
          <uncertainty>0.0001</uncertainty>
        </time>
        <waveformID networkCode="Z3" stationCode="A271A"></waveformID>
        <methodID>smi:local/auto</methodID>
        <phaseHint>Pdiff</phaseHint>
      </pick>
      <pick publicID="smi:local/4947c226-b364-487a-90af-b80f18cf5b70">
        <time>
          <value>2017-10-10T06:46:06.561506Z</value>
          <uncertainty>0.0001</uncertainty>
        </time>
        <waveformID networkCode="Z3" stationCode="A272A"></waveformID>
        <methodID>smi:local/auto</methodID>
        <phaseHint>Pdiff</phaseHint>
      </pick>
      <pick publicID="smi:local/eb28cc3f-8556-4bcb-9820-0517ccafe75b">
        <time>
          <value>2017-10-10T06:46:06.956651Z</value>
          <uncertainty>0.0001</uncertainty>
        </time>
        <waveformID networkCode="Z3" stationCode="A331A"></waveformID>
        <methodID>smi:local/auto</methodID>
        <phaseHint>Pdiff</phaseHint>
      </pick>
      <pick publicID="smi:local/d3516259-d681-40a3-bd60-7b6db5cb4955">
        <time>
          <value>2017-10-10T06:46:07.282176Z</value>
          <uncertainty>0.0001</uncertainty>
        </time>
        <waveformID networkCode="Z3" stationCode="A332A"></waveformID>
        <methodID>smi:local/auto</methodID>
        <phaseHint>Pdiff</phaseHint>
      </pick>
      <pick publicID="smi:local/aeb216a7-76fc-4ed8-8ec9-eeab21267b1c">
        <time>
          <value>2017-10-10T06:46:04.818796Z</value>
          <uncertainty>0.0001</uncertainty>
        </time>
        <waveformID networkCode="Z3" stationCode="A334A"></waveformID>
        <methodID>smi:local/auto</methodID>
        <phaseHint>Pdiff</phaseHint>
      </pick>
      <pick publicID="smi:local/cd6e77fd-e21b-4613-91f8-76f2687a1b86">
        <time>
          <value>2017-10-10T06:46:06.536895Z</value>
          <uncertainty>0.0001</uncertainty>
        </time>
        <waveformID networkCode="Z3" stationCode="A335A"></waveformID>
        <methodID>smi:local/auto</methodID>
        <phaseHint>Pdiff</phaseHint>
      </pick>
      <pick publicID="smi:local/039da272-7c88-4e56-a548-32bc3d076f0c">
        <time>
          <value>2017-10-10T06:46:08.217152Z</value>
          <uncertainty>0.0001</uncertainty>
        </time>
        <waveformID networkCode="Z3" stationCode="A336A"></waveformID>
        <methodID>smi:local/auto</methodID>
        <phaseHint>Pdiff</phaseHint>
      </pick>
      <pick publicID="smi:local/2025fe64-4ef8-4773-9a8d-402db3483c25">
        <time>
          <value>2017-10-10T06:46:04.752512Z</value>
          <uncertainty>0.0001</uncertainty>
        </time>
        <waveformID networkCode="Z3" stationCode="A337A"></waveformID>
        <methodID>smi:local/auto</methodID>
        <phaseHint>Pdiff</phaseHint>
      </pick>
      <pick publicID="smi:local/94af8cf3-9976-492b-9e3d-054c021a96e9">
        <time>
          <value>2017-10-10T06:46:06.123529Z</value>
          <uncertainty>0.0001</uncertainty>
        </time>
        <waveformID networkCode="Z3" stationCode="A338A"></waveformID>
        <methodID>smi:local/auto</methodID>
        <phaseHint>Pdiff</phaseHint>
      </pick>
      <pick publicID="smi:local/f36999eb-5f6d-4974-b986-2e447134a89e">
        <time>
          <value>2017-10-10T06:45:50.006283Z</value>
          <uncertainty>0.0001</uncertainty>
        </time>
        <waveformID networkCode="Z3" stationCode="A356A"></waveformID>
        <methodID>smi:local/auto</methodID>
        <phaseHint>P</phaseHint>
      </pick>
      <pick publicID="smi:local/b344d32e-ef10-4ff4-80b7-14b0a324f3e3">
        <time>
          <value>2017-10-10T06:45:27.866519Z</value>
          <uncertainty>0.0001</uncertainty>
        </time>
        <waveformID networkCode="1N" stationCode="AIGE"></waveformID>
        <methodID>smi:local/auto</methodID>
        <phaseHint>P</phaseHint>
      </pick>
      <pick publicID="smi:local/bff6c07d-100a-4646-8b9d-f5d044136d12">
        <time>
          <value>2017-10-10T06:45:27.861032Z</value>
          <uncertainty>0.0001</uncertainty>
        </time>
        <waveformID networkCode="1N" stationCode="AIGH"></waveformID>
        <methodID>smi:local/auto</methodID>
        <phaseHint>P</phaseHint>
      </pick>
      <pick publicID="smi:local/89e2b4f3-08e9-49a8-bf8d-3f01ad646032">
        <time>
          <value>2017-10-10T06:45:46.112922Z</value>
          <uncertainty>0.0001</uncertainty>
        </time>
        <waveformID networkCode="BW" stationCode="ALFT"></waveformID>
        <methodID>smi:local/auto</methodID>
        <phaseHint>P</phaseHint>
      </pick>
      <pick publicID="smi:local/e9f9cb2d-ebba-46fc-b287-16a59e766170">
        <time>
          <value>2017-10-10T06:45:50.373966Z</value>
          <uncertainty>0.0001</uncertainty>
        </time>
        <waveformID networkCode="BW" stationCode="BDGS"></waveformID>
        <methodID>smi:local/auto</methodID>
        <phaseHint>P</phaseHint>
      </pick>
      <pick publicID="smi:local/6fa1a6b4-d649-4dc6-9a6e-53c05f64c849">
        <time>
          <value>2017-10-10T06:45:45.609862Z</value>
          <uncertainty>0.0001</uncertainty>
        </time>
        <waveformID networkCode="BW" stationCode="BE1"></waveformID>
        <methodID>smi:local/auto</methodID>
        <phaseHint>P</phaseHint>
      </pick>
      <pick publicID="smi:local/e3731ccb-df27-45d6-a931-ee0b5ca8613a">
        <time>
          <value>2017-10-10T06:45:46.036130Z</value>
          <uncertainty>0.0001</uncertainty>
        </time>
