<?xml version='1.0' encoding='utf-8'?>
<q:quakeml xmlns="http://quakeml.org/xmlns/bed/1.2" xmlns:q="http://quakeml.org/xmlns/quakeml/1.2">
  <eventParameters publicID="smi:local/41d0b7d6-2ffc-48e0-abc9-ef87c6a5cb5c">
    <event publicID="smi:local/20171010_063224.a">
      <origin publicID="smi:local/ndk/C201710100632A/origin#cmtorigin">
        <time>
          <value>2017-10-10T06:32:24.800000Z</value>
        </time>
        <latitude>
          <value>-18.58</value>
        </latitude>
        <longitude>
          <value>-69.86</value>
        </longitude>
        <depth>
          <value>106.4</value>
        </depth>
      </origin>
      <magnitude publicID="smi:local/3c05a658-79d9-4f04-b3ee-de41177be8e5">
        <mag>
          <value>6.27</value>
        </mag>
        <type>Mwc</type>
        <originID>smi:local/ndk/C201710100632A/origin#cmtorigin</originID>
      </magnitude>
      <pick publicID="smi:local/035725e2-e799-4417-b9c1-eb345ad21ee1">
        <time>
          <value>2017-10-10T06:45:19.037578Z</value>
          <uncertainty>0.07939399470574829</uncertainty>
          <lowerUncertainty>0.07939399470574829</lowerUncertainty>
          <upperUncertainty>0.07939399470574829</upperUncertainty>
        </time>
        <waveformID networkCode="FR" stationCode="AGO" channelCode="HHZ"></waveformID>
        <filterID>smi:local/b0766b7a-0bbd-43ae-98e7-f354b87490d3</filterID>
        <methodID>smi:local/auto</methodID>
        <phaseHint>P</phaseHint>
        <polarity>positive</polarity>
      </pick>
      <pick publicID="smi:local/05eaab59-73c3-4f9c-ade2-fce57652a06b">
        <time>
          <value>2017-10-10T06:45:26.619147Z</value>
          <uncertainty>0.15208197164134302</uncertainty>
          <lowerUncertainty>0.15208197164134302</lowerUncertainty>
          <upperUncertainty>0.15208197164134302</upperUncertainty>
        </time>
        <waveformID networkCode="Z3" stationCode="A167A" channelCode="HHZ"></waveformID>
        <filterID>smi:local/f9cc9d15-325a-4c5b-aafd-c5393276a71b</filterID>
        <methodID>smi:local/auto</methodID>
        <phaseHint>P</phaseHint>
        <polarity>positive</polarity>
      </pick>
      <pick publicID="smi:local/06e6ed09-14d3-4923-9c40-82fa113a00e9">
        <time>
          <value>2017-10-10T06:45:59.442834Z</value>
          <uncertainty>0.15823711903486634</uncertainty>
          <lowerUncertainty>0.15823711903486634</lowerUncertainty>
          <upperUncertainty>0.15823711903486634</upperUncertainty>
        </time>
        <waveformID networkCode="OE" stationCode="CSNA" channelCode="HHZ"></waveformID>
        <filterID>smi:local/d140635b-671b-4a4d-b30f-a433ddf36192</filterID>
        <methodID>smi:local/auto</methodID>
        <phaseHint>P</phaseHint>
        <polarity>positive</polarity>
      </pick>
      <pick publicID="smi:local/7deb0a96-cecd-4d21-bf72-65de852ad287">
        <time>
          <value>2017-10-10T06:45:41.331450Z</value>
          <uncertainty>0.1422224994764966</uncertainty>
          <lowerUncertainty>0.1422224994764966</lowerUncertainty>
          <upperUncertainty>0.1422224994764966</upperUncertainty>
        </time>
        <waveformID networkCode="IV" stationCode="MA9" channelCode="HHZ"></waveformID>
        <filterID>smi:local/6969dc27-977e-4182-a256-dd49370ab96c</filterID>
        <methodID>smi:local/auto</methodID>
        <phaseHint>P</phaseHint>
        <polarity>positive</polarity>
      </pick>
      <pick publicID="smi:local/29e61efa-639e-4084-a5d4-ca7d9766ed16">
        <time>
          <value>2017-10-10T06:45:51.322298Z</value>
          <uncertainty>0.0868680356845715</uncertainty>
          <lowerUncertainty>0.0868680356845715</lowerUncertainty>
          <upperUncertainty>0.0868680356845715</upperUncertainty>
        </time>
        <waveformID networkCode="Z3" stationCode="A355A" channelCode="HHZ"></waveformID>
        <filterID>smi:local/c303805b-4537-4057-bfe5-e49fbb6bd4bd</filterID>
        <methodID>smi:local/auto</methodID>
        <phaseHint>P</phaseHint>
        <polarity>positive</polarity>
      </pick>
      <pick publicID="smi:local/d7fbd353-02ad-48bf-acc7-28da8b6120e8">
        <time>
          <value>2017-10-10T06:45:35.137529Z</value>
          <uncertainty>0.09995273177534711</uncertainty>
          <lowerUncertainty>0.09995273177534711</lowerUncertainty>
          <upperUncertainty>0.09995273177534711</upperUncertainty>
        </time>
        <waveformID networkCode="FR" stationCode="WLS" channelCode="HHZ"></waveformID>
        <filterID>smi:local/61a52d2e-b5cd-4442-b1aa-ab2b7d27815b</filterID>
        <methodID>smi:local/auto</methodID>
        <phaseHint>P</phaseHint>
        <polarity>positive</polarity>
      </pick>
      <pick publicID="smi:local/a7874cc4-5774-44e4-a5d2-ded3fb69adaf">
        <time>
          <value>2017-10-10T06:45:37.494404Z</value>
          <uncertainty>0.5058389744057538</uncertainty>
          <lowerUncertainty>0.5058389744057538</lowerUncertainty>
          <upperUncertainty>0.5058389744057538</upperUncertainty>
        </time>
        <waveformID networkCode="GU" stationCode="POPM" channelCode="HHZ"></waveformID>
        <filterID>smi:local/66148875-caed-4de1-b187-023de1b56347</filterID>
        <methodID>smi:local/auto</methodID>
        <phaseHint>P</phaseHint>
        <polarity>positive</polarity>
      </pick>
      <pick publicID="smi:local/3b53079e-7688-4fd6-bf6c-2c384248f431">
        <time>
          <value>2017-10-10T06:46:03.318816Z</value>
          <uncertainty>0.1882246406213013</uncertainty>
          <lowerUncertainty>0.1882246406213013</lowerUncertainty>
          <upperUncertainty>0.1882246406213013</upperUncertainty>
        </time>
        <waveformID networkCode="HU" stationCode="EGYH" channelCode="HHZ"></waveformID>
        <filterID>smi:local/a0175c5e-d7a9-4b4d-a1d8-c19dd27b79d3</filterID>
        <methodID>smi:local/auto</methodID>
        <phaseHint>P</phaseHint>
        <polarity>positive</polarity>
      </pick>
      <pick publicID="smi:local/a0ad2696-db0f-48c7-b3a9-eb5fc6fd2398">
        <time>
          <value>2017-10-10T06:45:39.000959Z</value>
          <uncertainty>0.190794609917795</uncertainty>
          <lowerUncertainty>0.190794609917795</lowerUncertainty>
          <upperUncertainty>0.190794609917795</upperUncertainty>
        </time>
        <waveformID networkCode="IV" stationCode="CSNT" channelCode="HHZ"></waveformID>
        <filterID>smi:local/58d06ac5-bb76-4ceb-bca2-c3a3a3a86e3e</filterID>
        <methodID>smi:local/auto</methodID>
        <phaseHint>P</phaseHint>
        <polarity>positive</polarity>
      </pick>
      <pick publicID="smi:local/d61b8da6-bb22-409e-ba9b-5a51156da53e">
        <time>
          <value>2017-10-10T06:45:54.312314Z</value>
          <uncertainty>0.1792420279101976</uncertainty>
          <lowerUncertainty>0.1792420279101976</lowerUncertainty>
          <upperUncertainty>0.1792420279101976</upperUncertainty>
        </time>
        <waveformID networkCode="Z3" stationCode="A025A" channelCode="HHZ"></waveformID>
        <filterID>smi:local/180e8f9b-30b7-4070-ad32-17e4b12984ce</filterID>
        <methodID>smi:local/auto</methodID>
        <phaseHint>P</phaseHint>
        <polarity>positive</polarity>
      </pick>
      <pick publicID="smi:local/8d1ebcfc-7605-47a7-a782-529e763801be">
        <time>
          <value>2017-10-10T06:45:40.610474Z</value>
          <uncertainty>0.25270947555601186</uncertainty>
          <lowerUncertainty>0.25270947555601186</lowerUncertainty>
          <upperUncertainty>0.25270947555601186</upperUncertainty>
        </time>
        <waveformID networkCode="IV" stationCode="CAFI" channelCode="HHZ"></waveformID>
        <filterID>smi:local/5faa02d8-4fce-44f8-a193-5dc535624988</filterID>
        <methodID>smi:local/auto</methodID>
        <phaseHint>P</phaseHint>
        <polarity>positive</polarity>
      </pick>
      <pick publicID="smi:local/9b8cfe64-6f77-4f57-8d43-49eb2724acc1">
        <time>
          <value>2017-10-10T06:45:58.298218Z</value>
          <uncertainty>0.18005904716913473</uncertainty>
          <lowerUncertainty>0.18005904716913473</lowerUncertainty>
          <upperUncertainty>0.18005904716913473</upperUncertainty>
        </time>
        <waveformID networkCode="Z3" stationCode="A012A" channelCode="HHZ"></waveformID>
        <filterID>smi:local/2122a729-5052-4289-b4cd-d089b2389087</filterID>
        <methodID>smi:local/auto</methodID>
        <phaseHint>P</phaseHint>
        <polarity>positive</polarity>
      </pick>
      <pick publicID="smi:local/364b6228-299c-4387-8a43-638b078ed8dc">
        <time>
          <value>2017-10-10T06:45:34.366159Z</value>
          <uncertainty>0.14852236102479713</uncertainty>
          <lowerUncertainty>0.14852236102479713</lowerUncertainty>
          <upperUncertainty>0.14852236102479713</upperUncertainty>
        </time>
        <waveformID networkCode="GE" stationCode="WLF" channelCode="HHZ"></waveformID>
        <filterID>smi:local/513c1fa6-699c-4616-9d18-702db71a4c6d</filterID>
        <methodID>smi:local/auto</methodID>
        <phaseHint>P</phaseHint>
        <polarity>positive</polarity>
      </pick>
      <pick publicID="smi:local/9cc70e92-51d8-4f5d-8397-72cbb99ade4a">
        <time>
          <value>2017-10-10T06:45:42.145139Z</value>
          <uncertainty>0.205311238497188</uncertainty>
          <lowerUncertainty>0.205311238497188</lowerUncertainty>
          <upperUncertainty>0.205311238497188</upperUncertainty>
        </time>
        <waveformID networkCode="Z3" stationCode="A037A" channelCode="HHZ"></waveformID>
        <filterID>smi:local/8a20433a-f3a2-4db8-98d2-9eb421dd3e3f</filterID>
        <methodID>smi:local/auto</methodID>
        <phaseHint>P</phaseHint>
        <polarity>positive</polarity>
      </pick>
      <pick publicID="smi:local/d03c9745-dedf-4115-845a-86e959118752">
        <time>
          <value>2017-10-10T06:45:59.402046Z</value>
          <uncertainty>0.11923802701325638</uncertainty>
          <lowerUncertainty>0.11923802701325638</lowerUncertainty>
          <upperUncertainty>0.11923802701325638</upperUncertainty>
        </time>
        <waveformID networkCode="Z3" stationCode="A007A" channelCode="HHZ"></waveformID>
        <filterID>smi:local/e47f3965-b1dc-4c57-bf98-0c6bb93485a8</filterID>
        <methodID>smi:local/auto</methodID>
        <phaseHint>P</phaseHint>
        <polarity>positive</polarity>
      </pick>
      <pick publicID="smi:local/a3bec4c6-5e98-4f59-b768-b5c848e3047f">
        <time>
          <value>2017-10-10T06:45:43.873547Z</value>
          <uncertainty>0.12461573217757607</uncertainty>
          <lowerUncertainty>0.12461573217757607</lowerUncertainty>
          <upperUncertainty>0.12461573217757607</upperUncertainty>
        </time>
        <waveformID networkCode="OE" stationCode="RETA" channelCode="HHZ"></waveformID>
        <filterID>smi:local/1f9e0ce5-1db0-4b25-a4fd-77868394d19a</filterID>
        <methodID>smi:local/auto</methodID>
        <phaseHint>P</phaseHint>
        <polarity>positive</polarity>
      </pick>
      <pick publicID="smi:local/6ad9d875-828f-49e2-8fe8-2e330bea4112">
        <time>
          <value>2017-10-10T06:45:25.500361Z</value>
          <uncertainty>0.28557912336526575</uncertainty>
          <lowerUncertainty>0.28557912336526575</lowerUncertainty>
          <upperUncertainty>0.28557912336526575</upperUncertainty>
        </time>
        <waveformID networkCode="FR" stationCode="OGDI" channelCode="HHZ"></waveformID>
        <filterID>smi:local/294df35d-c687-4ee7-aa18-69377f14fab2</filterID>
        <methodID>smi:local/auto</methodID>
        <phaseHint>P</phaseHint>
        <polarity>positive</polarity>
      </pick>
      <pick publicID="smi:local/c2d75b09-75d7-43ea-978b-c18fcebf6917">
        <time>
          <value>2017-10-10T06:45:49.971199Z</value>
          <uncertainty>0.1269395912612969</uncertainty>
          <lowerUncertainty>0.1269395912612969</lowerUncertainty>
          <upperUncertainty>0.1269395912612969</upperUncertainty>
        </time>
        <waveformID networkCode="ZS" stationCode="D035" channelCode="HHZ"></waveformID>
        <filterID>smi:local/b7609fa8-fa7e-4841-8e4c-64401c67b8d5</filterID>
        <methodID>smi:local/auto</methodID>
        <phaseHint>P</phaseHint>
        <polarity>positive</polarity>
      </pick>
      <pick publicID="smi:local/4c186d04-c639-475d-aac4-0f39dbab7367">
        <time>
          <value>2017-10-10T06:45:31.633905Z</value>
          <uncertainty>0.18822848398022618</uncertainty>
          <lowerUncertainty>0.18822848398022618</lowerUncertainty>
          <upperUncertainty>0.18822848398022618</upperUncertainty>
        </time>
        <waveformID networkCode="IV" stationCode="MONC" channelCode="HHZ"></waveformID>
        <filterID>smi:local/bf412b88-58ba-48e9-8571-6cb6965b70cb</filterID>
        <methodID>smi:local/auto</methodID>
        <phaseHint>P</phaseHint>
        <polarity>positive</polarity>
      </pick>
      <pick publicID="smi:local/2921814c-b084-45e6-89e5-0cfcac8b362f">
        <time>
          <value>2017-10-10T06:45:39.630592Z</value>
          <uncertainty>0.32855897335600953</uncertainty>
          <lowerUncertainty>0.32855897335600953</lowerUncertainty>
          <upperUncertainty>0.32855897335600953</upperUncertainty>
        </time>
        <waveformID networkCode="ZS" stationCode="D039" channelCode="HHZ"></waveformID>
        <filterID>smi:local/c3dfa698-a941-4778-9fbe-09cec641c9f1</filterID>
        <methodID>smi:local/auto</methodID>
        <phaseHint>P</phaseHint>
        <polarity>positive</polarity>
      </pick>
      <pick publicID="smi:local/1f90bd52-9796-4092-ad1e-155119671d09">
        <time>
          <value>2017-10-10T06:45:51.837124Z</value>
          <uncertainty>0.18569968545611454</uncertainty>
          <lowerUncertainty>0.18569968545611454</lowerUncertainty>
          <upperUncertainty>0.18569968545611454</upperUncertainty>
        </time>
        <waveformID networkCode="ZS" stationCode="D038" channelCode="HHZ"></waveformID>
        <filterID>smi:local/dd6cd7ee-3329-411f-bc28-e7f5ed8163b1</filterID>
        <methodID>smi:local/auto</methodID>
        <phaseHint>P</phaseHint>
        <polarity>positive</polarity>
      </pick>
      <pick publicID="smi:local/4e40b638-d823-49f5-81db-129702a4eccc">
        <time>
          <value>2017-10-10T06:45:51.743248Z</value>
          <uncertainty>0.08408061821475238</uncertainty>
          <lowerUncertainty>0.08408061821475238</lowerUncertainty>
          <upperUncertainty>0.08408061821475238</upperUncertainty>
        </time>
        <waveformID networkCode="BW" stationCode="MANZ" channelCode="HHZ"></waveformID>
        <filterID>smi:local/457e9e40-1116-4fba-a3c1-db39a33d20dc</filterID>
        <methodID>smi:local/auto</methodID>
        <phaseHint>P</phaseHint>
        <polarity>positive</polarity>
      </pick>
      <pick publicID="smi:local/d24ab746-5bb9-453d-bc8f-ebe2a9bd6ea8">
        <time>
          <value>2017-10-10T06:45:35.455149Z</value>
          <uncertainty>0.172169461866213</uncertainty>
          <lowerUncertainty>0.172169461866213</lowerUncertainty>
          <upperUncertainty>0.172169461866213</upperUncertainty>
        </time>
        <waveformID networkCode="Z3" stationCode="A060B" channelCode="HHZ"></waveformID>
        <filterID>smi:local/94a74b9d-c0e6-4458-bfe8-465c6279e0e5</filterID>
        <methodID>smi:local/auto</methodID>
        <phaseHint>P</phaseHint>
        <polarity>positive</polarity>
      </pick>
      <pick publicID="smi:local/d5569999-cf84-45ba-8248-3d942d2dff1b">
        <time>
          <value>2017-10-10T06:45:51.863208Z</value>
          <uncertainty>0.13224186154353523</uncertainty>
          <lowerUncertainty>0.13224186154353523</lowerUncertainty>
          <upperUncertainty>0.13224186154353523</upperUncertainty>
        </time>
        <waveformID networkCode="ZS" stationCode="D139" channelCode="HHZ"></waveformID>
        <filterID>smi:local/a4d75fb3-810c-4c60-b0ee-4c72d719f2e9</filterID>
        <methodID>smi:local/auto</methodID>
        <phaseHint>P</phaseHint>
        <polarity>positive</polarity>
      </pick>
      <pick publicID="smi:local/c8a84aaf-1c97-400b-a4e4-6a90b75217c1">
        <time>
          <value>2017-10-10T06:45:48.972989Z</value>
          <uncertainty>0.124909864309129</uncertainty>
          <lowerUncertainty>0.124909864309129</lowerUncertainty>
          <upperUncertainty>0.124909864309129</upperUncertainty>
        </time>
        <waveformID networkCode="OX" stationCode="ZOU2" channelCode="HHZ"></waveformID>
        <filterID>smi:local/3660a736-3571-46e4-9a6d-aaf5d671e0b8</filterID>
        <methodID>smi:local/auto</methodID>
        <phaseHint>P</phaseHint>
        <polarity>positive</polarity>
      </pick>
      <pick publicID="smi:local/f5bdeb3e-3ac4-4851-9d0f-50a2f104e9eb">
        <time>
          <value>2017-10-10T06:45:32.965399Z</value>
          <uncertainty>0.3049620954207137</uncertainty>
          <lowerUncertainty>0.3049620954207137</lowerUncertainty>
          <upperUncertainty>0.3049620954207137</upperUncertainty>
        </time>
        <waveformID networkCode="Z3" stationCode="A209B" channelCode="HHZ"></waveformID>
        <filterID>smi:local/bf9aff02-805c-45ab-95bd-449d9396d851</filterID>
        <methodID>smi:local/auto</methodID>
        <phaseHint>P</phaseHint>
        <polarity>positive</polarity>
      </pick>
      <pick publicID="smi:local/f90a38c2-63ba-41c5-8c78-937963afacde">
        <time>
          <value>2017-10-10T06:45:45.903973Z</value>
          <uncertainty>0.12117222845156887</uncertainty>
          <lowerUncertainty>0.12117222845156887</lowerUncertainty>
          <upperUncertainty>0.12117222845156887</upperUncertainty>
        </time>
        <waveformID networkCode="ZS" stationCode="D130" channelCode="HHZ"></waveformID>
        <filterID>smi:local/200a0731-8ac2-441e-9197-5d9c01324cf8</filterID>
        <methodID>smi:local/auto</methodID>
        <phaseHint>P</phaseHint>
        <polarity>positive</polarity>
      </pick>
      <pick publicID="smi:local/aa82e5c5-4e06-4368-b6d8-02d4042a7bd8">
        <time>
          <value>2017-10-10T06:45:38.512375Z</value>
          <uncertainty>0.19003795673313684</uncertainty>
          <lowerUncertainty>0.19003795673313684</lowerUncertainty>
          <upperUncertainty>0.19003795673313684</upperUncertainty>
        </time>
        <waveformID networkCode="GU" stationCode="GSCL" channelCode="HHZ"></waveformID>
        <filterID>smi:local/96e5862a-9efb-490d-89dd-019cacb688b9</filterID>
        <methodID>smi:local/auto</methodID>
        <phaseHint>P</phaseHint>
        <polarity>positive</polarity>
      </pick>
      <pick publicID="smi:local/e4304332-8c4d-4202-aff6-7e146d48351d">
        <time>
          <value>2017-10-10T06:45:24.495416Z</value>
          <uncertainty>0.1347040956186992</uncertainty>
          <lowerUncertainty>0.1347040956186992</lowerUncertainty>
          <upperUncertainty>0.1347040956186992</upperUncertainty>
        </time>
        <waveformID networkCode="Z3" stationCode="A215A" channelCode="HHZ"></waveformID>
        <filterID>smi:local/358bc0b7-d88c-4465-9d2b-707f7cfc74c6</filterID>
        <methodID>smi:local/auto</methodID>
        <phaseHint>P</phaseHint>
        <polarity>positive</polarity>
      </pick>
      <pick publicID="smi:local/7f3bcb88-4cd7-478b-a0ad-cff882a50155">
        <time>
          <value>2017-10-10T06:45:50.170948Z</value>
          <uncertainty>0.10189533908548856</uncertainty>
          <lowerUncertainty>0.10189533908548856</lowerUncertainty>
          <upperUncertainty>0.10189533908548856</upperUncertainty>
        </time>
        <waveformID networkCode="ZS" stationCode="D136" channelCode="HHZ"></waveformID>
        <filterID>smi:local/6b6b27af-e461-454c-9b00-6bedf7da5b64</filterID>
        <methodID>smi:local/auto</methodID>
        <phaseHint>P</phaseHint>
