<?xml version='1.0' encoding='utf-8'?>
<q:quakeml xmlns="http://quakeml.org/xmlns/bed/1.2" xmlns:q="http://quakeml.org/xmlns/quakeml/1.2">
  <eventParameters publicID="smi:local/68cf5bd8-d3d4-405e-93ad-c47e56235f38">
    <event publicID="smi:local/20171010_063224.a">
      <origin publicID="smi:local/ndk/C201710100632A/origin#cmtorigin">
        <time>
          <value>2017-10-10T06:32:24.800000Z</value>
        </time>
        <latitude>
          <value>-18.58</value>
        </latitude>
        <longitude>
          <value>-69.86</value>
        </longitude>
        <depth>
          <value>106.4</value>
        </depth>
      </origin>
      <magnitude publicID="smi:local/0dd5913d-a611-4a43-879b-055b1abf9bfd">
        <mag>
          <value>6.27</value>
        </mag>
        <type>Mwc</type>
        <originID>smi:local/ndk/C201710100632A/origin#cmtorigin</originID>
      </magnitude>
      <pick publicID="smi:local/bfb131d5-bfbc-4a2b-9c0e-a1fc54c586b8">
        <time>
          <value>2017-10-10T06:41:34.000000Z</value>
          <lowerUncertainty>0.8</lowerUncertainty>
          <upperUncertainty>0.8</upperUncertainty>
        </time>
        <waveformID networkCode="1N" stationCode="AIGE" channelCode="HHZ"></waveformID>
        <filterID>smi:local/bd98e0d3-7e37-4a5e-9b81-9a6f0800d7f6</filterID>
        <methodID>smi:local/auto</methodID>
        <phaseHint>P</phaseHint>
        <polarity>undecidable</polarity>
      </pick>
      <pick publicID="smi:local/4d34504c-6928-4cf0-9789-d9ff38916c68">
        <time>
          <value>2017-10-10T06:54:53.000000Z</value>
          <uncertainty>15.0</uncertainty>
          <lowerUncertainty>38.0</lowerUncertainty>
          <upperUncertainty>3.5</upperUncertainty>
        </time>
        <waveformID networkCode="1N" stationCode="AIGE" channelCode="HHE"></waveformID>
        <filterID>smi:local/e6952e1c-3078-4bd7-b340-574e58b25d9e</filterID>
        <methodID>smi:local/auto</methodID>
        <phaseHint>S</phaseHint>
        <polarity>undecidable</polarity>
      </pick>
      <pick publicID="smi:local/3536dac1-f339-4acc-b335-6efd159a33d6">
        <time>
          <value>2017-10-10T06:41:34.005000Z</value>
          <lowerUncertainty>0.8</lowerUncertainty>
          <upperUncertainty>0.8</upperUncertainty>
        </time>
        <waveformID networkCode="1N" stationCode="AIGH" channelCode="HHZ"></waveformID>
        <filterID>smi:local/b5e94fdc-6bc7-4c40-8354-763c0a3cdf87</filterID>
        <methodID>smi:local/auto</methodID>
        <phaseHint>P</phaseHint>
        <polarity>undecidable</polarity>
      </pick>
      <pick publicID="smi:local/84072853-c0c7-4e40-a16a-ef4ec6a15b35">
        <time>
          <value>2017-10-10T06:41:34.005000Z</value>
          <lowerUncertainty>32.0</lowerUncertainty>
          <upperUncertainty>32.0</upperUncertainty>
        </time>
        <waveformID networkCode="1N" stationCode="AIGH" channelCode="HHE"></waveformID>
        <filterID>smi:local/1c679d6b-c46c-4abe-8ee2-eb554f06af39</filterID>
        <methodID>smi:local/auto</methodID>
        <phaseHint>S</phaseHint>
        <polarity>undecidable</polarity>
      </pick>
      <pick publicID="smi:local/f338b7a3-6670-4dd1-a85a-6a7efba4fbad">
        <time>
          <value>2017-10-10T06:45:44.014999Z</value>
          <uncertainty>2.8076923076923115</uncertainty>
          <lowerUncertainty>1.423077</lowerUncertainty>
          <upperUncertainty>3.5</upperUncertainty>
        </time>
        <waveformID networkCode="BW" stationCode="ALFT" channelCode="HHZ"></waveformID>
        <filterID>smi:local/bab4a9c1-591b-4f69-afde-1f18e336bf8b</filterID>
        <methodID>smi:local/auto</methodID>
        <phaseHint>P</phaseHint>
        <polarity>undecidable</polarity>
      </pick>
      <pick publicID="smi:local/1b447ec0-0262-471f-ba61-2737b0a51afe">
        <time>
          <value>2017-10-10T06:56:16.004999Z</value>
          <uncertainty>3.6666666666666665</uncertainty>
          <lowerUncertainty>3.0</lowerUncertainty>
          <upperUncertainty>4.0</upperUncertainty>
        </time>
        <waveformID networkCode="BW" stationCode="ALFT" channelCode="HHE"></waveformID>
        <filterID>smi:local/96c789e1-a579-40be-9325-f080681100c9</filterID>
        <methodID>smi:local/auto</methodID>
        <phaseHint>S</phaseHint>
        <polarity>undecidable</polarity>
      </pick>
      <pick publicID="smi:local/b2603eac-c8d5-4c42-892b-ee98222d6639">
        <time>
          <value>2017-10-10T06:45:40.980000Z</value>
          <uncertainty>0.6111111111111143</uncertainty>
          <lowerUncertainty>1.833333</lowerUncertainty>
          <upperUncertainty>0.5</upperUncertainty>
        </time>
        <waveformID networkCode="BW" stationCode="BIB" channelCode="HHZ"></waveformID>
        <filterID>smi:local/b79a7cc0-43e7-42c5-a4ea-f0e51c791116</filterID>
        <methodID>smi:local/auto</methodID>
        <phaseHint>P</phaseHint>
        <polarity>undecidable</polarity>
      </pick>
      <pick publicID="smi:local/8a55183a-5534-42d0-ad10-05f24bba51fd">
        <time>
          <value>2017-10-10T06:41:33.980000Z</value>
          <lowerUncertainty>32.0</lowerUncertainty>
          <upperUncertainty>32.0</upperUncertainty>
        </time>
        <waveformID networkCode="BW" stationCode="BIB" channelCode="HHE"></waveformID>
        <filterID>smi:local/06ac59da-ee57-420f-8eb1-bb433db4c4b8</filterID>
        <methodID>smi:local/auto</methodID>
        <phaseHint>S</phaseHint>
        <polarity>undecidable</polarity>
      </pick>
      <pick publicID="smi:local/ea20bf64-97b9-4fc5-8722-26c95540a185">
        <time>
          <value>2017-10-10T06:45:47.519999Z</value>
          <uncertainty>2.75</uncertainty>
          <lowerUncertainty>1.25</lowerUncertainty>
          <upperUncertainty>3.5</upperUncertainty>
        </time>
        <waveformID networkCode="BW" stationCode="BDGS" channelCode="HHZ"></waveformID>
        <filterID>smi:local/690ec204-3e69-4fea-9665-65aa774e3266</filterID>
        <methodID>smi:local/auto</methodID>
        <phaseHint>P</phaseHint>
        <polarity>undecidable</polarity>
      </pick>
      <pick publicID="smi:local/d48ec557-b702-41f4-bb0f-93748a3907dd">
        <time>
          <value>2017-10-10T06:56:21.989999Z</value>
          <uncertainty>0.9444444444444571</uncertainty>
          <lowerUncertainty>2.833333</lowerUncertainty>
          <upperUncertainty>0.5</upperUncertainty>
        </time>
        <waveformID networkCode="BW" stationCode="BDGS" channelCode="HHE"></waveformID>
        <filterID>smi:local/cc9bc39a-7c05-41f1-bf50-33fcec3c151b</filterID>
        <methodID>smi:local/auto</methodID>
        <phaseHint>S</phaseHint>
        <polarity>undecidable</polarity>
      </pick>
      <pick publicID="smi:local/9049c4ea-d7b5-47db-870e-3422edb3585d">
        <time>
          <value>2017-10-10T06:45:42.020000Z</value>
          <uncertainty>3.8076923076923115</uncertainty>
          <lowerUncertainty>1.423077</lowerUncertainty>
          <upperUncertainty>5.0</upperUncertainty>
        </time>
        <waveformID networkCode="BW" stationCode="BE1" channelCode="HHZ"></waveformID>
        <filterID>smi:local/78e197f9-62c2-489d-9c91-f35324356a32</filterID>
        <methodID>smi:local/auto</methodID>
        <phaseHint>P</phaseHint>
        <polarity>undecidable</polarity>
      </pick>
      <pick publicID="smi:local/ce21ddd6-ef02-4c52-a369-1efa668fa812">
        <time>
          <value>2017-10-10T06:56:16.985000Z</value>
          <uncertainty>2.5</uncertainty>
          <lowerUncertainty>3.5</lowerUncertainty>
          <upperUncertainty>2.0</upperUncertainty>
        </time>
        <waveformID networkCode="BW" stationCode="BE1" channelCode="HHE"></waveformID>
        <filterID>smi:local/abda48f5-b3a1-40b2-9758-6f681e59d5d7</filterID>
        <methodID>smi:local/auto</methodID>
        <phaseHint>S</phaseHint>
        <polarity>undecidable</polarity>
      </pick>
      <pick publicID="smi:local/f484127e-c131-467b-bd6c-0b2cb590fabf">
        <time>
          <value>2017-10-10T06:45:47.015000Z</value>
          <uncertainty>0.6000000000000038</uncertainty>
          <lowerUncertainty>1.8</lowerUncertainty>
          <upperUncertainty>0.5</upperUncertainty>
        </time>
        <waveformID networkCode="BW" stationCode="FFB2" channelCode="HHZ"></waveformID>
        <filterID>smi:local/3b3ffd4a-7cbf-4b36-a274-cefda1c3e846</filterID>
        <methodID>smi:local/auto</methodID>
        <phaseHint>P</phaseHint>
        <polarity>undecidable</polarity>
      </pick>
      <pick publicID="smi:local/65264bf8-97b5-40d9-bbdb-4a16225b1bad">
        <time>
          <value>2017-10-10T06:56:19.485000Z</value>
          <uncertainty>0.8666666666666742</uncertainty>
          <lowerUncertainty>2.6</lowerUncertainty>
          <upperUncertainty>0.5</upperUncertainty>
        </time>
        <waveformID networkCode="BW" stationCode="FFB2" channelCode="HH2"></waveformID>
        <filterID>smi:local/e14b2768-9081-442c-92e9-cd02359e1851</filterID>
        <methodID>smi:local/auto</methodID>
        <phaseHint>S</phaseHint>
        <polarity>undecidable</polarity>
      </pick>
      <pick publicID="smi:local/3a71c957-6013-4ced-b7c3-c590913a355f">
        <time>
          <value>2017-10-10T06:45:46.980000Z</value>
          <uncertainty>0.9166666666666666</uncertainty>
          <lowerUncertainty>1.75</lowerUncertainty>
          <upperUncertainty>0.5</upperUncertainty>
        </time>
        <waveformID networkCode="BW" stationCode="FFB3" channelCode="HHZ"></waveformID>
        <filterID>smi:local/44d7d45d-ad3f-4836-a172-4a25603f8897</filterID>
        <methodID>smi:local/auto</methodID>
        <phaseHint>P</phaseHint>
        <polarity>undecidable</polarity>
      </pick>
      <pick publicID="smi:local/24df8664-bb8e-491f-9ebe-b36c65a92309">
        <time>
          <value>2017-10-10T06:56:19.510000Z</value>
          <uncertainty>1.2000000000000075</uncertainty>
          <lowerUncertainty>2.6</lowerUncertainty>
          <upperUncertainty>0.5</upperUncertainty>
        </time>
        <waveformID networkCode="BW" stationCode="FFB3" channelCode="HH2"></waveformID>
        <filterID>smi:local/ad044314-79eb-47dc-80fb-76b1c5d7fe13</filterID>
        <methodID>smi:local/auto</methodID>
        <phaseHint>S</phaseHint>
        <polarity>undecidable</polarity>
      </pick>
      <pick publicID="smi:local/6270ea0e-2e9c-4868-9ee1-9dc255e8f38f">
        <time>
          <value>2017-10-10T06:45:46.005000Z</value>
          <uncertainty>1.3000000000000018</uncertainty>
          <lowerUncertainty>1.9</lowerUncertainty>
          <upperUncertainty>1.0</upperUncertainty>
        </time>
        <waveformID networkCode="BW" stationCode="FFB1" channelCode="HHZ"></waveformID>
        <filterID>smi:local/435a8d64-7bf6-41a1-8209-1b1dce1c5729</filterID>
        <methodID>smi:local/auto</methodID>
        <phaseHint>P</phaseHint>
        <polarity>undecidable</polarity>
      </pick>
      <pick publicID="smi:local/ea41583b-0b6b-41c4-b28a-25bad5c5f45f">
        <time>
          <value>2017-10-10T06:56:19.485000Z</value>
          <uncertainty>1.7777777777777903</uncertainty>
          <lowerUncertainty>4.333333</lowerUncertainty>
          <upperUncertainty>0.5</upperUncertainty>
        </time>
        <waveformID networkCode="BW" stationCode="FFB1" channelCode="HH2"></waveformID>
        <filterID>smi:local/817fce7b-36b3-4176-b81b-4d8a22140e4c</filterID>
        <methodID>smi:local/auto</methodID>
        <phaseHint>S</phaseHint>
        <polarity>undecidable</polarity>
      </pick>
      <pick publicID="smi:local/973671e6-3dda-4b3c-8fb1-49b57a836e43">
        <time>
          <value>2017-10-10T06:45:47.025000Z</value>
          <uncertainty>0.7619047619047592</uncertainty>
          <lowerUncertainty>1.285714</lowerUncertainty>
          <upperUncertainty>0.5</upperUncertainty>
        </time>
        <waveformID networkCode="BW" stationCode="GRMB" channelCode="HHZ"></waveformID>
        <filterID>smi:local/fc2f5bb6-c25f-4475-b4ac-ad312a38fb68</filterID>
        <methodID>smi:local/auto</methodID>
        <phaseHint>P</phaseHint>
        <polarity>undecidable</polarity>
      </pick>
      <pick publicID="smi:local/d0a979c7-8920-4455-936f-365414bb7993">
        <time>
          <value>2017-10-10T06:56:19.525000Z</value>
          <uncertainty>1.805555555555543</uncertainty>
          <lowerUncertainty>4.416667</lowerUncertainty>
          <upperUncertainty>0.5</upperUncertainty>
        </time>
        <waveformID networkCode="BW" stationCode="GRMB" channelCode="HHE"></waveformID>
        <filterID>smi:local/78d73070-5dac-44ff-ae30-a7dc14334cd2</filterID>
        <methodID>smi:local/auto</methodID>
        <phaseHint>S</phaseHint>
        <polarity>undecidable</polarity>
      </pick>
      <pick publicID="smi:local/f76e8a31-4d63-4590-b40b-2a85aadcf63b">
        <time>
          <value>2017-10-10T06:45:42.000000Z</value>
          <uncertainty>3.848484848484844</uncertainty>
          <lowerUncertainty>1.545455</lowerUncertainty>
          <upperUncertainty>5.0</upperUncertainty>
        </time>
        <waveformID networkCode="BW" stationCode="GELB" channelCode="HHZ"></waveformID>
        <filterID>smi:local/deabdfd6-4b64-4fea-a308-27c7f46e020f</filterID>
        <methodID>smi:local/auto</methodID>
        <phaseHint>P</phaseHint>
        <polarity>undecidable</polarity>
      </pick>
      <pick publicID="smi:local/05c55719-b03d-44a6-b957-b195238e325f">
        <time>
          <value>2017-10-10T06:56:12.480000Z</value>
          <uncertainty>6.111111111111124</uncertainty>
          <lowerUncertainty>4.333333</lowerUncertainty>
          <upperUncertainty>7.0</upperUncertainty>
        </time>
        <waveformID networkCode="BW" stationCode="GELB" channelCode="HHE"></waveformID>
        <filterID>smi:local/f7f20478-5662-47f6-ab54-c985983840d0</filterID>
        <methodID>smi:local/auto</methodID>
        <phaseHint>S</phaseHint>
        <polarity>undecidable</polarity>
      </pick>
      <pick publicID="smi:local/e18b4cf4-4292-40ec-ba14-b87ba911d22b">
        <time>
          <value>2017-10-10T06:45:51.494999Z</value>
          <uncertainty>0.8999999999999962</uncertainty>
          <lowerUncertainty>1.7</lowerUncertainty>
          <upperUncertainty>0.5</upperUncertainty>
        </time>
        <waveformID networkCode="BW" stationCode="KW1" channelCode="HHZ"></waveformID>
        <filterID>smi:local/468b6a0a-db94-470b-8253-598f9d7e2b81</filterID>
        <methodID>smi:local/auto</methodID>
        <phaseHint>P</phaseHint>
        <polarity>undecidable</polarity>
      </pick>
      <pick publicID="smi:local/b68d9169-9e24-4a3d-b671-7c654084a2d7">
        <time>
          <value>2017-10-10T06:56:22.985000Z</value>
          <uncertainty>1.966666666666659</uncertainty>
          <lowerUncertainty>2.9</lowerUncertainty>
          <upperUncertainty>1.5</upperUncertainty>
        </time>
        <waveformID networkCode="BW" stationCode="KW1" channelCode="HHE"></waveformID>
        <filterID>smi:local/971815d1-a358-445f-b33f-51c20e28ef16</filterID>
        <methodID>smi:local/auto</methodID>
        <phaseHint>S</phaseHint>
        <polarity>undecidable</polarity>
      </pick>
      <pick publicID="smi:local/f6b81a87-99fb-4e56-862a-bdfdc6f30afe">
        <time>
          <value>2017-10-10T06:45:51.995000Z</value>
          <uncertainty>0.8484848484848536</uncertainty>
          <lowerUncertainty>1.545455</lowerUncertainty>
          <upperUncertainty>0.5</upperUncertainty>
        </time>
        <waveformID networkCode="BW" stationCode="MANZ" channelCode="HHZ"></waveformID>
        <filterID>smi:local/3fc395e4-2ee6-440c-8a61-c4557d8ec2b4</filterID>
        <methodID>smi:local/auto</methodID>
        <phaseHint>P</phaseHint>
        <polarity>undecidable</polarity>
      </pick>
      <pick publicID="smi:local/a306f391-c686-4953-b4d7-e35a862685c8">
        <time>
          <value>2017-10-10T06:56:18.515000Z</value>
          <uncertainty>2.2916666666666665</uncertainty>
          <lowerUncertainty>4.875</lowerUncertainty>
          <upperUncertainty>1.0</upperUncertainty>
        </time>
        <waveformID networkCode="BW" stationCode="MANZ" channelCode="HHE"></waveformID>
        <filterID>smi:local/2f56cb3a-d5ca-42ea-8511-734640a83333</filterID>
        <methodID>smi:local/auto</methodID>
        <phaseHint>S</phaseHint>
        <polarity>undecidable</polarity>
      </pick>
      <pick publicID="smi:local/037dfaf0-4478-4e22-b1c5-f59cde82fb45">
        <time>
          <value>2017-10-10T06:45:48.525000Z</value>
          <uncertainty>0.7948717948717956</uncertainty>
          <lowerUncertainty>1.384615</lowerUncertainty>
          <upperUncertainty>0.5</upperUncertainty>
        </time>
        <waveformID networkCode="BW" stationCode="MGS04" channelCode="HHZ"></waveformID>
        <filterID>smi:local/0ac1e00c-8c25-4f4a-a49b-6ac3db7d5d06</filterID>
        <methodID>smi:local/auto</methodID>
        <phaseHint>P</phaseHint>
        <polarity>undecidable</polarity>
      </pick>
      <pick publicID="smi:local/91b1d916-ed5c-4785-9ad7-e6fa0df7501a">
        <time>
          <value>2017-10-10T06:56:18.500000Z</value>
          <uncertainty>2.5625</uncertainty>
          <lowerUncertainty>2.6875</lowerUncertainty>
          <upperUncertainty>2.5</upperUncertainty>
        </time>
        <waveformID networkCode="BW" stationCode="MGS04" channelCode="HHE"></waveformID>
        <filterID>smi:local/17d20001-2f06-4d9d-a772-e9d822e1d3c2</filterID>
        <methodID>smi:local/auto</methodID>
        <phaseHint>S</phaseHint>
        <polarity>undecidable</polarity>
      </pick>
      <pick publicID="smi:local/cb43565b-13ad-4693-b955-16227aba72ac">
        <time>
          <value>2017-10-10T06:45:46.490000Z</value>
          <uncertainty>1.847222222222219</uncertainty>
          <lowerUncertainty>1.541667</lowerUncertainty>
          <upperUncertainty>2.0</upperUncertainty>
        </time>
        <waveformID networkCode="BW" stationCode="MGSBH" channelCode="HHZ"></waveformID>
        <filterID>smi:local/284f768a-4143-44a2-9023-fdde108ecb5a</filterID>
        <methodID>smi:local/auto</methodID>
        <phaseHint>P</phaseHint>
        <polarity>undecidable</polarity>
      </pick>
      <pick publicID="smi:local/8a29cff6-4834-4b9c-9653-d5120298edc1">
        <time>
          <value>2017-10-10T06:56:08.990000Z</value>
          <uncertainty>6.083333333333333</uncertainty>
          <lowerUncertainty>4.25</lowerUncertainty>
          <upperUncertainty>7.0</upperUncertainty>
        </time>
        <waveformID networkCode="BW" stationCode="MGSBH" channelCode="HH2"></waveformID>
        <filterID>smi:local/951f4497-239f-4d10-89ac-e05d3b445c24</filterID>
        <methodID>smi:local/auto</methodID>
        <phaseHint>S</phaseHint>
        <polarity>undecidable</polarity>
      </pick>
      <pick publicID="smi:local/af2433be-3a9e-48a4-a16b-b3c455d1023b">
        <time>
          <value>2017-10-10T06:45:50.509999Z</value>
          <uncertainty>0.8333333333333334</uncertainty>
          <lowerUncertainty>1.5</lowerUncertainty>
          <upperUncertainty>0.5</upperUncertainty>
        </time>
        <waveformID networkCode="BW" stationCode="RJOB" channelCode="HHZ"></waveformID>
        <filterID>smi:local/4acfe0b1-9948-4d1a-bfd9-88e6771a6682</filterID>
        <methodID>smi:local/auto</methodID>
        <phaseHint>P</phaseHint>
        <polarity>undecidable</polarity>
      </pick>
      <pick publicID="smi:local/ee348f12-76c0-41d1-a7ed-9993073003a7">
        <time>
          <value>2017-10-10T06:56:17.009999Z</value>
          <uncertainty>3.8125</uncertainty>
          <lowerUncertainty>3.4375</lowerUncertainty>
          <upperUncertainty>4.0</upperUncertainty>
        </time>
        <waveformID networkCode="BW" stationCode="RJOB" channelCode="HHE"></waveformID>
