<?xml version='1.0' encoding='utf-8'?>
<q:quakeml xmlns="http://quakeml.org/xmlns/bed/1.2" xmlns:q="http://quakeml.org/xmlns/quakeml/1.2">
  <eventParameters publicID="smi:local/718c9695-3146-446b-8a51-091ffdca54cb">
    <event publicID="smi:local/20171010_063224.a">
      <origin publicID="smi:local/ndk/C201710100632A/origin#cmtorigin">
        <time>
          <value>2017-10-10T06:32:24.800000Z</value>
        </time>
        <latitude>
          <value>-18.58</value>
        </latitude>
        <longitude>
          <value>-69.86</value>
        </longitude>
        <depth>
          <value>106.4</value>
        </depth>
      </origin>
      <magnitude publicID="smi:local/3a45b59c-d866-4e66-be0c-a7eee1242400">
        <mag>
          <value>6.27</value>
        </mag>
        <type>Mwc</type>
        <originID>smi:local/ndk/C201710100632A/origin#cmtorigin</originID>
      </magnitude>
      <pick publicID="smi:local/9bfae339-7329-4156-a0ce-23ed7c90aa93">
        <time>
          <value>2017-10-10T06:41:34.000000Z</value>
          <lowerUncertainty>0.8</lowerUncertainty>
          <upperUncertainty>0.8</upperUncertainty>
        </time>
        <waveformID networkCode="1N" stationCode="AIGE" channelCode="HHZ"></waveformID>
        <filterID>smi:local/a040f378-2517-484f-8f69-af162b015920</filterID>
        <methodID>smi:local/auto</methodID>
        <phaseHint>P</phaseHint>
        <polarity>undecidable</polarity>
      </pick>
      <pick publicID="smi:local/ff8ec09d-f076-4942-80f0-2f71381df434">
        <time>
          <value>2017-10-10T06:54:53.000000Z</value>
          <uncertainty>15.0</uncertainty>
          <lowerUncertainty>38.0</lowerUncertainty>
          <upperUncertainty>3.5</upperUncertainty>
        </time>
        <waveformID networkCode="1N" stationCode="AIGE" channelCode="HHE"></waveformID>
        <filterID>smi:local/886828e6-9811-4701-b19d-8b33b9b547ac</filterID>
        <methodID>smi:local/auto</methodID>
        <phaseHint>S</phaseHint>
        <polarity>undecidable</polarity>
      </pick>
      <pick publicID="smi:local/9132f15c-389d-4b17-9e99-84ef5b63dd41">
        <time>
          <value>2017-10-10T06:41:34.005000Z</value>
          <lowerUncertainty>0.8</lowerUncertainty>
          <upperUncertainty>0.8</upperUncertainty>
        </time>
        <waveformID networkCode="1N" stationCode="AIGH" channelCode="HHZ"></waveformID>
        <filterID>smi:local/92bc9516-cf25-44bb-8fae-c5163f544034</filterID>
        <methodID>smi:local/auto</methodID>
        <phaseHint>P</phaseHint>
        <polarity>undecidable</polarity>
      </pick>
      <pick publicID="smi:local/135c4871-8c15-4a12-9fc9-4f0e9bf18c38">
        <time>
          <value>2017-10-10T06:41:34.005000Z</value>
          <lowerUncertainty>32.0</lowerUncertainty>
          <upperUncertainty>32.0</upperUncertainty>
        </time>
        <waveformID networkCode="1N" stationCode="AIGH" channelCode="HHE"></waveformID>
        <filterID>smi:local/73e6b7ae-3f3a-4167-8d59-bfceab2a52fa</filterID>
        <methodID>smi:local/auto</methodID>
        <phaseHint>S</phaseHint>
        <polarity>undecidable</polarity>
      </pick>
      <pick publicID="smi:local/0ce0d231-832a-4af6-8200-a33a6871d51b">
        <time>
          <value>2017-10-10T06:45:44.014999Z</value>
          <uncertainty>2.8076923076923115</uncertainty>
          <lowerUncertainty>1.423077</lowerUncertainty>
          <upperUncertainty>3.5</upperUncertainty>
        </time>
        <waveformID networkCode="BW" stationCode="ALFT" channelCode="HHZ"></waveformID>
        <filterID>smi:local/da64152e-63cf-4065-a49d-d82fedc9d406</filterID>
        <methodID>smi:local/auto</methodID>
        <phaseHint>P</phaseHint>
        <polarity>undecidable</polarity>
      </pick>
      <pick publicID="smi:local/f38e5902-a68a-4a5d-b663-df5be6fb95d9">
        <time>
          <value>2017-10-10T06:56:16.004999Z</value>
          <uncertainty>3.6666666666666665</uncertainty>
          <lowerUncertainty>3.0</lowerUncertainty>
          <upperUncertainty>4.0</upperUncertainty>
        </time>
        <waveformID networkCode="BW" stationCode="ALFT" channelCode="HHE"></waveformID>
        <filterID>smi:local/4b055598-e7e0-4177-bbcc-accc302f00e6</filterID>
        <methodID>smi:local/auto</methodID>
        <phaseHint>S</phaseHint>
        <polarity>undecidable</polarity>
      </pick>
      <pick publicID="smi:local/a1b86bec-a174-445d-a641-e863f622cc2d">
        <time>
          <value>2017-10-10T06:45:47.519999Z</value>
          <uncertainty>2.75</uncertainty>
          <lowerUncertainty>1.25</lowerUncertainty>
          <upperUncertainty>3.5</upperUncertainty>
        </time>
        <waveformID networkCode="BW" stationCode="BDGS" channelCode="HHZ"></waveformID>
        <filterID>smi:local/6f64ef1d-c768-41a6-9924-3e127c66c0d3</filterID>
        <methodID>smi:local/auto</methodID>
        <phaseHint>P</phaseHint>
        <polarity>undecidable</polarity>
      </pick>
      <pick publicID="smi:local/fda16bb8-421f-4177-a69e-4cb2cc66eb77">
        <time>
          <value>2017-10-10T06:56:21.989999Z</value>
          <uncertainty>0.9444444444444571</uncertainty>
          <lowerUncertainty>2.833333</lowerUncertainty>
          <upperUncertainty>0.5</upperUncertainty>
        </time>
        <waveformID networkCode="BW" stationCode="BDGS" channelCode="HHE"></waveformID>
        <filterID>smi:local/1923a064-a3c8-4d5f-ba0e-6d745bb1656b</filterID>
        <methodID>smi:local/auto</methodID>
        <phaseHint>S</phaseHint>
        <polarity>undecidable</polarity>
      </pick>
      <pick publicID="smi:local/359ec60f-b403-4c8d-9ac7-851920030c0f">
        <time>
          <value>2017-10-10T06:45:42.020000Z</value>
          <uncertainty>3.8076923076923115</uncertainty>
          <lowerUncertainty>1.423077</lowerUncertainty>
          <upperUncertainty>5.0</upperUncertainty>
        </time>
        <waveformID networkCode="BW" stationCode="BE1" channelCode="HHZ"></waveformID>
        <filterID>smi:local/f9194b75-b0cb-41a7-8bf5-fac25ff5b3d3</filterID>
        <methodID>smi:local/auto</methodID>
        <phaseHint>P</phaseHint>
        <polarity>undecidable</polarity>
      </pick>
      <pick publicID="smi:local/655b0d2c-5e55-473f-811e-84937e554d9f">
        <time>
          <value>2017-10-10T06:56:16.985000Z</value>
          <uncertainty>2.5</uncertainty>
          <lowerUncertainty>3.5</lowerUncertainty>
          <upperUncertainty>2.0</upperUncertainty>
        </time>
        <waveformID networkCode="BW" stationCode="BE1" channelCode="HHE"></waveformID>
        <filterID>smi:local/4a8c4282-9cc4-414b-8241-d722546fb492</filterID>
        <methodID>smi:local/auto</methodID>
        <phaseHint>S</phaseHint>
        <polarity>undecidable</polarity>
      </pick>
      <pick publicID="smi:local/fcc4046f-c0f0-4d12-a81e-fc3b48084239">
        <time>
          <value>2017-10-10T06:45:40.980000Z</value>
          <uncertainty>0.6111111111111143</uncertainty>
          <lowerUncertainty>1.833333</lowerUncertainty>
          <upperUncertainty>0.5</upperUncertainty>
        </time>
        <waveformID networkCode="BW" stationCode="BIB" channelCode="HHZ"></waveformID>
        <filterID>smi:local/2c561cce-84ad-4211-a338-b18d7730b1c4</filterID>
        <methodID>smi:local/auto</methodID>
        <phaseHint>P</phaseHint>
        <polarity>undecidable</polarity>
      </pick>
      <pick publicID="smi:local/fa905752-d132-47a2-9214-c5a053d16132">
        <time>
          <value>2017-10-10T06:41:33.980000Z</value>
          <lowerUncertainty>32.0</lowerUncertainty>
          <upperUncertainty>32.0</upperUncertainty>
        </time>
        <waveformID networkCode="BW" stationCode="BIB" channelCode="HHE"></waveformID>
        <filterID>smi:local/c1bcf81c-f09d-42f2-b14b-35b789c0583e</filterID>
        <methodID>smi:local/auto</methodID>
        <phaseHint>S</phaseHint>
        <polarity>undecidable</polarity>
      </pick>
      <pick publicID="smi:local/f9341353-c35e-40be-bf68-9befa56c43fe">
        <time>
          <value>2017-10-10T06:45:46.005000Z</value>
          <uncertainty>1.3000000000000018</uncertainty>
          <lowerUncertainty>1.9</lowerUncertainty>
          <upperUncertainty>1.0</upperUncertainty>
        </time>
        <waveformID networkCode="BW" stationCode="FFB1" channelCode="HHZ"></waveformID>
        <filterID>smi:local/1756034c-e9cb-4029-ae05-bd06b2718fa4</filterID>
        <methodID>smi:local/auto</methodID>
        <phaseHint>P</phaseHint>
        <polarity>undecidable</polarity>
      </pick>
      <pick publicID="smi:local/8d39f98f-1d9d-4d4a-aa9a-01b80d96c3c9">
        <time>
          <value>2017-10-10T06:56:19.485000Z</value>
          <uncertainty>1.7777777777777903</uncertainty>
          <lowerUncertainty>4.333333</lowerUncertainty>
          <upperUncertainty>0.5</upperUncertainty>
        </time>
        <waveformID networkCode="BW" stationCode="FFB1" channelCode="HH2"></waveformID>
        <filterID>smi:local/ff36a1fe-9c72-497a-9164-52ebe273d523</filterID>
        <methodID>smi:local/auto</methodID>
        <phaseHint>S</phaseHint>
        <polarity>undecidable</polarity>
      </pick>
      <pick publicID="smi:local/a8f70771-5477-40ff-97b4-f1c94d78c5e5">
        <time>
          <value>2017-10-10T06:45:47.015000Z</value>
          <uncertainty>0.6000000000000038</uncertainty>
          <lowerUncertainty>1.8</lowerUncertainty>
          <upperUncertainty>0.5</upperUncertainty>
        </time>
        <waveformID networkCode="BW" stationCode="FFB2" channelCode="HHZ"></waveformID>
        <filterID>smi:local/e765e8ce-d6b4-4587-bdd7-f33876b6bf08</filterID>
        <methodID>smi:local/auto</methodID>
        <phaseHint>P</phaseHint>
        <polarity>undecidable</polarity>
      </pick>
      <pick publicID="smi:local/4c5d5b67-503b-49f2-aa11-1063758f2057">
        <time>
          <value>2017-10-10T06:56:19.485000Z</value>
          <uncertainty>0.8666666666666742</uncertainty>
          <lowerUncertainty>2.6</lowerUncertainty>
          <upperUncertainty>0.5</upperUncertainty>
        </time>
        <waveformID networkCode="BW" stationCode="FFB2" channelCode="HH2"></waveformID>
        <filterID>smi:local/a1b88e5f-caa5-43e6-8846-fc240a432083</filterID>
        <methodID>smi:local/auto</methodID>
        <phaseHint>S</phaseHint>
        <polarity>undecidable</polarity>
      </pick>
      <pick publicID="smi:local/a46653d4-09b0-4237-afc6-d055b248e8e3">
        <time>
          <value>2017-10-10T06:45:46.980000Z</value>
          <uncertainty>0.9166666666666666</uncertainty>
          <lowerUncertainty>1.75</lowerUncertainty>
          <upperUncertainty>0.5</upperUncertainty>
        </time>
        <waveformID networkCode="BW" stationCode="FFB3" channelCode="HHZ"></waveformID>
        <filterID>smi:local/db157a37-85e7-4229-b176-3dbe2ec62b70</filterID>
        <methodID>smi:local/auto</methodID>
        <phaseHint>P</phaseHint>
        <polarity>undecidable</polarity>
      </pick>
      <pick publicID="smi:local/c49b0528-6b1d-4168-b32b-80ea42dcceee">
        <time>
          <value>2017-10-10T06:56:19.510000Z</value>
          <uncertainty>1.2000000000000075</uncertainty>
          <lowerUncertainty>2.6</lowerUncertainty>
          <upperUncertainty>0.5</upperUncertainty>
        </time>
        <waveformID networkCode="BW" stationCode="FFB3" channelCode="HH2"></waveformID>
        <filterID>smi:local/c2d6baab-fc4f-43b4-b668-d1a59b03df1b</filterID>
        <methodID>smi:local/auto</methodID>
        <phaseHint>S</phaseHint>
        <polarity>undecidable</polarity>
      </pick>
      <pick publicID="smi:local/7a74d9a8-0da1-4ad0-bb67-e13b528e1ab9">
        <time>
          <value>2017-10-10T06:45:47.025000Z</value>
          <uncertainty>0.7619047619047592</uncertainty>
          <lowerUncertainty>1.285714</lowerUncertainty>
          <upperUncertainty>0.5</upperUncertainty>
        </time>
        <waveformID networkCode="BW" stationCode="GRMB" channelCode="HHZ"></waveformID>
        <filterID>smi:local/75ad284c-e85a-46f6-9884-98c4ad6981fe</filterID>
        <methodID>smi:local/auto</methodID>
        <phaseHint>P</phaseHint>
        <polarity>undecidable</polarity>
      </pick>
      <pick publicID="smi:local/ea724dd4-5ca6-451e-8f2b-e9b3e35c977d">
        <time>
          <value>2017-10-10T06:56:19.525000Z</value>
          <uncertainty>1.805555555555543</uncertainty>
          <lowerUncertainty>4.416667</lowerUncertainty>
          <upperUncertainty>0.5</upperUncertainty>
        </time>
        <waveformID networkCode="BW" stationCode="GRMB" channelCode="HHE"></waveformID>
        <filterID>smi:local/9cfdac55-bcbb-42ab-8617-da62cd57f24a</filterID>
        <methodID>smi:local/auto</methodID>
        <phaseHint>S</phaseHint>
        <polarity>undecidable</polarity>
      </pick>
      <pick publicID="smi:local/2fa501fb-2244-4761-a129-8f2952e86fe1">
        <time>
          <value>2017-10-10T06:45:42.000000Z</value>
          <uncertainty>3.848484848484844</uncertainty>
          <lowerUncertainty>1.545455</lowerUncertainty>
          <upperUncertainty>5.0</upperUncertainty>
        </time>
        <waveformID networkCode="BW" stationCode="GELB" channelCode="HHZ"></waveformID>
        <filterID>smi:local/30855452-fbd9-4697-9845-bc23c4d2b971</filterID>
        <methodID>smi:local/auto</methodID>
        <phaseHint>P</phaseHint>
        <polarity>undecidable</polarity>
      </pick>
      <pick publicID="smi:local/ba695422-cf24-41a8-8669-62b63a713b7f">
        <time>
          <value>2017-10-10T06:56:12.480000Z</value>
          <uncertainty>6.111111111111124</uncertainty>
          <lowerUncertainty>4.333333</lowerUncertainty>
          <upperUncertainty>7.0</upperUncertainty>
        </time>
        <waveformID networkCode="BW" stationCode="GELB" channelCode="HHE"></waveformID>
        <filterID>smi:local/5cd989ee-b04c-453e-9926-c022af1fbc31</filterID>
        <methodID>smi:local/auto</methodID>
        <phaseHint>S</phaseHint>
        <polarity>undecidable</polarity>
      </pick>
      <pick publicID="smi:local/b318180e-a7a7-45f3-8e66-6089e9149b35">
        <time>
          <value>2017-10-10T06:45:51.494999Z</value>
          <uncertainty>0.8999999999999962</uncertainty>
          <lowerUncertainty>1.7</lowerUncertainty>
          <upperUncertainty>0.5</upperUncertainty>
        </time>
        <waveformID networkCode="BW" stationCode="KW1" channelCode="HHZ"></waveformID>
        <filterID>smi:local/73e41f37-ecc1-4785-acd4-e1dd1d4b59c8</filterID>
        <methodID>smi:local/auto</methodID>
        <phaseHint>P</phaseHint>
        <polarity>undecidable</polarity>
      </pick>
      <pick publicID="smi:local/b224613a-6e39-4c31-a71b-6f342d74d0ea">
        <time>
          <value>2017-10-10T06:56:22.985000Z</value>
          <uncertainty>1.966666666666659</uncertainty>
          <lowerUncertainty>2.9</lowerUncertainty>
          <upperUncertainty>1.5</upperUncertainty>
        </time>
        <waveformID networkCode="BW" stationCode="KW1" channelCode="HHE"></waveformID>
        <filterID>smi:local/255132d2-ede3-4823-87e1-be9e4e5be8b3</filterID>
        <methodID>smi:local/auto</methodID>
        <phaseHint>S</phaseHint>
        <polarity>undecidable</polarity>
      </pick>
      <pick publicID="smi:local/2ee6de8a-602b-4654-8b8a-85ffcaac0c2e">
        <time>
          <value>2017-10-10T06:45:51.995000Z</value>
          <uncertainty>0.8484848484848536</uncertainty>
          <lowerUncertainty>1.545455</lowerUncertainty>
          <upperUncertainty>0.5</upperUncertainty>
        </time>
        <waveformID networkCode="BW" stationCode="MANZ" channelCode="HHZ"></waveformID>
        <filterID>smi:local/c0b3dc8e-d9e8-45e0-9f35-610eaa703ade</filterID>
        <methodID>smi:local/auto</methodID>
        <phaseHint>P</phaseHint>
        <polarity>undecidable</polarity>
      </pick>
      <pick publicID="smi:local/f2b3f5f4-9800-44c7-a226-a31c6a4e1b27">
        <time>
          <value>2017-10-10T06:56:18.515000Z</value>
          <uncertainty>2.2916666666666665</uncertainty>
          <lowerUncertainty>4.875</lowerUncertainty>
          <upperUncertainty>1.0</upperUncertainty>
        </time>
        <waveformID networkCode="BW" stationCode="MANZ" channelCode="HHE"></waveformID>
        <filterID>smi:local/610d50e5-fe17-426e-a916-a211ab430fd5</filterID>
        <methodID>smi:local/auto</methodID>
        <phaseHint>S</phaseHint>
        <polarity>undecidable</polarity>
      </pick>
      <pick publicID="smi:local/f44b9808-d6a4-4a70-b923-04c995c15c14">
        <time>
          <value>2017-10-10T06:45:48.525000Z</value>
          <uncertainty>0.7948717948717956</uncertainty>
          <lowerUncertainty>1.384615</lowerUncertainty>
          <upperUncertainty>0.5</upperUncertainty>
        </time>
        <waveformID networkCode="BW" stationCode="MGS04" channelCode="HHZ"></waveformID>
        <filterID>smi:local/0e35da45-2a94-457c-90f4-a1d7ed00e8f3</filterID>
        <methodID>smi:local/auto</methodID>
        <phaseHint>P</phaseHint>
        <polarity>undecidable</polarity>
      </pick>
      <pick publicID="smi:local/6e5235a6-49de-4f98-9a79-da91d34f77fb">
        <time>
          <value>2017-10-10T06:56:18.500000Z</value>
          <uncertainty>2.5625</uncertainty>
          <lowerUncertainty>2.6875</lowerUncertainty>
          <upperUncertainty>2.5</upperUncertainty>
        </time>
        <waveformID networkCode="BW" stationCode="MGS04" channelCode="HHE"></waveformID>
        <filterID>smi:local/9aa27382-aaaf-467d-bbf7-954ac4245246</filterID>
        <methodID>smi:local/auto</methodID>
        <phaseHint>S</phaseHint>
        <polarity>undecidable</polarity>
      </pick>
      <pick publicID="smi:local/cc231dd1-5484-4f1c-b84b-82bc2a088449">
        <time>
          <value>2017-10-10T06:45:46.490000Z</value>
          <uncertainty>1.847222222222219</uncertainty>
          <lowerUncertainty>1.541667</lowerUncertainty>
          <upperUncertainty>2.0</upperUncertainty>
        </time>
        <waveformID networkCode="BW" stationCode="MGSBH" channelCode="HHZ"></waveformID>
        <filterID>smi:local/3144eacb-72de-4b19-864e-551280b9d801</filterID>
        <methodID>smi:local/auto</methodID>
        <phaseHint>P</phaseHint>
        <polarity>undecidable</polarity>
      </pick>
      <pick publicID="smi:local/97615dcc-6fa5-436f-a59e-69d11baff82f">
        <time>
          <value>2017-10-10T06:56:08.990000Z</value>
          <uncertainty>6.083333333333333</uncertainty>
          <lowerUncertainty>4.25</lowerUncertainty>
          <upperUncertainty>7.0</upperUncertainty>
        </time>
        <waveformID networkCode="BW" stationCode="MGSBH" channelCode="HH2"></waveformID>
        <filterID>smi:local/4f8f951d-fa5e-4197-a138-9643a61242d3</filterID>
        <methodID>smi:local/auto</methodID>
        <phaseHint>S</phaseHint>
        <polarity>undecidable</polarity>
      </pick>
      <pick publicID="smi:local/e3e6bc26-d368-4560-963e-c45a9941ff16">
        <time>
          <value>2017-10-10T06:45:50.509999Z</value>
          <uncertainty>0.8333333333333334</uncertainty>
          <lowerUncertainty>1.5</lowerUncertainty>
          <upperUncertainty>0.5</upperUncertainty>
        </time>
        <waveformID networkCode="BW" stationCode="RJOB" channelCode="HHZ"></waveformID>
        <filterID>smi:local/27aa59f5-1a26-4146-8ad8-c75b73217f3b</filterID>
        <methodID>smi:local/auto</methodID>
        <phaseHint>P</phaseHint>
        <polarity>undecidable</polarity>
      </pick>
      <pick publicID="smi:local/9a33995c-3831-43e8-9e8a-47ddbddfa921">
        <time>
          <value>2017-10-10T06:56:17.009999Z</value>
          <uncertainty>3.8125</uncertainty>
          <lowerUncertainty>3.4375</lowerUncertainty>
          <upperUncertainty>4.0</upperUncertainty>
        </time>
        <waveformID networkCode="BW" stationCode="RJOB" channelCode="HHE"></waveformID>
